{"type":"FeatureCollection","features":[{"type":"Feature","id":"relation/122139","properties":{"admin_level":"6","border_type":"component_city","boundary":"administrative","name":"Bacoor","old_ref":"042103000","population":"661381","population:date":"2024-07-01","postal_code":"4102","ref":"0402103000","type":"boundary","website":"https://bacoor.gov.ph/","wikidata":"Q63129","wikimedia_commons":"Category:Bacoor","wikipedia":"en:Bacoor","id":"relation/122139"},"geometry":{"type":"Polygon","coordinates":[[[120.9228413,14.4763782],[120.9223619,14.4744616],[120.9210643,14.4692732],[120.9209742,14.4685676],[120.9210558,14.4679037],[120.9213477,14.4672198],[120.9219469,14.4667235],[120.9221836,14.4665712],[120.9231729,14.4660723],[120.923373,14.4659261],[120.9240476,14.4654993],[120.9242648,14.4653125],[120.924384,14.4651198],[120.9244324,14.464927],[120.924671,14.4637292],[120.9248525,14.462561],[120.9248681,14.4622349],[120.9248663,14.4619503],[120.9248375,14.4617313],[120.9247997,14.4615112],[120.9247366,14.4612637],[120.9246453,14.4608959],[120.924608,14.4606336],[120.9246041,14.4604258],[120.9245872,14.4602268],[120.9245536,14.4600261],[120.9243099,14.4592404],[120.9244991,14.4591452],[120.9265589,14.458227],[120.9269555,14.4580636],[120.9273683,14.4578253],[120.9276507,14.4576055],[120.9278762,14.4573502],[120.9280671,14.4570718],[120.9281767,14.4567934],[120.9282243,14.4565483],[120.9282109,14.4562598],[120.9281646,14.4559927],[120.9280953,14.4556439],[120.9280275,14.4554967],[120.9277647,14.4550843],[120.9276276,14.454852],[120.9275637,14.4547023],[120.9274771,14.454391],[120.927455,14.4541086],[120.9274704,14.4537838],[120.9274979,14.453571],[120.9276125,14.4531304],[120.9277871,14.4526648],[120.9278537,14.4523906],[120.9278898,14.4521072],[120.9279,14.4518505],[120.9278834,14.4515611],[120.9278436,14.4511578],[120.9277726,14.450883],[120.9276072,14.4503717],[120.9273684,14.4497776],[120.9271972,14.4492425],[120.9271602,14.4490344],[120.9271516,14.4488537],[120.927155,14.4486267],[120.927162,14.4485586],[120.9271726,14.4484547],[120.9272179,14.4482578],[120.9272835,14.4481134],[120.9273727,14.4479616],[120.9274886,14.4478254],[120.9276177,14.4477114],[120.9278514,14.4475403],[120.9282248,14.4473503],[120.9286929,14.4471538],[120.9297023,14.4468033],[120.9302306,14.4466084],[120.9306575,14.4464069],[120.93073,14.446358],[120.9308606,14.4462697],[120.9310671,14.4460211],[120.9312768,14.4456531],[120.9313543,14.44537],[120.9313911,14.4450868],[120.9313856,14.4447863],[120.9313259,14.4444857],[120.931181,14.4439989],[120.9309666,14.4435414],[120.9308912,14.4432855],[120.9308582,14.4431701],[120.9308361,14.4430471],[120.9308267,14.4429182],[120.9308342,14.4427541],[120.9308613,14.4426209],[120.9309192,14.442498],[120.9309957,14.4423584],[120.9311085,14.442226],[120.9311981,14.4421441],[120.9313051,14.4420655],[120.9313752,14.4420142],[120.9314487,14.441978],[120.9315254,14.441959],[120.9316134,14.4419494],[120.9317477,14.4419543],[120.9318746,14.4419959],[120.9319727,14.442072],[120.9320551,14.4421382],[120.9321383,14.442224],[120.9322647,14.4423813],[120.9324421,14.4425738],[120.9325954,14.4426895],[120.9327418,14.4427533],[120.9328397,14.4427746],[120.932941,14.4427741],[120.9330348,14.4427636],[120.9331286,14.4427356],[120.9332172,14.4426811],[120.9332917,14.4426079],[120.9333506,14.442537],[120.9334002,14.4424545],[120.9334582,14.4422789],[120.9335276,14.4419896],[120.9335815,14.4416264],[120.933701,14.4412088],[120.9337388,14.4410739],[120.9338093,14.4408714],[120.9338793,14.4407118],[120.9339568,14.4405766],[120.9340239,14.4404921],[120.9341651,14.4403991],[120.9342679,14.4403441],[120.9343995,14.4402908],[120.9345885,14.4402337],[120.9347676,14.4401823],[120.9348902,14.4401142],[120.9350136,14.4400189],[120.9351035,14.4399324],[120.9351987,14.4398324],[120.9352805,14.439696],[120.9353891,14.4394947],[120.9355568,14.4391368],[120.9357472,14.4388207],[120.9359471,14.4385542],[120.9360691,14.43833],[120.9361276,14.4381632],[120.9361578,14.43799],[120.9361696,14.4378271],[120.9361461,14.4376681],[120.9360808,14.4373318],[120.9360307,14.4370723],[120.9359765,14.4368141],[120.9359551,14.4364323],[120.9360382,14.4360192],[120.936252,14.4357348],[120.9363366,14.4356595],[120.9364311,14.4355894],[120.9365069,14.4355296],[120.9365994,14.4354718],[120.9366873,14.435403],[120.936759,14.4353439],[120.9368207,14.4353017],[120.936886,14.4352349],[120.9369173,14.4351913],[120.9369528,14.4351296],[120.9370434,14.4349562],[120.9371822,14.4347159],[120.9372928,14.4345192],[120.9373672,14.434388],[120.9374434,14.4342502],[120.9375697,14.4341055],[120.9376737,14.4339581],[120.9377515,14.4338484],[120.9378211,14.4337382],[120.9378701,14.4336269],[120.9379026,14.4335221],[120.937955,14.433299],[120.9380768,14.4329735],[120.9381213,14.4328902],[120.9381726,14.4328139],[120.9382289,14.4327376],[120.9382921,14.4326712],[120.938418,14.4325647],[120.9385031,14.4325054],[120.9385925,14.4324575],[120.9386969,14.4324022],[120.9388182,14.4323444],[120.9390141,14.4322684],[120.9391724,14.4322112],[120.9393011,14.4321561],[120.9393959,14.4320896],[120.9394547,14.4320216],[120.9394975,14.4319451],[120.9395371,14.4318535],[120.9395762,14.4317362],[120.9396117,14.4315761],[120.9400126,14.431718],[120.9401132,14.431753],[120.9402516,14.4318012],[120.9402943,14.4318141],[120.9405215,14.4318826],[120.9407778,14.4319574],[120.9409748,14.4320158],[120.9411821,14.4320701],[120.9412231,14.4320823],[120.9413221,14.4321103],[120.9413939,14.4321306],[120.9415488,14.4321729],[120.9415917,14.4321841],[120.9421188,14.4323167],[120.9423734,14.4323821],[120.942444,14.4324002],[120.9424879,14.4324093],[120.9425335,14.4324161],[120.9428056,14.4324535],[120.9429281,14.4324703],[120.9430822,14.4324915],[120.9445237,14.432752],[120.9447245,14.4327832],[120.9470206,14.433147],[120.9471792,14.4331595],[120.9472905,14.4331683],[120.9475342,14.433204],[120.9476207,14.4332167],[120.9477204,14.4332314],[120.9477783,14.4332397],[120.9477877,14.4332412],[120.9478699,14.4332532],[120.9478949,14.4332568],[120.9479778,14.433269],[120.9481784,14.4332984],[120.9481934,14.4333006],[120.9482389,14.4333072],[120.9484058,14.4331676],[120.948498,14.4329478],[120.9485582,14.4328007],[120.9486181,14.432656],[120.9486328,14.4326205],[120.9486117,14.4325353],[120.9486006,14.4324317],[120.9486074,14.4321613],[120.9486103,14.4320586],[120.9486023,14.4319423],[120.9486064,14.4318839],[120.9486117,14.4318261],[120.9486318,14.431743],[120.9486479,14.4316632],[120.9486733,14.4315862],[120.9487183,14.4315164],[120.9487606,14.4313961],[120.9487633,14.4313488],[120.9487505,14.4312878],[120.9487284,14.4312352],[120.94866,14.431074],[120.9485983,14.4309332],[120.9485721,14.4308787],[120.9485487,14.4308274],[120.9485145,14.4307839],[120.9484689,14.4307547],[120.9484233,14.4307267],[120.9483904,14.4306845],[120.9483757,14.4306364],[120.9483758,14.4305846],[120.9483878,14.4305202],[120.9484152,14.4304741],[120.9484562,14.4304332],[120.9485326,14.4303553],[120.9485581,14.4303019],[120.9485648,14.4302643],[120.9485657,14.4301959],[120.9485621,14.4301039],[120.9485602,14.4300187],[120.9485467,14.4299604],[120.9485232,14.429931],[120.9484793,14.4299124],[120.9484542,14.4299094],[120.9484287,14.4299186],[120.9484026,14.4299471],[120.9483509,14.4300058],[120.9482933,14.4300637],[120.948259,14.4300942],[120.9482141,14.4301079],[120.9481671,14.4301098],[120.948131,14.4301013],[120.9480592,14.4300818],[120.9479935,14.4300627],[120.9479418,14.4300286],[120.9479124,14.4299859],[120.947909,14.429939],[120.9479162,14.429903],[120.9479748,14.4297519],[120.9480196,14.4296479],[120.9480438,14.4295824],[120.9480521,14.4295497],[120.9480532,14.4295188],[120.9480491,14.4294861],[120.9480312,14.4294631],[120.9479999,14.429446],[120.9479516,14.429436],[120.9478869,14.429426],[120.9478203,14.4294196],[120.9477461,14.4294098],[120.9476926,14.4293989],[120.9476603,14.429378],[120.9476425,14.4293283],[120.9476349,14.4292838],[120.9476406,14.4292254],[120.9476671,14.4291713],[120.9477105,14.4291206],[120.9477675,14.4290688],[120.9478341,14.4289982],[120.9479138,14.4288982],[120.9479593,14.4288396],[120.9479893,14.4287767],[120.9480008,14.4287227],[120.9480001,14.428659],[120.9479847,14.4285972],[120.9479456,14.4285221],[120.947889,14.4284371],[120.9478204,14.4283544],[120.9477849,14.4283139],[120.947739,14.4282797],[120.9476676,14.4282402],[120.9476173,14.4281941],[120.9476011,14.4281415],[120.9475823,14.4280572],[120.9475785,14.4279784],[120.9475871,14.4279191],[120.9476112,14.4278842],[120.9476676,14.4278479],[120.9477172,14.427814],[120.9477702,14.4277713],[120.9478265,14.4277213],[120.9478725,14.4276741],[120.9479063,14.4276168],[120.9479218,14.4275693],[120.9479244,14.4275006],[120.9479136,14.427422],[120.9478909,14.4273401],[120.94786,14.4272374],[120.9478453,14.4271531],[120.9478352,14.4271024],[120.9478252,14.4270498],[120.9478195,14.4269994],[120.9478074,14.4269642],[120.94779,14.4269433],[120.9477558,14.4269287],[120.9477179,14.4269256],[120.9476193,14.4269368],[120.9475006,14.4269479],[120.9474181,14.4269608],[120.9473655,14.4269709],[120.947336,14.4269716],[120.9473058,14.4269663],[120.9472789,14.4269557],[120.9472585,14.4269378],[120.9472458,14.4269052],[120.9472465,14.4268911],[120.9472593,14.4268592],[120.947282,14.4268426],[120.9473333,14.4268114],[120.9473682,14.4267804],[120.9473789,14.4267466],[120.947377,14.4267085],[120.9473665,14.4266608],[120.9473437,14.4265997],[120.9473021,14.426518],[120.947278,14.4264367],[120.9472553,14.4263743],[120.947219,14.4262497],[120.9471855,14.4261263],[120.9471774,14.4260457],[120.9471828,14.4259315],[120.9471955,14.4258308],[120.9472126,14.425763],[120.9472834,14.4256976],[120.947347,14.4256322],[120.9473739,14.4255535],[120.9473706,14.4254906],[120.9473417,14.4254405],[120.9472994,14.4254036],[120.9472331,14.4253913],[120.9471619,14.4253783],[120.9471111,14.4253523],[120.9470728,14.4253185],[120.9470407,14.4252757],[120.9469997,14.4252066],[120.9469444,14.4251052],[120.9469048,14.4250281],[120.9468548,14.4249002],[120.9468357,14.4248115],[120.9468223,14.4247239],[120.9468227,14.4246704],[120.9468347,14.4246177],[120.9468662,14.4245666],[120.9469278,14.4244838],[120.9469857,14.4243997],[120.9470213,14.4243563],[120.9470935,14.4243037],[120.9471459,14.4242814],[120.9471966,14.42425],[120.9472528,14.4242011],[120.9472627,14.4241684],[120.9472829,14.4241257],[120.9472768,14.4240802],[120.9472703,14.424027],[120.9472493,14.4239641],[120.9472147,14.4239106],[120.9471789,14.4238284],[120.9471525,14.4237455],[120.9471322,14.4236506],[120.9470981,14.4235416],[120.9470687,14.4234652],[120.9470399,14.4233995],[120.9469928,14.4233215],[120.9469718,14.4232718],[120.9469832,14.4232241],[120.9470371,14.4231649],[120.9470916,14.4231106],[120.9471871,14.4230514],[120.9472798,14.4230009],[120.9473708,14.4229648],[120.9474548,14.4229399],[120.9475252,14.4229174],[120.9475754,14.4228716],[120.9475978,14.4227992],[120.947602,14.4227184],[120.9476109,14.4226113],[120.9476069,14.4225258],[120.9475777,14.4224629],[120.9475425,14.4224262],[120.9474726,14.4223763],[120.9474351,14.422341],[120.9474036,14.4222839],[120.9473743,14.4222099],[120.9473486,14.422145],[120.9473418,14.4220662],[120.9473601,14.4219894],[120.9474062,14.4218631],[120.9474508,14.4217512],[120.9474974,14.4216671],[120.9475627,14.4216061],[120.9476618,14.4215528],[120.9477983,14.4214875],[120.9478829,14.4214613],[120.9479378,14.4214498],[120.9479798,14.4214637],[120.9479934,14.4215522],[120.9480102,14.4216402],[120.9480362,14.4217064],[120.9480686,14.4217675],[120.9481198,14.4218175],[120.9481903,14.4218405],[120.9482585,14.4218395],[120.9483079,14.4217992],[120.9483037,14.4217482],[120.9482692,14.4217032],[120.9482541,14.4216566],[120.9482795,14.4215983],[120.948326,14.4215352],[120.9483936,14.4214618],[120.948467,14.4214196],[120.9485505,14.4213842],[120.9486228,14.4213675],[120.9486971,14.4213631],[120.9487787,14.4213689],[120.9488226,14.4213709],[120.9488892,14.4213635],[120.9489691,14.4213298],[120.9490724,14.4212653],[120.9491194,14.4212268],[120.9491656,14.4211564],[120.9491971,14.4210745],[120.9492179,14.4209674],[120.9492501,14.420833],[120.949298,14.4207206],[120.9493321,14.420653],[120.9493802,14.4206057],[120.9494654,14.4205823],[120.9495431,14.4205725],[120.9496658,14.4205725],[120.9497597,14.4205537],[120.9498405,14.4204767],[120.9498935,14.4203863],[120.949907,14.4203116],[120.9498583,14.420266],[120.9497912,14.4202348],[120.9496893,14.4202108],[120.9495726,14.4201777],[120.949523,14.42014],[120.9495093,14.4200948],[120.9495069,14.4200315],[120.9495243,14.4199712],[120.9495513,14.4199152],[120.9496041,14.4198708],[120.9496625,14.4198296],[120.9497362,14.4197822],[120.9497947,14.4197277],[120.9498428,14.4196522],[120.9499106,14.4195023],[120.9499817,14.4193334],[120.9500387,14.4191891],[120.9500863,14.4191308],[120.9501312,14.419099],[120.950204,14.4190685],[120.9502807,14.4190568],[120.9503464,14.4190301],[120.9504073,14.4189603],[120.9504363,14.4188775],[120.9504651,14.4187947],[120.9504953,14.4187145],[120.9505335,14.41861],[120.9505441,14.4185715],[120.9505684,14.4185301],[120.950606,14.4184976],[120.9506636,14.4184989],[120.9507307,14.4185301],[120.9507997,14.4185762],[120.9508641,14.4185996],[120.9509166,14.418592],[120.9509613,14.4185626],[120.9509828,14.4185126],[120.9509875,14.4184729],[120.9509793,14.4184211],[120.9509593,14.4183379],[120.9509537,14.4182521],[120.9509459,14.4181359],[120.9509457,14.4180505],[120.9509446,14.4180008],[120.9509573,14.417956],[120.9509848,14.4179125],[120.9510518,14.4178409],[120.9511129,14.4177709],[120.9511637,14.4176967],[120.9511846,14.4176267],[120.9511986,14.4175473],[120.9512108,14.4174871],[120.9512396,14.4174319],[120.9512797,14.4173635],[120.9513127,14.4173286],[120.9513543,14.4173046],[120.951422,14.4172923],[120.9514964,14.4172903],[120.9515689,14.4172619],[120.9516463,14.4171939],[120.9517256,14.4171543],[120.9518697,14.4171212],[120.9519504,14.4171026],[120.9520309,14.4170721],[120.9521022,14.4170171],[120.9521335,14.4169559],[120.952142,14.4168813],[120.9521355,14.4168032],[120.9521207,14.4167071],[120.9521415,14.4166402],[120.9521884,14.4165816],[120.95235,14.416511],[120.9525007,14.4164295],[120.9526389,14.4163644],[120.9526974,14.4163441],[120.9527725,14.4163382],[120.952826,14.4163675],[120.9528369,14.4164201],[120.9528291,14.4164841],[120.9528335,14.4165467],[120.9528523,14.4166039],[120.9529019,14.4166624],[120.9529609,14.4167039],[120.9530294,14.4167288],[120.9530823,14.4167376],[120.9531467,14.4167305],[120.9533769,14.416713],[120.9536187,14.4166954],[120.9537521,14.4166999],[120.9537984,14.4167117],[120.9538534,14.4167117],[120.9539191,14.4166909],[120.9539761,14.4166357],[120.9540103,14.4165805],[120.9540419,14.416522],[120.9540841,14.4164779],[120.9541297,14.4164409],[120.9541847,14.416422],[120.9542423,14.4164266],[120.9543081,14.4164422],[120.9544073,14.4164493],[120.9544885,14.416444],[120.9545447,14.4164321],[120.9546065,14.4164045],[120.9546909,14.4163776],[120.9547612,14.4163553],[120.9548566,14.4163247],[120.9549597,14.4162705],[120.9551582,14.4161307],[120.9552056,14.4160966],[120.95524,14.4160429],[120.9552596,14.4159784],[120.9552884,14.4159252],[120.9553232,14.4158841],[120.9554051,14.4158148],[120.9554747,14.4157623],[120.9555439,14.415694],[120.9556036,14.4156192],[120.9556391,14.4155674],[120.9556411,14.4155096],[120.9556197,14.415442],[120.9555781,14.4153712],[120.9555077,14.4152789],[120.9554239,14.4152147],[120.9553595,14.4151971],[120.9552703,14.4151835],[120.9551513,14.415172],[120.9550899,14.4151374],[120.955041,14.4150764],[120.9550329,14.4150309],[120.955041,14.4149868],[120.9550644,14.4149387],[120.9551004,14.4149125],[120.9551805,14.4148634],[120.9552947,14.4147827],[120.9553407,14.4146965],[120.9553487,14.4146151],[120.9553193,14.4145484],[120.9552696,14.4144782],[120.9551784,14.4144119],[120.9550765,14.4143406],[120.9550108,14.4142457],[120.9550054,14.4141483],[120.955035,14.414056],[120.9551221,14.4139742],[120.9552334,14.4139457],[120.95533,14.4139483],[120.9555097,14.4139372],[120.9556163,14.413908],[120.9556914,14.4138781],[120.9557397,14.4138366],[120.9557699,14.4137814],[120.9557879,14.4137112],[120.9557893,14.4136496],[120.9557752,14.4135892],[120.9557464,14.4135241],[120.9556907,14.4134378],[120.9556144,14.4133111],[120.9555553,14.4132177],[120.9554976,14.4131391],[120.9554715,14.4130834],[120.9554681,14.4130469],[120.9554876,14.4130053],[120.9555238,14.4129728],[120.9555788,14.4129598],[120.9556425,14.4129637],[120.9557625,14.4129871],[120.9558718,14.4129995],[120.9560234,14.4130136],[120.9561166,14.4130241],[120.9562319,14.413056],[120.9562942,14.413078],[120.9563727,14.4130948],[120.9564713,14.4130936],[120.9565886,14.4130813],[120.9566832,14.4130715],[120.9567476,14.4130468],[120.9568012,14.4130105],[120.9568186,14.4129806],[120.9568227,14.4129455],[120.9568065,14.4129059],[120.9567663,14.4128507],[120.956714,14.4128059],[120.9566858,14.4127637],[120.9566624,14.4127124],[120.9566631,14.4126643],[120.9566858,14.4126143],[120.9567241,14.4125747],[120.956779,14.41255],[120.9568427,14.4125383],[120.956916,14.4125161],[120.9570493,14.4124467],[120.9571237,14.4123916],[120.9571873,14.4123271],[120.9572431,14.412261],[120.9572641,14.4121771],[120.9572665,14.4120636],[120.9572632,14.4119383],[120.9572464,14.4118128],[120.9572478,14.4117434],[120.9572679,14.4116791],[120.9573195,14.4116044],[120.9573919,14.4115668],[120.9574684,14.4115387],[120.9575804,14.411509],[120.9577118,14.4114985],[120.9579063,14.4114985],[120.9580994,14.4114881],[120.958208,14.4114869],[120.9583449,14.4114479],[120.9584346,14.4113687],[120.958487,14.411266],[120.9584856,14.4111894],[120.9584534,14.4111205],[120.958389,14.4110608],[120.9583649,14.4110128],[120.9583595,14.4109758],[120.9583776,14.410929],[120.9584232,14.4108985],[120.9584923,14.4108738],[120.9585479,14.4108328],[120.9586211,14.410792],[120.9586846,14.4107499],[120.9587793,14.4106673],[120.9588457,14.4105776],[120.9589322,14.4104672],[120.9590033,14.4103944],[120.9590462,14.4103451],[120.9590529,14.4102815],[120.9590435,14.4101593],[120.9590207,14.4100581],[120.9590127,14.4099749],[120.9590207,14.4098775],[120.959053,14.4097748],[120.9591865,14.4095327],[120.959238,14.4094047],[120.9592595,14.4092566],[120.9592688,14.4091631],[120.9592567,14.4090606],[120.9592769,14.4089683],[120.9593171,14.4088839],[120.9593948,14.4087227],[120.9594378,14.4086345],[120.9594498,14.4085298],[120.9594364,14.4084448],[120.9594033,14.4083616],[120.9593017,14.4082863],[120.9591803,14.4081876],[120.9590824,14.4080811],[120.9590167,14.4079946],[120.9589899,14.4079071],[120.9589832,14.4078214],[120.9589443,14.4077504],[120.9588812,14.4076642],[120.9588209,14.407581],[120.9587988,14.407533],[120.9588035,14.407486],[120.9588484,14.4073765],[120.9588866,14.407292],[120.9589129,14.4072184],[120.9589067,14.4071453],[120.9588873,14.4070712],[120.9588631,14.4070335],[120.9588591,14.406997],[120.9588611,14.4069381],[120.9588819,14.4068621],[120.9589313,14.4067631],[120.9589838,14.4066978],[120.9590571,14.4066362],[120.9591575,14.4065911],[120.9592494,14.406549],[120.9592909,14.4064886],[120.9593397,14.4064033],[120.95936,14.4063484],[120.959364,14.4062867],[120.9593595,14.406234],[120.9593453,14.406175],[120.9593191,14.4061078],[120.9592641,14.4060015],[120.9592326,14.4059366],[120.9592237,14.4058872],[120.9592259,14.4058074],[120.9592328,14.4057357],[120.9592728,14.4056417],[120.9593197,14.4055516],[120.9593755,14.405438],[120.9595208,14.4052731],[120.959558,14.4051499],[120.9595788,14.4049294],[120.9595852,14.4048127],[120.9595835,14.4046745],[120.9596014,14.4045673],[120.9596396,14.4044611],[120.9597194,14.4043473],[120.9598079,14.4042344],[120.9598582,14.4041467],[120.9599161,14.40406],[120.9599729,14.4040233],[120.9600299,14.4039999],[120.9601023,14.403991],[120.9601965,14.4039707],[120.9602914,14.4039349],[120.9603973,14.403904],[120.9604745,14.4038966],[120.960545,14.4039068],[120.9606066,14.4039388],[120.960675,14.4039888],[120.9607453,14.4040165],[120.9608372,14.4040226],[120.9609447,14.4040029],[120.9609995,14.4039856],[120.9611006,14.4039495],[120.961196,14.4039414],[120.9613296,14.4039139],[120.9615294,14.4038373],[120.9616064,14.4038005],[120.9617018,14.4037367],[120.961784,14.4036686],[120.9618613,14.403597],[120.9619101,14.4035439],[120.961956,14.4034787],[120.9619866,14.4034147],[120.962014,14.40339],[120.9620536,14.403377],[120.9621111,14.4033719],[120.9621958,14.4033452],[120.962272,14.4033316],[120.9623567,14.4033082],[120.9624315,14.4032957],[120.9625203,14.4032842],[120.9626104,14.4032829],[120.9626657,14.4033236],[120.9627832,14.4033829],[120.9628784,14.4034192],[120.9629954,14.4034834],[120.9630974,14.4035378],[120.9631298,14.4035602],[120.9631817,14.4035893],[120.9632384,14.4036143],[120.9632881,14.4036121],[120.9633377,14.4035901],[120.9633873,14.403566],[120.963447,14.4035368],[120.9634992,14.4035189],[120.9636292,14.4034815],[120.9637025,14.4034569],[120.9637856,14.4034615],[120.9638397,14.4034816],[120.9639017,14.40354],[120.9639426,14.4035963],[120.9639814,14.4036557],[120.9640145,14.4036975],[120.9640465,14.4037213],[120.9640914,14.4037303],[120.9641343,14.4037128],[120.9641595,14.4036835],[120.964194,14.4036427],[120.9642216,14.403587],[120.9642825,14.4035472],[120.9643456,14.403518],[120.9644344,14.4035047],[120.96453,14.4035017],[120.9646255,14.4034954],[120.9647083,14.4034835],[120.9647907,14.4034606],[120.9648398,14.4034303],[120.9648773,14.4033872],[120.964884,14.4033472],[120.9648773,14.4032916],[120.96488,14.4032419],[120.9649029,14.4031993],[120.964945,14.4031653],[120.96499,14.4031419],[120.9650475,14.403123],[120.9650892,14.4031062],[120.9651274,14.4030796],[120.9651706,14.4030504],[120.9651884,14.4030309],[120.9651911,14.4029971],[120.9651757,14.4029659],[120.9651496,14.4029432],[120.9651261,14.4029166],[120.9651066,14.4028737],[120.9651113,14.4028191],[120.96512,14.4027763],[120.9651388,14.4027334],[120.9651811,14.4026834],[120.9652287,14.4026483],[120.9652863,14.4026308],[120.9653581,14.4026087],[120.9654339,14.4025788],[120.9654895,14.4025476],[120.9655479,14.4024918],[120.9655941,14.4024405],[120.9656377,14.4023892],[120.9656639,14.4023392],[120.9656918,14.4022657],[120.9656793,14.4021787],[120.9656283,14.402067],[120.9656069,14.4019722],[120.9655961,14.4018475],[120.9656002,14.4017527],[120.9656095,14.4016657],[120.9656404,14.4015163],[120.9656753,14.4014124],[120.9657202,14.4013526],[120.9658127,14.4012779],[120.9659006,14.4012104],[120.9659703,14.4011746],[120.9660199,14.4011474],[120.9660809,14.4011032],[120.9660977,14.4010603],[120.9660977,14.4010285],[120.9660789,14.4009895],[120.9660367,14.4009454],[120.965979,14.4008973],[120.965924,14.4008317],[120.9658952,14.4007811],[120.9658825,14.4007408],[120.9658758,14.4006843],[120.9658771,14.4006447],[120.9658892,14.4005856],[120.9658989,14.4005495],[120.9659138,14.400515],[120.9659639,14.4004367],[120.9660307,14.4003498],[120.9660957,14.4002862],[120.9661507,14.4002361],[120.9662312,14.4001744],[120.9663096,14.4001225],[120.9663753,14.4000673],[120.9664196,14.4000309],[120.9664618,14.4000075],[120.9665108,14.4000004],[120.9665772,14.4000088],[120.9666623,14.4000173],[120.966777,14.4000134],[120.9668729,14.3999952],[120.9669379,14.3999653],[120.9669822,14.399927],[120.9670224,14.3998692],[120.967066,14.3998094],[120.9670807,14.399764],[120.9670895,14.3996951],[120.9671022,14.3996432],[120.967131,14.3996081],[120.9672035,14.3995698],[120.9672846,14.3995451],[120.9673811,14.3995392],[120.9674489,14.3995444],[120.967524,14.399549],[120.967589,14.399536],[120.9676353,14.3995211],[120.9676758,14.3994968],[120.9677191,14.39946],[120.9677573,14.3994126],[120.9677902,14.399373],[120.9678143,14.3993463],[120.9678559,14.3992782],[120.9678861,14.3992184],[120.9679176,14.3991703],[120.9679806,14.3991106],[120.9680329,14.3990599],[120.9680758,14.3990047],[120.9680879,14.3989573],[120.9680913,14.3989138],[120.9680986,14.3988462],[120.968102,14.3988001],[120.9681147,14.3987352],[120.9681376,14.3986869],[120.968182,14.3986032],[120.96823,14.3985332],[120.9682879,14.3984479],[120.9683541,14.3983591],[120.9684004,14.3983039],[120.9684359,14.398276],[120.9684607,14.3982578],[120.9684835,14.3982182],[120.9684842,14.3981818],[120.9684708,14.3981389],[120.9684138,14.3980941],[120.9683441,14.3980493],[120.9682777,14.398],[120.9682254,14.3979467],[120.9682113,14.3979012],[120.9682113,14.3978688],[120.968224,14.3978421],[120.9682468,14.3978123],[120.9683072,14.3977713],[120.9683823,14.3977194],[120.9684902,14.3976661],[120.9685519,14.3976323],[120.9685687,14.3976018],[120.9685667,14.3975732],[120.9685519,14.3975473],[120.9684949,14.3974869],[120.96845,14.3974342],[120.9684259,14.3973661],[120.9684299,14.3973018],[120.9684467,14.3972245],[120.9684695,14.3971199],[120.9684788,14.3970381],[120.9684822,14.3969432],[120.9684916,14.3968627],[120.9685057,14.396812],[120.9685251,14.3967607],[120.9685566,14.3967023],[120.9686197,14.3966211],[120.9686646,14.3965548],[120.9687249,14.3964678],[120.9687679,14.3964054],[120.9688081,14.396333],[120.9688213,14.3962973],[120.9688262,14.3962717],[120.9688279,14.3962528],[120.968823,14.3962068],[120.9688134,14.3961768],[120.9688041,14.3961437],[120.9687906,14.3961002],[120.9687752,14.3960495],[120.9687732,14.3960041],[120.9687759,14.3959781],[120.96879,14.3959482],[120.9688101,14.3959112],[120.9688403,14.3958722],[120.9688906,14.3958261],[120.9689375,14.3957858],[120.9690146,14.3957586],[120.9690669,14.3957417],[120.9691031,14.3957163],[120.9691232,14.3956904],[120.9691239,14.3956553],[120.9691159,14.3956189],[120.9691152,14.3955981],[120.9691172,14.395554],[120.9691273,14.3955104],[120.9691447,14.3954539],[120.9691729,14.3954182],[120.9692138,14.3953822],[120.9692496,14.3953669],[120.9692963,14.3953517],[120.9693385,14.395339],[120.9693888,14.3953315],[120.9694566,14.3953261],[120.9695162,14.3953208],[120.9695675,14.3953143],[120.9696104,14.395301],[120.9696725,14.3952546],[120.9697479,14.3951889],[120.9698258,14.395113],[120.9698971,14.3950512],[120.969974,14.3949874],[120.9700835,14.3948898],[120.9701868,14.394816],[120.9702813,14.3947612],[120.9703591,14.3947219],[120.970445,14.3946707],[120.9705301,14.3946086],[120.9706193,14.3945278],[120.9707515,14.3943856],[120.9708649,14.3942372],[120.9710003,14.3941294],[120.9711519,14.3939164],[120.9712114,14.3937543],[120.9712668,14.3935203],[120.9713696,14.3932721],[120.9716285,14.3929541],[120.9717456,14.3928761],[120.9718653,14.3927964],[120.9718789,14.3927886],[120.9720299,14.3926705],[120.9721694,14.3924699],[120.9722677,14.3923085],[120.9723303,14.3921656],[120.9723705,14.3919754],[120.9724428,14.3918849],[120.9724326,14.391786],[120.9723467,14.3915678],[120.9722824,14.3913703],[120.972218,14.3911832],[120.9720678,14.3910689],[120.9721429,14.3908819],[120.9722609,14.3906428],[120.9723682,14.3905285],[120.9724249,14.3904475],[120.9726042,14.3902895],[120.9727008,14.3901752],[120.9727271,14.3900476],[120.9727437,14.3899674],[120.9727866,14.3897907],[120.9727956,14.3897582],[120.9728415,14.3895925],[120.9728367,14.3895045],[120.9729178,14.3894165],[120.9730044,14.389356],[120.973049,14.3893097],[120.9730577,14.3892775],[120.9730592,14.3892256],[120.9730573,14.3891671],[120.973071,14.389105],[120.9730334,14.3890944],[120.9729444,14.3890406],[120.9729106,14.3889436],[120.9729488,14.3888889],[120.9729531,14.3887838],[120.9729315,14.3887311],[120.9728955,14.3887052],[120.9727689,14.3886341],[120.9729817,14.3885568],[120.9751324,14.3877755],[120.9747965,14.3869489],[120.9747421,14.3868565],[120.9745059,14.3868912],[120.974152,14.3869275],[120.9739226,14.3869714],[120.9727699,14.3872836],[120.972522,14.387354],[120.9721999,14.3874471],[120.9721148,14.3874712],[120.9717667,14.3875638],[120.9710824,14.3877352],[120.9709848,14.3877652],[120.9707028,14.387852],[120.9706029,14.3878934],[120.9705084,14.3879453],[120.9700503,14.388274],[120.9699099,14.3883471],[120.9697787,14.3884045],[120.9696375,14.38845],[120.9694789,14.3884976],[120.9693436,14.388532],[120.9692962,14.3884298],[120.9691513,14.3883258],[120.9691134,14.3882813],[120.9690494,14.3882061],[120.9690162,14.3880909],[120.969123,14.3880007],[120.9691458,14.3879435],[120.9692253,14.3877719],[120.9692977,14.3874728],[120.9692604,14.3873213],[120.9692346,14.3872164],[120.9691224,14.386845],[120.9690691,14.3867116],[120.9690854,14.3866097],[120.9691321,14.386483],[120.9691391,14.3863835],[120.9691625,14.3863156],[120.9692956,14.3861776],[120.9693291,14.3860464],[120.9693155,14.3859643],[120.9694477,14.3858198],[120.969546,14.3857311],[120.9695732,14.3855735],[120.969563,14.3854454],[120.9696274,14.3853929],[120.9697435,14.3853887],[120.9698037,14.3854881],[120.969902,14.3855603],[120.970041,14.3855636],[120.9701249,14.3854883],[120.9701885,14.3853426],[120.9702256,14.3852675],[120.9702207,14.3851925],[120.970197,14.3851468],[120.9701834,14.385071],[120.9701105,14.3849344],[120.9700796,14.3848024],[120.9700623,14.3847292],[120.9700259,14.3845748],[120.9700395,14.3843613],[120.9699717,14.3842234],[120.9699594,14.3841056],[120.9700176,14.3840201],[120.9700807,14.3839427],[120.9700579,14.383844],[120.9700206,14.3837497],[120.9700677,14.3836297],[120.9700388,14.3835518],[120.9701059,14.383438],[120.9700987,14.3833358],[120.9700388,14.3832383],[120.9700457,14.3831401],[120.9701087,14.3829819],[120.9701885,14.3828768],[120.9703079,14.3827393],[120.9704367,14.3826067],[120.9706193,14.382453],[120.9707152,14.382347],[120.9707501,14.3822869],[120.9707634,14.3822303],[120.9709336,14.3815159],[120.9709572,14.381426],[120.9709991,14.3813431],[120.9710032,14.3813351],[120.9711007,14.381232],[120.9712216,14.3810568],[120.9712587,14.380949],[120.9713176,14.3808735],[120.9713717,14.3808212],[120.9715197,14.380814],[120.9717216,14.3807467],[120.9720594,14.380675],[120.9722011,14.380677],[120.9724552,14.3806259],[120.9725511,14.3805539],[120.9726038,14.3803891],[120.9726572,14.3802353],[120.9729534,14.3800293],[120.9730883,14.3799663],[120.9731604,14.3799617],[120.9732078,14.3799242],[120.9732212,14.379851],[120.9732212,14.3792398],[120.9734695,14.378664],[120.97354,14.3782623],[120.9735401,14.3781965],[120.9735395,14.3781558],[120.9735568,14.3780371],[120.9735617,14.3780179],[120.9735986,14.3778989],[120.9737289,14.3778056],[120.9738791,14.3776238],[120.9739289,14.377587],[120.9740564,14.3774925],[120.974119,14.3773167],[120.9741148,14.3771914],[120.9740877,14.3770197],[120.9739438,14.3768681],[120.9738207,14.3767267],[120.9737748,14.3765267],[120.9738812,14.3763065],[120.9740314,14.3761529],[120.9740919,14.3760256],[120.9740898,14.3756397],[120.9740648,14.3753003],[120.974054,14.3749464],[120.9740798,14.3746784],[120.9741082,14.3745338],[120.9741331,14.3743341],[120.9741491,14.3740947],[120.9741118,14.3738967],[120.9740501,14.3737678],[120.9740229,14.3737108],[120.9738629,14.3735472],[120.973599,14.3733861],[120.9735905,14.3733322],[120.9736593,14.3731616],[120.9738123,14.3730383],[120.9739135,14.3729389],[120.9743073,14.3728809],[120.9743926,14.3728275],[120.9745549,14.3726196],[120.974964,14.3723742],[120.9751052,14.3722728],[120.9752918,14.3721255],[120.975475,14.3721035],[120.9754794,14.371893],[120.9755659,14.3717162],[120.9756323,14.3715172],[120.975613,14.3714881],[120.9733824,14.3714448],[120.9728781,14.3710252],[120.9731395,14.3695565],[120.9816649,14.3665626],[120.981669,14.3650434],[120.9816522,14.3639045],[120.9816542,14.3636035],[120.981655,14.3634859],[120.9816541,14.363246],[120.9816538,14.3631819],[120.9816526,14.3628473],[120.9816594,14.3626159],[120.9817886,14.3626161],[120.9820146,14.3626163],[120.9822733,14.3626167],[120.9829821,14.3626176],[120.9830217,14.3626176],[121.0068179,14.3626479],[121.0066783,14.3632395],[121.0065972,14.3634087],[121.0065526,14.3635864],[121.0065896,14.3636942],[121.0066176,14.3637761],[121.006687,14.3639638],[121.0066094,14.3642985],[121.0067482,14.3645189],[121.0067586,14.3645783],[121.0068543,14.365127],[121.0068757,14.3655195],[121.0069909,14.3656814],[121.0070217,14.3661473],[121.0070502,14.3668249],[121.0070255,14.3675419],[121.0069645,14.3680493],[121.0069491,14.3683762],[121.0069853,14.3684461],[121.0070534,14.368526],[121.0071446,14.3688789],[121.0071948,14.3691008],[121.0071278,14.3696084],[121.0071573,14.3700362],[121.0072584,14.3702247],[121.0073011,14.3703044],[121.0073808,14.3704532],[121.0075283,14.370615],[121.0078747,14.3707022],[121.0081073,14.3706287],[121.0082542,14.3706695],[121.0086832,14.3708548],[121.0088166,14.3709864],[121.0088716,14.3710739],[121.0088836,14.3713243],[121.0089653,14.3714875],[121.0091163,14.3717365],[121.0092249,14.3718291],[121.0092918,14.37201],[121.0094661,14.3722689],[121.0095332,14.372355],[121.0097067,14.3722666],[121.0098754,14.3724793],[121.0100818,14.3727069],[121.0102624,14.3730674],[121.0103741,14.3734764],[121.0103569,14.3736296],[121.0103482,14.373897],[121.0104619,14.3740542],[121.0105155,14.3741913],[121.0105844,14.3742955],[121.0106411,14.3744075],[121.0106966,14.3745469],[121.0107204,14.3747249],[121.0107204,14.3749843],[121.0107058,14.3752181],[121.0106672,14.3758299],[121.0106516,14.3762475],[121.0106659,14.3765148],[121.0106588,14.376748],[121.0106837,14.3770165],[121.0107744,14.3773378],[121.010829,14.3776127],[121.0108526,14.3779394],[121.0109318,14.3781144],[121.0110216,14.3783092],[121.0110972,14.3786329],[121.011166,14.3789229],[121.0112963,14.3791453],[121.011366,14.3792436],[121.0113819,14.3793881],[121.011423,14.3795876],[121.0115194,14.3797832],[121.011552,14.3799903],[121.0115722,14.3801806],[121.0115661,14.3803088],[121.011503,14.380364],[121.0112773,14.3804406],[121.0110755,14.3804906],[121.0108581,14.3804564],[121.0105961,14.3804578],[121.0103326,14.3805783],[121.0099702,14.3806968],[121.0096853,14.3807803],[121.0095569,14.3809086],[121.0094796,14.3810249],[121.009442,14.3811105],[121.0093435,14.3812211],[121.009179,14.3813084],[121.0091334,14.3813574],[121.0091072,14.3814895],[121.009107,14.38164],[121.0090952,14.381787],[121.0091529,14.3819718],[121.0091492,14.3821658],[121.0090126,14.3824363],[121.0089827,14.3825607],[121.0089645,14.3827072],[121.0089378,14.3827886],[121.008812,14.3829038],[121.0086747,14.3829912],[121.0085036,14.3830847],[121.0083553,14.3831968],[121.008158,14.3833019],[121.008012,14.3834275],[121.0078481,14.3836168],[121.007725,14.3839103],[121.0077185,14.3842649],[121.0077234,14.3843986],[121.0078136,14.3845883],[121.0078588,14.3847712],[121.0077895,14.3849411],[121.0076967,14.3850877],[121.0075507,14.385288],[121.0072867,14.3856124],[121.0071489,14.3858847],[121.0070454,14.3862342],[121.006967,14.3864586],[121.0067753,14.3868035],[121.006586,14.3871893],[121.0065783,14.387481],[121.0066398,14.3876222],[121.0067169,14.387773],[121.0069339,14.3879947],[121.0076483,14.3890594],[121.0077934,14.3893244],[121.0079163,14.3897673],[121.0079412,14.3900332],[121.0079025,14.390243],[121.0078901,14.390569],[121.0077741,14.3907084],[121.0072322,14.3910303],[121.006685,14.3915647],[121.0064741,14.3916503],[121.0062182,14.3917284],[121.0060679,14.3918477],[121.0055181,14.3926038],[121.0051646,14.3926679],[121.0042213,14.3926952],[121.0037126,14.3929781],[121.003389,14.3932054],[121.0027642,14.3936457],[121.0023606,14.3936613],[121.0020918,14.3938076],[121.0019281,14.3939918],[121.001832,14.3941283],[121.0017658,14.3942409],[121.0017235,14.3942987],[121.0016893,14.3944165],[121.0017137,14.3945821],[121.0018491,14.3947258],[121.0020526,14.3948622],[121.0022173,14.3949185],[121.0023504,14.3949439],[121.0023778,14.3949145],[121.0024621,14.3949033],[121.0025299,14.394975],[121.0025279,14.3950825],[121.0024205,14.3954357],[121.0024416,14.3956096],[121.0024752,14.3957696],[121.0025594,14.395904],[121.0025068,14.3963981],[121.0025651,14.3966254],[121.0027422,14.3969575],[121.0029397,14.3972309],[121.0029541,14.3973646],[121.0028852,14.3974288],[121.0026881,14.3975023],[121.0025286,14.397618],[121.0023854,14.3978128],[121.0021275,14.398181],[121.0020424,14.3985377],[121.0021211,14.3992236],[121.0020326,14.3993731],[121.0015461,14.3998732],[121.0011335,14.4003473],[121.0011257,14.400703],[121.0009222,14.4012913],[121.0008797,14.4013615],[121.0008431,14.4014087],[121.0007987,14.4014428],[121.000718,14.4014958],[121.0004641,14.4016326],[121.0002567,14.401759],[121.0000908,14.4019157],[120.9997544,14.4023123],[120.9996347,14.4024652],[120.9995752,14.4026047],[120.9995029,14.40276],[120.9994595,14.4028149],[120.9994042,14.4028587],[120.9990142,14.4029469],[120.9989896,14.4030114],[120.9989488,14.4032598],[120.9988791,14.4033972],[120.9987956,14.4035342],[120.9985663,14.4037731],[120.9982637,14.4041672],[120.9980825,14.4046762],[120.9980597,14.4047937],[120.9981099,14.4048793],[120.9981622,14.4049546],[120.9982721,14.4050728],[120.9983612,14.4052563],[120.9983695,14.4053292],[120.9983201,14.4053821],[120.9979314,14.4057376],[120.9978242,14.4057443],[120.9977582,14.4056971],[120.9977296,14.4056343],[120.9976881,14.4054777],[120.997615,14.4053521],[120.9975104,14.4052209],[120.9973368,14.4051163],[120.9970611,14.4050351],[120.996896,14.4049773],[120.9967304,14.4049621],[120.9964312,14.4050289],[120.9960629,14.4051813],[120.9956858,14.4052874],[120.9954974,14.4054748],[120.9954471,14.4055176],[120.9952789,14.4056846],[120.9952077,14.4060921],[120.9952083,14.4061637],[120.9952012,14.4066936],[120.9951605,14.4069816],[120.995099,14.407272],[120.9950439,14.4074186],[120.9948953,14.4074479],[120.9946815,14.4074043],[120.9945266,14.4074359],[120.9944808,14.4075429],[120.9945263,14.4076721],[120.9946878,14.4078488],[120.9948352,14.4079633],[120.9949268,14.4081955],[120.9949174,14.4083205],[120.9948936,14.4085507],[120.9949304,14.4086679],[120.9951198,14.4090047],[120.9952705,14.4091484],[120.9953377,14.4093197],[120.9953392,14.4094061],[120.9953118,14.4094743],[120.9951933,14.4095635],[120.9950642,14.4096581],[120.9950012,14.4097399],[120.9949299,14.4098745],[120.9948525,14.4100161],[120.9947992,14.410185],[120.9947943,14.4102877],[120.9948145,14.4103659],[120.9948755,14.4104097],[120.9950358,14.4105743],[120.9950512,14.4106563],[120.9950254,14.4108024],[120.9949353,14.4110926],[120.9948818,14.4111726],[120.9948564,14.4111972],[120.9946586,14.4113506],[120.9946115,14.4113926],[120.9945573,14.4114791],[120.9945238,14.4115544],[120.9944243,14.4117395],[120.9943789,14.4118194],[120.9943105,14.4120819],[120.9942596,14.4122563],[120.9942292,14.4124113],[120.9942028,14.4125084],[120.9941665,14.4125807],[120.9940997,14.4126741],[120.9939654,14.4128027],[120.9939216,14.4128741],[120.9938706,14.4130027],[120.9937727,14.4131949],[120.9937457,14.4132365],[120.9935635,14.4134534],[120.9934513,14.4135867],[120.9931809,14.4138001],[120.9928782,14.41409],[120.9924491,14.4145139],[120.9922133,14.414751],[120.9921462,14.41484],[120.9920993,14.4149524],[120.9920416,14.4150596],[120.9918054,14.4153785],[120.9915718,14.4156132],[120.9913762,14.4157609],[120.991196,14.4157609],[120.9909814,14.4157027],[120.9908122,14.4156772],[120.9906638,14.4157609],[120.9904664,14.415977],[120.9903806,14.4161266],[120.990372,14.4163344],[120.9904664,14.416509],[120.9906638,14.4166586],[120.9908594,14.4168581],[120.9909845,14.4175389],[120.9909741,14.4176469],[120.9909526,14.4177182],[120.9908537,14.4179078],[120.9908198,14.4179915],[120.9907539,14.4181424],[120.9906887,14.4182976],[120.9906044,14.4184872],[120.9905447,14.4186372],[120.9904767,14.4187836],[120.9904367,14.4188918],[120.9904012,14.4189996],[120.9903811,14.4190808],[120.9903655,14.4191682],[120.9903618,14.4192817],[120.9903725,14.4194035],[120.9903882,14.4197387],[120.9903769,14.4200708],[120.9903631,14.4205084],[120.9903591,14.4206393],[120.9903658,14.4207605],[120.9903709,14.4209232],[120.990365,14.4209849],[120.9903329,14.4210517],[120.9902691,14.4211057],[120.9901949,14.4211373],[120.9901093,14.4211516],[120.9900331,14.4211643],[120.9899163,14.4212187],[120.9898492,14.4212758],[120.9898295,14.4213744],[120.9898585,14.421483],[120.9898939,14.4215916],[120.9899637,14.4217245],[120.989983,14.421839],[120.9899244,14.4219208],[120.9898214,14.4220014],[120.9897586,14.4221127],[120.9897385,14.4221777],[120.9896777,14.4222123],[120.9896079,14.422212],[120.9895005,14.4222192],[120.9894265,14.422272],[120.9894123,14.4223498],[120.9893366,14.4225058],[120.9892551,14.4226102],[120.989178,14.4226721],[120.9889714,14.4227392],[120.9888437,14.4227702],[120.9887552,14.4227641],[120.9885928,14.4226678],[120.9884665,14.4225939],[120.9883979,14.4225946],[120.9882731,14.4226602],[120.9882001,14.4227006],[120.9881161,14.4227178],[120.9880242,14.4226914],[120.9879528,14.422654],[120.9878871,14.422598],[120.9877987,14.4225224],[120.987663,14.4224718],[120.9874572,14.4224489],[120.9870932,14.4224858],[120.986899,14.4226089],[120.9868512,14.4226699],[120.9868304,14.4227419],[120.9868135,14.422944],[120.9868514,14.4231147],[120.986893,14.4233267],[120.9869229,14.4234908],[120.9869444,14.4236273],[120.9869463,14.4238001],[120.9869383,14.4239618],[120.9869428,14.4240628],[120.9869162,14.4242573],[120.9869094,14.4244445],[120.9869091,14.4245991],[120.9869766,14.4249425],[120.9870729,14.4256427],[120.9871244,14.4259857],[120.9871283,14.4263114],[120.9870159,14.4264225],[120.9868347,14.4266081],[120.9867059,14.4266678],[120.9866197,14.4266718],[120.9865743,14.4266325],[120.9865522,14.4265858],[120.9865386,14.4264828],[120.9865697,14.4263595],[120.9865539,14.4261747],[120.9864839,14.4260768],[120.9863324,14.4260048],[120.9861272,14.4259446],[120.9859395,14.4259284],[120.9858016,14.4259602],[120.9857053,14.4260457],[120.9856941,14.4261535],[120.9856762,14.4262393],[120.9856634,14.4264806],[120.9856419,14.4266957],[120.9855973,14.4269605],[120.9856235,14.4271159],[120.9857609,14.4273648],[120.9858449,14.4275638],[120.9858536,14.4276599],[120.985839,14.4277944],[120.9857084,14.4280351],[120.9855603,14.4283048],[120.9854425,14.4284808],[120.985326,14.4286786],[120.9852086,14.4287971],[120.9849729,14.4289255],[120.9846894,14.4290564],[120.9845718,14.4291621],[120.9845037,14.4292245],[120.9842659,14.4294333],[120.9842093,14.4296059],[120.9842042,14.4297202],[120.9842347,14.4298814],[120.984223,14.4301185],[120.9841602,14.4303688],[120.9839862,14.4307234],[120.98391,14.431005],[120.9838908,14.431191],[120.9839499,14.4313416],[120.9839666,14.4314834],[120.984019,14.43158],[120.9840421,14.431684],[120.984167,14.4317501],[120.9843996,14.4318157],[120.9845098,14.4319006],[120.9845698,14.4321698],[120.9844262,14.432409],[120.9842138,14.4326781],[120.9841392,14.4328392],[120.9841152,14.4330042],[120.9841169,14.4331395],[120.9841477,14.4333165],[120.9840825,14.4335181],[120.9838778,14.4336614],[120.9835453,14.433755],[120.9832113,14.4336759],[120.9828539,14.4336593],[120.9825081,14.4339165],[120.9821306,14.4342218],[120.9819214,14.4342321],[120.9814802,14.4342321],[120.9813139,14.4342776],[120.9809217,14.4346066],[120.9805278,14.4347242],[120.9800267,14.4348985],[120.9797624,14.4350027],[120.9792601,14.4350467],[120.9791396,14.4351501],[120.979026,14.435266],[120.9788369,14.4355063],[120.9787505,14.4357171],[120.9786437,14.4358608],[120.9785459,14.4359418],[120.9784828,14.4359946],[120.9781634,14.4361381],[120.9780881,14.4361928],[120.9780578,14.4362386],[120.9780248,14.4363068],[120.9779638,14.4363925],[120.9778714,14.4366179],[120.9778171,14.4367448],[120.9776768,14.4368933],[120.9774502,14.4370492],[120.9772225,14.4372449],[120.9770675,14.4373176],[120.9765798,14.4374154],[120.976358,14.4374794],[120.9762184,14.4375675],[120.9760038,14.437767],[120.9757373,14.4380909],[120.9756745,14.4381674],[120.9755854,14.4382369],[120.9754465,14.4383534],[120.9753802,14.4384239],[120.9753662,14.4384486],[120.9753339,14.4385057],[120.975299,14.4385921],[120.9752602,14.4386632],[120.9752326,14.4386973],[120.9752045,14.4387148],[120.9751375,14.4387317],[120.9750665,14.4387455],[120.9750234,14.4387596],[120.9749998,14.4387828],[120.9749517,14.4388832],[120.9748527,14.4389292],[120.9746011,14.438954],[120.9742786,14.4390304],[120.9740929,14.4391344],[120.973923,14.4392814],[120.9738202,14.439456],[120.9737231,14.4397194],[120.9735193,14.4401248],[120.9733744,14.4405218],[120.9733352,14.4405926],[120.9732561,14.4406296],[120.9731481,14.4406819],[120.9730451,14.4408032],[120.9729943,14.440993],[120.9729925,14.4411433],[120.9730598,14.441366],[120.9730349,14.4416281],[120.9730218,14.4417753],[120.9729695,14.4419065],[120.97292,14.4420631],[120.9728622,14.4422181],[120.9727793,14.4423727],[120.9725953,14.4426442],[120.9724447,14.4428279],[120.9723353,14.4429473],[120.9722346,14.443061],[120.9721706,14.4431726],[120.9721215,14.443299],[120.9721051,14.4434088],[120.9721126,14.4436221],[120.9721233,14.4437545],[120.9721307,14.4438357],[120.9721237,14.4439169],[120.9720789,14.4440892],[120.9720171,14.4442619],[120.971961,14.4443857],[120.9718748,14.4445172],[120.9717423,14.4446804],[120.9711287,14.4453898],[120.9709366,14.4456866],[120.9707538,14.4460132],[120.9705873,14.4461985],[120.970408,14.4463391],[120.9702635,14.4464706],[120.9700898,14.4465335],[120.9699864,14.4466181],[120.9699028,14.4467146],[120.9698491,14.4468832],[120.9698492,14.4470303],[120.9698824,14.447222],[120.9699391,14.4474024],[120.9699449,14.447515],[120.969904,14.4476428],[120.9698365,14.4478206],[120.9698141,14.4480226],[120.9698338,14.4481865],[120.9698824,14.4483486],[120.9698905,14.4484479],[120.9698656,14.4486008],[120.9699337,14.4489001],[120.9700312,14.4492279],[120.970057,14.4495015],[120.9700545,14.4496503],[120.9699849,14.4498228],[120.9699175,14.4499274],[120.9698135,14.4500942],[120.969742,14.450228],[120.9696938,14.4504092],[120.9696772,14.450573],[120.9696745,14.4507115],[120.9697117,14.4508663],[120.9699797,14.4514804],[120.9700294,14.4516456],[120.9700352,14.4518871],[120.9699876,14.452055],[120.9698878,14.4523243],[120.9697737,14.4526333],[120.9697096,14.4528993],[120.9697181,14.4530594],[120.9697607,14.4531742],[120.9698743,14.453328],[120.9700534,14.4534647],[120.9701698,14.453563],[120.9703078,14.4537786],[120.9703505,14.4539895],[120.9703493,14.4541147],[120.9703768,14.4542399],[120.9704121,14.4544167],[120.9704465,14.4546297],[120.9704276,14.4548152],[120.9703914,14.4549516],[120.9703272,14.455193],[120.9702468,14.4553485],[120.9701273,14.4556574],[120.9700119,14.4560071],[120.9698154,14.4565984],[120.9697049,14.4567849],[120.9695325,14.4570045],[120.9692232,14.4572993],[120.9690859,14.4574666],[120.9688972,14.4576418],[120.9688475,14.457688],[120.968611,14.4580343],[120.9683171,14.4586274],[120.9682079,14.4589008],[120.9679903,14.4595476],[120.9675781,14.4606913],[120.9675237,14.461056],[120.9675246,14.4614365],[120.9675494,14.4619269],[120.9675772,14.4622058],[120.9675799,14.4624031],[120.9675275,14.4625227],[120.9674073,14.4626795],[120.9673475,14.4627514],[120.9672161,14.4629007],[120.9670601,14.4630664],[120.9668273,14.463339],[120.9666396,14.4635582],[120.9665611,14.4636695],[120.966489,14.463794],[120.9663676,14.4640259],[120.9663006,14.4641717],[120.9661834,14.4644728],[120.9661219,14.4646512],[120.9660695,14.4648181],[120.9660281,14.4650034],[120.9660038,14.4651797],[120.9659993,14.4653505],[120.9660202,14.465492],[120.9660474,14.465618],[120.9660896,14.4657567],[120.9661379,14.4658673],[120.9661647,14.4659223],[120.9662197,14.4659848],[120.9662734,14.4660277],[120.9663333,14.4660571],[120.9664069,14.4660763],[120.9665329,14.4660933],[120.9666556,14.4661017],[120.9668259,14.466117],[120.9670034,14.4661377],[120.9671438,14.4661563],[120.9672585,14.4661796],[120.9673671,14.4662322],[120.9674784,14.4662978],[120.9675975,14.4663898],[120.9676308,14.4664155],[120.9676795,14.4664624],[120.9677524,14.4665441],[120.967879,14.4666874],[120.9679737,14.466787],[120.9681453,14.4669636],[120.9684084,14.467205],[120.968623,14.4673808],[120.9687942,14.4675185],[120.9689324,14.4676075],[120.9690985,14.467702],[120.9692339,14.467797],[120.9693691,14.4679312],[120.9694619,14.4680795],[120.9695475,14.4682284],[120.9695891,14.468363],[120.9695945,14.4683843],[120.9696064,14.4684424],[120.9696197,14.4685371],[120.9696215,14.4685806],[120.9696181,14.4686937],[120.9696106,14.4687992],[120.9695846,14.4689261],[120.96955,14.4690292],[120.9694592,14.4691754],[120.9693857,14.4692847],[120.969317,14.4693644],[120.969245,14.4694294],[120.969132,14.4694793],[120.9690125,14.4695014],[120.9687913,14.4695326],[120.9685599,14.4695727],[120.9684326,14.4696046],[120.9683159,14.4696423],[120.9681308,14.4696838],[120.9679674,14.4697081],[120.9678023,14.4697543],[120.96775,14.469776],[120.9677063,14.469812],[120.9676816,14.4698533],[120.9676656,14.4699043],[120.9676554,14.47],[120.967659,14.4701117],[120.9676687,14.470322],[120.967686,14.4705167],[120.9677187,14.4706854],[120.967758,14.4707941],[120.9678282,14.47092],[120.967997,14.4711734],[120.9681374,14.4713536],[120.9682878,14.4715325],[120.968391,14.4716297],[120.9685191,14.471718],[120.9687757,14.4719005],[120.9689107,14.4719764],[120.9690676,14.4720411],[120.9692495,14.4720882],[120.9693291,14.4720907],[120.969393,14.4720837],[120.9694827,14.4720433],[120.9695527,14.471995],[120.9696349,14.4719128],[120.9697067,14.4718174],[120.9698153,14.4716557],[120.9699159,14.4715214],[120.9700171,14.4714174],[120.9701077,14.471345],[120.9703024,14.4712035],[120.9704107,14.4711402],[120.9705338,14.4711047],[120.9706454,14.4710791],[120.9707697,14.4710794],[120.9709512,14.4710967],[120.9711119,14.471134],[120.9712769,14.4712102],[120.9714306,14.4713254],[120.9715118,14.4714349],[120.9715596,14.4715472],[120.9715886,14.4716889],[120.9715942,14.4718966],[120.971581,14.4721329],[120.971561,14.4722893],[120.9715306,14.4724474],[120.9714898,14.4725821],[120.9713991,14.4727661],[120.9712127,14.4730146],[120.9710283,14.4732477],[120.9708231,14.4734802],[120.970697,14.4736423],[120.970558,14.4739057],[120.9704724,14.4741255],[120.9703958,14.474327],[120.9703423,14.4745489],[120.9703006,14.4747403],[120.970223,14.4751253],[120.97014,14.4756081],[120.9688937,14.4769351],[120.9433528,14.4939136],[120.9424558,14.4926563],[120.9228413,14.4763782]]]}}]}