{"type":"FeatureCollection","features":[{"type":"Feature","id":"relation/122129","properties":{"admin_level":"6","alt_name:tl":"Lungsod ng Cavite","border_type":"component_city","boundary":"administrative","name":"Cavite City","name:en":"Cavite City","name:es":"Cavite","name:ja":"カヴィテ","name:tl":"Lungsod ng Kabite","old_ref":"042105000","population":"100674","population:date":"2020-05-01","ref":"0402105000","start_date":"1909","type":"boundary","website":"http://www.cavitecity.gov.ph/","wikidata":"Q1482","wikimedia_commons":"Category:Cavite City","wikipedia":"en:Cavite City","id":"relation/122129"},"geometry":{"type":"MultiPolygon","coordinates":[[[[120.7087679,14.4060311],[120.7122257,14.4232244],[120.7147502,14.4452661],[120.6868683,14.4419411],[120.6360324,14.4328278],[120.6068471,14.4247917],[120.5914278,14.4166322],[120.5588089,14.407487],[120.5403376,14.3994808],[120.5224704,14.4000043],[120.5114885,14.3915542],[120.4759264,14.3641886],[120.4665477,14.3518997],[120.4161392,14.2875514],[120.4162242,14.287452],[120.4162835,14.287385],[120.4199559,14.2834003],[120.4237882,14.2795595],[120.4277742,14.2758688],[120.4319078,14.2723338],[120.4361825,14.2689601],[120.4405915,14.2657531],[120.445128,14.2627177],[120.4497848,14.2598587],[120.4502098,14.2596201],[120.5231881,14.2947956],[120.5341481,14.2998815],[120.5560682,14.3106513],[120.5699921,14.3175317],[120.5880221,14.3280912],[120.6766904,14.3466665],[120.6869713,14.3632961],[120.7083357,14.4037883],[120.7087679,14.4060311]]],[[[120.9433528,14.4939136],[120.9469778,14.5011152],[120.9420103,14.5220897],[120.940262,14.5282324],[120.937761,14.5339666],[120.9103199,14.5508249],[120.8936218,14.5578053],[120.8816219,14.5606728],[120.8471784,14.5707519],[120.8183607,14.5783689],[120.7934641,14.58564],[120.7899823,14.5820909],[120.7898335,14.5819325],[120.7862201,14.5779311],[120.7827726,14.5737949],[120.7794962,14.5695306],[120.776396,14.5651446],[120.7734768,14.5606438],[120.7707431,14.5560352],[120.7681992,14.5513259],[120.765849,14.5465233],[120.7636962,14.5416347],[120.7618682,14.5369838],[120.7617331,14.5366558],[120.7599212,14.5317044],[120.7598784,14.5315797],[120.7592054,14.5294253],[120.7572245,14.5254334],[120.7568385,14.5245562],[120.7558102,14.5226962],[120.7538245,14.5187443],[120.8220402,14.4748807],[120.8633262,14.4619593],[120.8786038,14.4571007],[120.8787809,14.4570635],[120.8793986,14.4568891],[120.880181,14.456591],[120.8815401,14.4560281],[120.8845136,14.4543363],[120.884805,14.4541975],[120.8849971,14.4541139],[120.8856441,14.4538633],[120.8856814,14.4540875],[120.8857118,14.4543396],[120.8857329,14.4547139],[120.8857073,14.45507],[120.8857581,14.4552651],[120.8858952,14.4554124],[120.8862371,14.4556529],[120.8864789,14.4557552],[120.8866591,14.4558933],[120.8876945,14.456385],[120.8879842,14.4566878],[120.8883859,14.4570358],[120.8885961,14.4574673],[120.8886435,14.4577209],[120.8886439,14.4582321],[120.8886395,14.4585871],[120.888719,14.458906],[120.8889117,14.4594675],[120.8892164,14.4600199],[120.897949,14.4667636],[120.9009416,14.4678699],[120.9100551,14.4739548],[120.9137821,14.4749822],[120.9178628,14.475746],[120.9228413,14.4763782],[120.9424558,14.4926563],[120.9433528,14.4939136]]]]}}]}