{"type":"FeatureCollection","features":[{"type":"Feature","id":"relation/1489187","properties":{"admin_level":"6","admin_subdivisions":"33 barangays","border_type":"component_city","boundary":"administrative","loc_name":"GenTri","name":"General Trias","name:en":"General Trias","name:etymology":"Mariano Trías","name:etymology:wikidata":"Q247632","name:etymology:wikipedia":"en:Mariano Trías","name:ja":"ゼネラル・トリアス","name:tl":"Heneral Trias","old_name":"San Francisco de Malabon","old_ref":"042108000","place":"city","population":"482453","population:date":"2024-07-01","postal_code":"4107","ref":"0402108000","related_law":"Republic Act No. 10675","short_name":"Gen. Trias","short_name:en":"Gen. Trias","short_name:tl":"Hen. Trias","start_date":"1748-12-12","type":"boundary","website":"https://generaltrias.gov.ph/","wikidata":"Q62723","wikimedia_commons":"Category:General Trias","wikipedia":"en:General Trias","id":"relation/1489187"},"geometry":{"type":"Polygon","coordinates":[[[120.8874632,14.4149138],[120.8874272,14.4150355],[120.8874178,14.4150978],[120.8873829,14.4151991],[120.887339,14.4153091],[120.8872802,14.4153893],[120.8871944,14.4154522],[120.8870892,14.4155031],[120.8869927,14.4155342],[120.8868693,14.4155563],[120.8867844,14.4155778],[120.8866976,14.4156148],[120.8866282,14.415657],[120.886552,14.4157444],[120.8864909,14.4158411],[120.8864616,14.4159408],[120.8864247,14.4161003],[120.8863953,14.4163412],[120.8863637,14.4165746],[120.8863293,14.4168119],[120.8862942,14.4169579],[120.8862564,14.4170682],[120.8862164,14.4171644],[120.8861518,14.4172319],[120.8860684,14.4172894],[120.8859573,14.4173488],[120.885761,14.417421],[120.8855272,14.4175011],[120.8853133,14.4175834],[120.8851248,14.4176621],[120.8850303,14.4177377],[120.8849386,14.4178563],[120.8847972,14.4177111],[120.8846557,14.417561],[120.8844561,14.4173584],[120.884412,14.4172852],[120.8843496,14.4173102],[120.8843177,14.4173202],[120.8842441,14.4173431],[120.8841665,14.4173626],[120.883873,14.4173886],[120.8837043,14.4174092],[120.8834661,14.4174342],[120.882456,14.4175466],[120.8815668,14.4175713],[120.8811119,14.4175504],[120.8808368,14.4175193],[120.8805736,14.4174445],[120.8801867,14.417517],[120.879221,14.4175074],[120.8793229,14.4154057],[120.8776677,14.4153625],[120.8776917,14.415156],[120.8778487,14.4138049],[120.876873,14.4138499],[120.876851,14.4135779],[120.8759218,14.4136186],[120.8757611,14.4148685],[120.8745085,14.4147826],[120.8745083,14.4147107],[120.8747958,14.4124],[120.8752889,14.4118379],[120.8754615,14.4107578],[120.8754255,14.4104749],[120.8753686,14.4102986],[120.8756417,14.4094499],[120.8754633,14.4080536],[120.8754152,14.4076082],[120.875707,14.4070544],[120.8741889,14.4068966],[120.8739765,14.4087188],[120.872964,14.408616],[120.873034,14.4079574],[120.8719822,14.40785],[120.8719607,14.407848],[120.8720756,14.4068394],[120.8720058,14.4068329],[120.8721024,14.4058691],[120.8711816,14.4057798],[120.8708879,14.4057527],[120.8708161,14.4057468],[120.8709381,14.4047252],[120.8701169,14.4046389],[120.8705547,14.404009],[120.8700839,14.4036753],[120.8690978,14.4050996],[120.8682496,14.4045508],[120.8683106,14.4044653],[120.8673763,14.4038729],[120.8671268,14.4042629],[120.8668263,14.4041117],[120.8669441,14.4035022],[120.8671228,14.4027735],[120.8671807,14.4025121],[120.8672923,14.4020562],[120.8672993,14.4019191],[120.8675832,14.4010061],[120.8671655,14.4009318],[120.8668159,14.4008847],[120.866798,14.400882],[120.8667622,14.4008771],[120.8659415,14.4007273],[120.8651179,14.4004784],[120.8646789,14.4020378],[120.8641894,14.4019295],[120.8632714,14.4016778],[120.8625334,14.4014887],[120.862064,14.401377],[120.8615407,14.4012126],[120.8615626,14.4011293],[120.8613412,14.4010613],[120.8612762,14.4010378],[120.8603888,14.4007069],[120.8598417,14.4005449],[120.8598696,14.4004045],[120.8598681,14.4003196],[120.8598681,14.3998585],[120.8598681,14.3994636],[120.8598896,14.3989648],[120.8599096,14.3987251],[120.8600398,14.398466],[120.8603187,14.3982166],[120.8606835,14.3980711],[120.861306,14.3978765],[120.8615039,14.3977455],[120.8615827,14.3975833],[120.8616915,14.3973629],[120.8616954,14.3970127],[120.8616653,14.3966587],[120.861608,14.3962048],[120.8614946,14.3954243],[120.8614497,14.3949395],[120.8614587,14.3946023],[120.861503,14.3942268],[120.861647,14.3936387],[120.861672,14.3932781],[120.8618034,14.3929174],[120.8619114,14.3928106],[120.8623347,14.3925382],[120.8630909,14.3919405],[120.8639438,14.391301],[120.864193,14.3909825],[120.8644878,14.390686],[120.8647241,14.3902723],[120.864873,14.3897813],[120.8651343,14.3890062],[120.8653882,14.3882372],[120.8655784,14.3879524],[120.8659662,14.3876381],[120.8663865,14.3871015],[120.866819,14.3868123],[120.8671191,14.3866007],[120.8673849,14.3865796],[120.8678779,14.3867686],[120.8683285,14.3870264],[120.868649,14.3870778],[120.8690252,14.3870549],[120.8694462,14.3868762],[120.8700432,14.3865157],[120.8706337,14.3861342],[120.8712234,14.3856636],[120.8715998,14.3855084],[120.8719365,14.3852899],[120.8720246,14.3852514],[120.8720923,14.3852176],[120.8721761,14.3851247],[120.8722385,14.3850182],[120.8722814,14.3849227],[120.8723196,14.38485],[120.8723867,14.384746],[120.8724846,14.3846246],[120.8725463,14.3845362],[120.8726033,14.3844382],[120.8726784,14.3842914],[120.8727273,14.3842186],[120.8728051,14.3841322],[120.872895,14.3840614],[120.8730177,14.3839965],[120.8731189,14.3839458],[120.8732611,14.3838978],[120.8734287,14.3838386],[120.8736158,14.3837737],[120.8737472,14.3837321],[120.8738807,14.3836977],[120.8740027,14.3836802],[120.8741355,14.3836464],[120.8742555,14.3836087],[120.8743742,14.3835645],[120.874458,14.3835262],[120.874519,14.3834788],[120.8745653,14.3833924],[120.8746129,14.3832969],[120.8746699,14.3831365],[120.8746941,14.3830209],[120.8747075,14.3829059],[120.8747169,14.3827559],[120.8747115,14.3826695],[120.8747048,14.3825824],[120.8746679,14.3824272],[120.8746149,14.3822739],[120.8745767,14.3821641],[120.8745325,14.3819784],[120.8745063,14.3818589],[120.8745016,14.3817166],[120.874511,14.3815679],[120.8745418,14.381451],[120.8745821,14.3813275],[120.8746041,14.3812255],[120.8746156,14.3810866],[120.8746317,14.3809644],[120.8746585,14.3808099],[120.8747108,14.3806293],[120.8747591,14.3804883],[120.8748148,14.3803773],[120.8748798,14.3802668],[120.8749415,14.3801519],[120.875032,14.380033],[120.8751239,14.3799479],[120.8751983,14.3798622],[120.8752875,14.379792],[120.8753438,14.3797323],[120.8753861,14.3796465],[120.8754055,14.379589],[120.8754109,14.3795309],[120.8754062,14.3794374],[120.8753928,14.379336],[120.875372,14.3792522],[120.8753492,14.3792074],[120.8753029,14.3791412],[120.875262,14.3790964],[120.8752191,14.3790411],[120.8751923,14.3789866],[120.8751702,14.3789093],[120.8751614,14.3788456],[120.8751513,14.3787802],[120.875138,14.3787245],[120.8751145,14.3786456],[120.8750682,14.3785384],[120.8750018,14.3784345],[120.8749234,14.3783286],[120.8748563,14.3782662],[120.8747571,14.3782149],[120.8746733,14.3781779],[120.8746076,14.3781461],[120.8745284,14.3780954],[120.8744674,14.3780291],[120.8744272,14.3779467],[120.874401,14.3778694],[120.874391,14.3777778],[120.8743829,14.3776823],[120.8743957,14.3775881],[120.8744185,14.3774712],[120.8744352,14.3773601],[120.8744406,14.377275],[120.8744406,14.3772094],[120.874454,14.377125],[120.8744651,14.3770691],[120.8744859,14.3770084],[120.874505,14.3769649],[120.8745405,14.3769022],[120.8745687,14.3768648],[120.8746119,14.3768369],[120.8746676,14.37682],[120.8747172,14.3768116],[120.8747631,14.3768148],[120.8748158,14.3768268],[120.8748667,14.376847],[120.87491,14.3768593],[120.8749492,14.3768626],[120.8749998,14.3768528],[120.8750441,14.376821],[120.8750749,14.3767632],[120.8751004,14.3766891],[120.875136,14.3765923],[120.8751856,14.3764832],[120.8752292,14.3764027],[120.8752667,14.3763176],[120.8752976,14.3762279],[120.8753485,14.3761273],[120.8753854,14.3760526],[120.8754726,14.3759136],[120.8755343,14.3758376],[120.8755785,14.3757862],[120.8756369,14.3756758],[120.875667,14.3755862],[120.8756898,14.3755069],[120.8757032,14.3754335],[120.8757106,14.3753582],[120.8757126,14.3752718],[120.8756986,14.3751945],[120.875669,14.3751276],[120.8756335,14.3750854],[120.8755584,14.3750061],[120.8755121,14.3749496],[120.8754625,14.3748853],[120.8753733,14.3747866],[120.8752895,14.3747034],[120.8751903,14.374604],[120.8751266,14.3744936],[120.8750159,14.3743299],[120.8749422,14.3742539],[120.8748879,14.3741734],[120.8748349,14.3740818],[120.8747792,14.3740104],[120.8747303,14.3739246],[120.8746726,14.3738187],[120.8746203,14.3737265],[120.8745693,14.3736349],[120.8745412,14.3735868],[120.874511,14.3735225],[120.8744916,14.373453],[120.8744889,14.3734037],[120.8744835,14.3733407],[120.8744674,14.373277],[120.8744366,14.3732133],[120.8743923,14.3731588],[120.8743186,14.3731101],[120.8742783,14.3730769],[120.8742307,14.3730087],[120.8742106,14.3729477],[120.8742005,14.3728756],[120.8741985,14.3727859],[120.8742059,14.372706],[120.874222,14.3726287],[120.8742213,14.3725462],[120.8742146,14.372491],[120.8742019,14.3724105],[120.8742039,14.3723338],[120.8742193,14.3722533],[120.8742455,14.3721877],[120.8742877,14.3721136],[120.874336,14.3720545],[120.8744292,14.3719746],[120.8744714,14.3719227],[120.8744849,14.3718551],[120.8744882,14.3717473],[120.8744862,14.3716174],[120.8744768,14.3714816],[120.8744627,14.3713491],[120.8744513,14.3712211],[120.8744325,14.3710828],[120.8744332,14.3709996],[120.8744413,14.3709392],[120.8744661,14.3708704],[120.8744788,14.3708086],[120.8744909,14.3707456],[120.8744956,14.3706657],[120.8745063,14.3705767],[120.8745177,14.3705137],[120.8745358,14.3704559],[120.8745646,14.3704111],[120.8746042,14.3703656],[120.8746518,14.3703124],[120.8747135,14.3702598],[120.8747832,14.3702169],[120.8748617,14.3701883],[120.8749381,14.3701643],[120.8750374,14.370148],[120.8751111,14.3701285],[120.8751936,14.3700961],[120.8752868,14.3700285],[120.8753613,14.3699525],[120.8754223,14.3698875],[120.8754665,14.3698271],[120.8755269,14.369742],[120.8755832,14.3696849],[120.8756597,14.3696186],[120.8757193,14.3695861],[120.8757569,14.3695628],[120.8757958,14.3695238],[120.8758427,14.3694621],[120.875885,14.3694134],[120.8758977,14.3693672],[120.875899,14.3693302],[120.8758843,14.3692828],[120.8758561,14.3692334],[120.875826,14.3691737],[120.8757864,14.3691016],[120.8757448,14.3690171],[120.8756898,14.3689125],[120.8756469,14.3688333],[120.8755919,14.3687475],[120.875541,14.3686663],[120.8755088,14.3686066],[120.8754746,14.3685293],[120.8754491,14.3684702],[120.8754243,14.3683792],[120.8754062,14.3682928],[120.8753794,14.3681681],[120.8753593,14.3680759],[120.875313,14.3679161],[120.8752795,14.3678238],[120.8752278,14.367731],[120.8751816,14.3676296],[120.8751339,14.3675569],[120.8750917,14.3675198],[120.8750669,14.3674822],[120.8750555,14.3674308],[120.8750542,14.3673828],[120.8750515,14.367312],[120.8750428,14.3672295],[120.8750428,14.3671515],[120.8750508,14.3670645],[120.8750595,14.3669885],[120.8750609,14.366891],[120.8750508,14.3668027],[120.8750347,14.3667196],[120.8750112,14.3666338],[120.8749918,14.3665624],[120.8749737,14.3665065],[120.8749556,14.3664487],[120.8749348,14.3663662],[120.8749013,14.3662726],[120.874863,14.3661616],[120.8748322,14.3660709],[120.874805,14.3659589],[120.8747405,14.3657387],[120.8746769,14.3655819],[120.8746084,14.3654587],[120.874521,14.3653472],[120.8744704,14.3652481],[120.8744456,14.3651519],[120.8744424,14.3651169],[120.8744416,14.3650788],[120.8744426,14.3650307],[120.8744545,14.3649605],[120.8744843,14.3648768],[120.8745389,14.364769],[120.8745767,14.3646363],[120.8745856,14.3645276],[120.8745836,14.3643718],[120.8745677,14.3642621],[120.8745677,14.3640976],[120.8745508,14.3639071],[120.8745426,14.363762],[120.8745344,14.3636949],[120.8745287,14.363646],[120.8745344,14.3635909],[120.8745435,14.3635188],[120.874562,14.3633986],[120.8745553,14.36325],[120.8745284,14.3630714],[120.8744799,14.3629137],[120.8744006,14.3627834],[120.8743171,14.3626843],[120.8741543,14.3625344],[120.8739861,14.362464],[120.8737265,14.3624197],[120.87353,14.3624366],[120.8733982,14.362494],[120.8732394,14.3625735],[120.8731089,14.3626009],[120.8729851,14.3625918],[120.8728774,14.3625592],[120.872724,14.3624536],[120.8726541,14.3623232],[120.8726299,14.3621707],[120.872646,14.3620247],[120.8726918,14.3618683],[120.8727577,14.3617328],[120.8728438,14.361562],[120.8729541,14.3613965],[120.8731116,14.3611553],[120.8732152,14.3609963],[120.8733403,14.3608216],[120.873456,14.360673],[120.8735515,14.3605218],[120.8735919,14.3603772],[120.8735865,14.3602103],[120.8735569,14.3600383],[120.8734977,14.3597684],[120.8734116,14.3594334],[120.8733363,14.3591975],[120.8732811,14.3589603],[120.873199,14.358667],[120.8731169,14.358345],[120.8730712,14.3581417],[120.8730201,14.3578184],[120.8729757,14.3574978],[120.8729461,14.3573114],[120.8729407,14.3571263],[120.8729528,14.3568591],[120.8729501,14.3565501],[120.8729797,14.3562099],[120.8729676,14.3559662],[120.8729366,14.3557341],[120.8729111,14.3554226],[120.872868,14.3551619],[120.8728236,14.354982],[120.8727351,14.3547182],[120.8726205,14.3544827],[120.8726035,14.3544504],[120.8725382,14.354326],[120.8724467,14.3541926],[120.8722766,14.3539795],[120.8720992,14.3537798],[120.8719716,14.3536187],[120.8719088,14.353504],[120.8718746,14.3533733],[120.871869,14.3532542],[120.8718764,14.3531575],[120.8719079,14.3530223],[120.8719393,14.3529032],[120.8720058,14.352725],[120.8720326,14.3526221],[120.8720359,14.3525509],[120.8720248,14.3524739],[120.8720031,14.3523911],[120.8719735,14.3523266],[120.8719328,14.3522442],[120.8718986,14.3521305],[120.8718857,14.3520087],[120.8718866,14.3518825],[120.8718921,14.351801],[120.87193,14.3517096],[120.8719735,14.3516326],[120.8719818,14.3515521],[120.8719652,14.3514715],[120.8718783,14.3513094],[120.8718034,14.3512002],[120.8717066,14.3510882],[120.8716673,14.3510379],[120.8716324,14.3509918],[120.8713105,14.3506592],[120.8712591,14.3505961],[120.8712006,14.3505456],[120.8711014,14.3504716],[120.8710035,14.3504273],[120.8709042,14.3504174],[120.8707567,14.3504322],[120.8705989,14.350426],[120.8704501,14.3503928],[120.8703267,14.3503472],[120.8702288,14.3502868],[120.8701588,14.3502289],[120.8700672,14.3501833],[120.8698395,14.3501155],[120.8696436,14.3500477],[120.8695431,14.3500292],[120.8694388,14.3500452],[120.8693472,14.3500489],[120.8691691,14.3499812],[120.8690101,14.3498986],[120.8688384,14.3497975],[120.8687315,14.3497002],[120.8686552,14.3495991],[120.8686323,14.3495067],[120.8686425,14.3493871],[120.8686692,14.3493021],[120.8687163,14.3491875],[120.8687621,14.3491136],[120.8688231,14.3490495],[120.8689249,14.3489928],[120.8690114,14.3489456],[120.8690576,14.3489172],[120.8690833,14.3488976],[120.8691628,14.3488523],[120.8692595,14.3488055],[120.869332,14.3487488],[120.8693841,14.3486465],[120.8694236,14.3485257],[120.8694439,14.3484049],[120.8694503,14.3483199],[120.8694236,14.348225],[120.8693701,14.3481313],[120.86929,14.3480143],[120.8692022,14.3478935],[120.8691399,14.3477961],[120.8690979,14.3476963],[120.8690623,14.3476002],[120.8690394,14.3475053],[120.8690368,14.347403],[120.8690496,14.3473217],[120.8690699,14.3472342],[120.8690992,14.3471497],[120.8691348,14.3470431],[120.8691723,14.3469359],[120.8692378,14.3468059],[120.8693046,14.3466956],[120.8693491,14.3466211],[120.8694592,14.3464966],[120.8695711,14.3463807],[120.8696703,14.3462624],[120.8697505,14.3461614],[120.8698344,14.3460609],[120.8699203,14.3459802],[120.869982,14.3459272],[120.8700507,14.3458884],[120.8701442,14.3458533],[120.8702485,14.3458175],[120.8703344,14.3457892],[120.8704056,14.3457504],[120.8704756,14.3457085],[120.8705678,14.3456321],[120.8707096,14.3455347],[120.8708489,14.3454386],[120.870999,14.3453381],[120.871076,14.3452734],[120.8711434,14.3452063],[120.8712006,14.3451422],[120.8712534,14.3450732],[120.8712941,14.3449949],[120.8713418,14.3448704],[120.8713908,14.3447564],[120.87145,14.3446363],[120.8715091,14.3445266],[120.8715835,14.3443886],[120.8716331,14.3442838],[120.8716846,14.3441815],[120.8717419,14.3440638],[120.8717921,14.3439517],[120.8718354,14.3438321],[120.871878,14.3437206],[120.8719384,14.3435906],[120.8719957,14.343487],[120.8720491,14.3433922],[120.8721127,14.3433016],[120.8721598,14.3432252],[120.872204,14.3431492],[120.8722392,14.3431065],[120.8722819,14.3430513],[120.872321,14.3429878],[120.8723626,14.342915],[120.8724403,14.3428072],[120.8724926,14.3427149],[120.8725302,14.3426149],[120.8725302,14.3425265],[120.8725128,14.3424226],[120.8724779,14.3423511],[120.8724645,14.3422523],[120.8724645,14.3421159],[120.8724739,14.3420445],[120.8725034,14.3419626],[120.8725664,14.3418704],[120.8726589,14.3417508],[120.872734,14.3416443],[120.8728118,14.3415572],[120.8729044,14.3414988],[120.873009,14.3414624],[120.8730961,14.3414065],[120.8731498,14.3413207],[120.8731981,14.3412311],[120.8732187,14.3411716],[120.8732155,14.3411284],[120.8731994,14.341018],[120.8731726,14.3409361],[120.8731659,14.3408101],[120.8731458,14.3406555],[120.873127,14.3405022],[120.8731002,14.34038],[120.8730787,14.3402592],[120.8730452,14.3401592],[120.8730036,14.3400448],[120.8729888,14.3399812],[120.8729942,14.3399162],[120.8730479,14.3398005],[120.8731122,14.3397174],[120.873194,14.3396303],[120.8732772,14.3395303],[120.8733684,14.3394302],[120.8734408,14.3393549],[120.8735414,14.3393237],[120.8736232,14.339312],[120.8736594,14.3392717],[120.8736822,14.339173],[120.8736795,14.3390119],[120.8736929,14.3388871],[120.8736876,14.3387182],[120.8736849,14.3385805],[120.8736782,14.3384531],[120.8736514,14.3383284],[120.8736151,14.3382349],[120.8735521,14.3381296],[120.8734944,14.3379984],[120.8734703,14.3379178],[120.8734676,14.3378204],[120.8734824,14.337745],[120.873532,14.3376151],[120.8735548,14.337541],[120.873583,14.3374786],[120.8736581,14.3373877],[120.8737251,14.3373084],[120.8737801,14.3371928],[120.8738083,14.3370512],[120.8738096,14.3369368],[120.8737922,14.3368043],[120.8737586,14.3366809],[120.8737211,14.3365743],[120.8736862,14.336486],[120.8736393,14.3363404],[120.8736031,14.3361858],[120.8735481,14.3360052],[120.8735226,14.3358922],[120.8734918,14.3357609],[120.8734877,14.3356154],[120.8735038,14.3354816],[120.8735079,14.3353763],[120.8734998,14.3352711],[120.8734864,14.3351801],[120.8734301,14.3350177],[120.8733791,14.3348995],[120.873308,14.334763],[120.8732852,14.3346318],[120.8732718,14.3345135],[120.8732906,14.3344018],[120.8732986,14.3343082],[120.8732906,14.3342485],[120.8732718,14.3341926],[120.8732276,14.3341211],[120.8731632,14.3339639],[120.8731163,14.3338678],[120.8730412,14.3337417],[120.8729339,14.3336092],[120.8728494,14.3335416],[120.8727863,14.333491],[120.8726791,14.3334403],[120.8725342,14.3333558],[120.8724296,14.3332766],[120.8723411,14.333209],[120.8722777,14.3331441],[120.8722338,14.3330726],[120.8721936,14.3329985],[120.8721279,14.3328997],[120.8720393,14.3328101],[120.8719428,14.3326802],[120.8719026,14.3325866],[120.8719026,14.3325151],[120.87192,14.3324489],[120.871971,14.3323397],[120.8720139,14.3322397],[120.8720501,14.3320954],[120.8720782,14.3319174],[120.8720903,14.3318031],[120.872089,14.3315965],[120.8720595,14.3314224],[120.8720246,14.3311872],[120.8719911,14.3310378],[120.8719589,14.3308922],[120.8718851,14.3307623],[120.8718167,14.3307038],[120.8717296,14.3306401],[120.8716156,14.3305908],[120.871523,14.3305661],[120.8714238,14.330557],[120.8713715,14.3305219],[120.8713272,14.330453],[120.8712964,14.330366],[120.8712736,14.3301841],[120.87124,14.3300801],[120.8712159,14.3299788],[120.8711784,14.3298488],[120.8711314,14.3297696],[120.871059,14.3296877],[120.8709638,14.3295876],[120.8708592,14.3295058],[120.8707693,14.3294408],[120.8707237,14.3293733],[120.8706889,14.3292602],[120.8706687,14.3291394],[120.870658,14.3290198],[120.8706526,14.3288756],[120.870641,14.3288306],[120.8706298,14.3287872],[120.8705842,14.3287067],[120.8705024,14.3285274],[120.8704461,14.3284104],[120.870371,14.3283013],[120.8702436,14.3281921],[120.8701403,14.3281012],[120.8700009,14.3280037],[120.8699352,14.3279751],[120.8698118,14.3279426],[120.8696991,14.3278816],[120.8695583,14.3277737],[120.8694939,14.3277243],[120.8694108,14.3276905],[120.869325,14.3276386],[120.8692619,14.3275541],[120.8692083,14.3274489],[120.8691922,14.3273605],[120.8692056,14.3272669],[120.8692431,14.3271643],[120.8692847,14.3270746],[120.8693035,14.3269694],[120.8692914,14.3268524],[120.8692592,14.3267277],[120.8692579,14.3265887],[120.8692753,14.3264379],[120.8693156,14.3263197],[120.8693773,14.3261923],[120.8694564,14.3260338],[120.8695462,14.3258974],[120.8696133,14.3258103],[120.8696535,14.3257272],[120.8696643,14.3256284],[120.8696602,14.3255426],[120.8696187,14.3254465],[120.8695476,14.325375],[120.8694202,14.3252555],[120.8693263,14.3251463],[120.8692311,14.3249748],[120.8691372,14.3247786],[120.8690648,14.3246318],[120.8689642,14.3244797],[120.8689065,14.3243758],[120.8688998,14.3242627],[120.8688891,14.3241575],[120.8688341,14.324008],[120.8687657,14.3238677],[120.8687335,14.3236754],[120.8687416,14.323487],[120.868751,14.3233765],[120.868708,14.3232479],[120.8686075,14.3231127],[120.8684787,14.3229906],[120.8683862,14.3228776],[120.8682869,14.3227255],[120.868236,14.3225267],[120.8682051,14.3223617],[120.8682013,14.3223185],[120.8681904,14.3221954],[120.8681938,14.3220689],[120.8681944,14.3220472],[120.8682092,14.3219602],[120.8682306,14.3218406],[120.8682226,14.3217289],[120.8681796,14.3216249],[120.8680983,14.3215237],[120.8680135,14.3214517],[120.8679637,14.3213975],[120.8678538,14.3213039],[120.8676405,14.3211545],[120.8674595,14.3210181],[120.8672918,14.320931],[120.8671517,14.3208355],[120.8669955,14.3207419],[120.8668982,14.3206646],[120.8667514,14.3205477],[120.8666642,14.3204509],[120.8665998,14.3203593],[120.8665743,14.3202969],[120.8665489,14.3202163],[120.8665314,14.3200994],[120.8665355,14.3200071],[120.8665542,14.3198941],[120.8666038,14.3197706],[120.8666468,14.3196706],[120.8666843,14.3195978],[120.8667313,14.3195497],[120.8667661,14.3194886],[120.866801,14.3193821],[120.8668426,14.3192703],[120.8668841,14.3191846],[120.8669351,14.3191157],[120.8669834,14.3190767],[120.8670545,14.3189468],[120.8670866,14.3188233],[120.8671376,14.318644],[120.8671698,14.3185076],[120.867198,14.3183243],[120.8672087,14.3182009],[120.8672194,14.3180826],[120.86721,14.3179891],[120.8671859,14.3179371],[120.8671001,14.3178838],[120.8669941,14.3178098],[120.8668895,14.3176811],[120.8667406,14.3175122],[120.866573,14.3173225],[120.8664778,14.3172107],[120.8663598,14.3170197],[120.8663021,14.3169027],[120.8662753,14.3167897],[120.8662578,14.3166273],[120.8662498,14.3165155],[120.8662632,14.3164076],[120.8662927,14.3162933],[120.8663155,14.3161673],[120.8663128,14.315945],[120.8663021,14.3158177],[120.8662887,14.3156916],[120.8662471,14.3155461],[120.8661854,14.3153791],[120.8661372,14.3152744],[120.8660995,14.3151972],[120.8660272,14.3150523],[120.8659628,14.3148821],[120.8659212,14.3147495],[120.8659185,14.3146027],[120.86594,14.3144273],[120.8659802,14.3142505],[120.8660138,14.314079],[120.8660366,14.3139582],[120.8660714,14.3138841],[120.8661224,14.3137983],[120.8661787,14.3137061],[120.8662257,14.3136229],[120.8662269,14.3135558],[120.8661968,14.3134968],[120.8662062,14.313452],[120.8662337,14.3134111],[120.8662733,14.3133676],[120.8663437,14.3133078],[120.8664013,14.3132525],[120.8664577,14.3131798],[120.8665703,14.313055],[120.8666575,14.3129472],[120.8667031,14.3128159],[120.8666615,14.312556],[120.8666387,14.3122779],[120.8666266,14.3120726],[120.866624,14.3119921],[120.8666387,14.3119375],[120.8667044,14.3118738],[120.8667836,14.3118478],[120.8668667,14.3118335],[120.8669351,14.3117932],[120.8669606,14.3116568],[120.86697,14.3115294],[120.8669693,14.3114112],[120.8669767,14.3112981],[120.8669995,14.3112195],[120.8670706,14.3111318],[120.867151,14.3110252],[120.8672073,14.3108875],[120.8672744,14.3107121],[120.8673213,14.3106042],[120.8674233,14.3104872],[120.8674648,14.3104132],[120.8676124,14.3102884],[120.8676875,14.3102429],[120.8677679,14.3102157],[120.8678551,14.310204],[120.8679718,14.3102222],[120.8680898,14.3102442],[120.8682092,14.3102481],[120.8683031,14.3102299],[120.8684264,14.3101722],[120.873312,14.3103385],[120.8738377,14.310003],[120.8742448,14.3097351],[120.8745951,14.3099903],[120.8746414,14.3100241],[120.8763885,14.3111052],[120.8774125,14.3118536],[120.8778864,14.3122054],[120.877943,14.3122474],[120.8783439,14.312545],[120.878405,14.3125904],[120.8798976,14.3108487],[120.8799214,14.3108656],[120.8813107,14.3118519],[120.8827734,14.310405],[120.8840177,14.3110966],[120.8844749,14.3113507],[120.884517,14.3112916],[120.8845451,14.3112215],[120.8845505,14.3111552],[120.8845264,14.3110707],[120.8845112,14.3109656],[120.8844848,14.3109057],[120.8844674,14.3108355],[120.8844661,14.3107591],[120.8844855,14.3106809],[120.884635,14.3107991],[120.8848201,14.310894],[120.8850481,14.3110174],[120.8852237,14.3111435],[120.8853404,14.3112072],[120.8854478,14.3112371],[120.8855523,14.3112358],[120.8856435,14.3111916],[120.885724,14.3111084],[120.8858125,14.3110109],[120.8859318,14.3108823],[120.8860204,14.3107497],[120.8861137,14.3106046],[120.8862108,14.3104535],[120.8862691,14.310353],[120.8863415,14.3101839],[120.8864947,14.3102332],[120.8901857,14.3114213],[120.8905819,14.3115488],[120.8906043,14.3114242],[120.8906069,14.3113436],[120.8906083,14.311276],[120.8906069,14.3112007],[120.8906297,14.3111032],[120.8906673,14.3109876],[120.8906525,14.3108784],[120.8906029,14.3107965],[120.8905305,14.310764],[120.8904152,14.3107393],[120.8903374,14.3107017],[120.8902904,14.3106497],[120.8902784,14.3105561],[120.8902609,14.310434],[120.8902583,14.31033],[120.8902837,14.3102429],[120.8903414,14.3101455],[120.8904219,14.3100246],[120.8904862,14.3099194],[120.8905131,14.309805],[120.8905345,14.3096595],[120.8905748,14.3095607],[120.8906606,14.3094386],[120.8907357,14.3093203],[120.8908014,14.3091981],[120.8908617,14.3090864],[120.8909529,14.309011],[120.8910575,14.3089408],[120.8911622,14.3088564],[120.8912534,14.3087706],[120.8912949,14.3086706],[120.8912949,14.3085887],[120.8912775,14.3084899],[120.8912748,14.3083834],[120.8912963,14.3082391],[120.8913271,14.3081378],[120.8913727,14.308039],[120.8914116,14.3079467],[120.8915256,14.3078311],[120.8916087,14.3077102],[120.8916543,14.307566],[120.8916557,14.307462],[120.8916114,14.3073723],[120.8915403,14.3072918],[120.8914143,14.3071501],[120.8913606,14.3070956],[120.8912869,14.3070085],[120.8912171,14.3069188],[120.8911367,14.3068356],[120.8910482,14.3067447],[120.890969,14.3066589],[120.8909395,14.3065602],[120.8909395,14.3064432],[120.8909664,14.3062821],[120.8909878,14.3061378],[120.89102,14.3060092],[120.8910683,14.3059],[120.89113,14.305796],[120.8911984,14.3057142],[120.8912761,14.3056388],[120.891362,14.3055751],[120.8914089,14.3054958],[120.891417,14.305427],[120.8914049,14.3053217],[120.8913968,14.3052671],[120.8914009,14.3051801],[120.8914344,14.3050891],[120.8914626,14.3050176],[120.8915269,14.304963],[120.8916168,14.3048942],[120.8916758,14.3048279],[120.8917308,14.3047629],[120.8918401,14.3046505],[120.8919206,14.3045979],[120.892001,14.3045381],[120.8920748,14.3044692],[120.8921271,14.3044101],[120.8921982,14.304351],[120.8923101,14.3043211],[120.8924396,14.3042717],[120.892516,14.3042386],[120.8925502,14.3041937],[120.8925643,14.3041268],[120.8925696,14.3040501],[120.8925636,14.3039442],[120.8925603,14.3038617],[120.8925623,14.3038045],[120.892569,14.3037499],[120.8925911,14.3037155],[120.892624,14.3036837],[120.892683,14.3036648],[120.8927487,14.3036479],[120.8928104,14.3036408],[120.8928607,14.3036525],[120.8929224,14.303683],[120.8929847,14.3037123],[120.8930397,14.303709],[120.8930944,14.303663],[120.8931228,14.3036151],[120.8931456,14.3035368],[120.8931724,14.3034507],[120.8932301,14.3033438],[120.8932952,14.3032247],[120.8933576,14.3031293],[120.8935749,14.3028941],[120.8937469,14.3027193],[120.8938592,14.3023047],[120.8939369,14.3016223],[120.8939785,14.3010298],[120.8939439,14.3006137],[120.8939546,14.3003842],[120.8940783,14.3001401],[120.8942019,14.2998434],[120.8942761,14.2992813],[120.8944102,14.2988394],[120.8945819,14.2985067],[120.8947374,14.2983508],[120.8948177,14.2981285],[120.8949681,14.2980285],[120.8950483,14.297883],[120.8950108,14.2977478],[120.8948823,14.2976334],[120.8947696,14.2974723],[120.894657,14.2972436],[120.8944639,14.29702],[120.8944435,14.2969469],[120.8943795,14.2967694],[120.894323,14.2965841],[120.8942043,14.2964524],[120.8939476,14.2962379],[120.893678,14.2960264],[120.8934852,14.2959027],[120.8933897,14.2957735],[120.8933756,14.2955916],[120.8933978,14.2954217],[120.8934174,14.2952065],[120.8934255,14.2948955],[120.8934031,14.2947587],[120.8934233,14.2946329],[120.8934648,14.294538],[120.8934313,14.2944522],[120.8934005,14.29436],[120.8933635,14.2942513],[120.8933119,14.2941677],[120.8932446,14.2941076],[120.8931296,14.2940625],[120.8929834,14.2940416],[120.8928819,14.2939965],[120.8927634,14.2939155],[120.8926844,14.2937488],[120.8925909,14.2934698],[120.8925586,14.2932229],[120.8925079,14.2930009],[120.8924684,14.2928369],[120.8924939,14.2927095],[120.8925374,14.2925668],[120.8926092,14.2923625],[120.892709,14.2921268],[120.8927857,14.2919012],[120.8927634,14.2916906],[120.892736,14.2915179],[120.892623,14.2913987],[120.8925882,14.291245],[120.8925559,14.291003],[120.8924442,14.2907729],[120.8923208,14.2906273],[120.8922283,14.290539],[120.8921947,14.2904483],[120.8922122,14.290352],[120.8922753,14.2902611],[120.8923892,14.2901026],[120.8924858,14.28997],[120.8925793,14.2898312],[120.8926079,14.2897464],[120.8926569,14.2896607],[120.892754,14.289509],[120.8928734,14.2894657],[120.8931027,14.2894488],[120.8933435,14.2893774],[120.893538,14.2892968],[120.8937304,14.2892526],[120.8939481,14.2892144],[120.8940952,14.2891642],[120.8942692,14.2890333],[120.8944724,14.2888838],[120.8947208,14.2888128],[120.8950263,14.2887546],[120.8952154,14.2887452],[120.8953263,14.288799],[120.8954104,14.2888292],[120.8954832,14.2888224],[120.8955408,14.2887707],[120.8955704,14.2886249],[120.8955745,14.288476],[120.8955762,14.2883445],[120.8956499,14.2882369],[120.8957162,14.2882267],[120.8958186,14.2882272],[120.8959307,14.2881776],[120.8960474,14.2880835],[120.896143,14.2879776],[120.8962167,14.2878792],[120.896304,14.2877164],[120.8963992,14.2875241],[120.8965871,14.2872203],[120.8966781,14.2870783],[120.8967405,14.2869404],[120.8967496,14.2868247],[120.8967319,14.2866973],[120.896703,14.2865536],[120.8967188,14.2863938],[120.8967318,14.2861985],[120.8967652,14.2860371],[120.8967666,14.2858605],[120.8967244,14.2857249],[120.8967236,14.2855672],[120.8967142,14.2853603],[120.8966274,14.2851918],[120.8965981,14.2850663],[120.8965909,14.2849248],[120.8966078,14.2847518],[120.8965999,14.2845831],[120.8966134,14.284444],[120.8966737,14.2842725],[120.8967864,14.2840697],[120.8969889,14.2838228],[120.897067,14.2837486],[120.8971619,14.2836291],[120.8973,14.2834576],[120.8974033,14.2832652],[120.8974949,14.2830611],[120.8975749,14.2828156],[120.8976236,14.2826374],[120.8976916,14.2824698],[120.8978311,14.2822424],[120.8979079,14.2821319],[120.897979,14.2819707],[120.8980792,14.2817095],[120.8981346,14.2815197],[120.8981811,14.2813859],[120.8982137,14.2812481],[120.8983125,14.2811143],[120.8984323,14.2809674],[120.8985446,14.2808635],[120.8987873,14.2806659],[120.8990716,14.280588],[120.8992189,14.2804737],[120.8992929,14.2803878],[120.8993074,14.2803546],[120.8993281,14.2802994],[120.8993563,14.2802071],[120.8993791,14.2800927],[120.8994193,14.2799315],[120.899422,14.2797938],[120.8994046,14.2796404],[120.8993845,14.2795001],[120.899355,14.2793454],[120.8993496,14.2792154],[120.8993751,14.2790335],[120.8993939,14.2788983],[120.8993979,14.2787995],[120.8993845,14.2787125],[120.8993523,14.2785682],[120.8993483,14.278472],[120.8993456,14.2783862],[120.8993429,14.2782745],[120.8993027,14.2781822],[120.8992571,14.2781289],[120.8992262,14.2780353],[120.89919,14.2778872],[120.8991605,14.2777767],[120.8990961,14.2776649],[120.899076,14.2775817],[120.8990881,14.2774869],[120.8991632,14.2773933],[120.8992584,14.2773257],[120.8993764,14.2772542],[120.8995065,14.27721],[120.8996004,14.2771983],[120.8996862,14.2771268],[120.8997332,14.2770242],[120.899772,14.2768656],[120.8998176,14.2766577],[120.8998431,14.2764783],[120.8998753,14.2763509],[120.8999571,14.2762314],[120.9000993,14.2760962],[120.90022,14.2760286],[120.900346,14.2759519],[120.9004976,14.2757817],[120.900574,14.2756894],[120.9006894,14.2755984],[120.9007899,14.2755308],[120.900865,14.275458],[120.9009026,14.2753749],[120.9009562,14.275189],[120.9009871,14.2749863],[120.9010193,14.2748004],[120.9010448,14.2746431],[120.9010515,14.2744872],[120.9010327,14.2743637],[120.9009844,14.2742454],[120.9009549,14.2741726],[120.9008637,14.2741064],[120.9007604,14.2740037],[120.9006719,14.2739582],[120.9005781,14.273901],[120.9004667,14.2738464],[120.9004024,14.2738425],[120.9003501,14.2738295],[120.9003018,14.2737788],[120.9002079,14.2737229],[120.9001127,14.2737242],[120.9000429,14.2737866],[120.9000148,14.273875],[120.8999571,14.2739244],[120.8998914,14.2739153],[120.8998297,14.2738503],[120.8997761,14.2737242],[120.8997667,14.273645],[120.8997761,14.2735553],[120.8998096,14.2734422],[120.8997653,14.2732616],[120.8996902,14.2731433],[120.8995983,14.2730084],[120.8995759,14.2729666],[120.8995694,14.2729485],[120.8995458,14.2728834],[120.8994609,14.272782],[120.8993925,14.2727261],[120.8992852,14.2726624],[120.8991753,14.2726026],[120.8990023,14.2724765],[120.8988507,14.2723713],[120.898722,14.2722881],[120.8985785,14.2721477],[120.8984658,14.271993],[120.8983518,14.2718345],[120.8982714,14.2716772],[120.8982083,14.2715498],[120.8981238,14.2713822],[120.8980353,14.2712405],[120.8979481,14.2711209],[120.8978704,14.2710338],[120.8977698,14.2709312],[120.8977,14.2708779],[120.8976156,14.2708259],[120.8975083,14.2707869],[120.897407,14.2707538],[120.8973138,14.2707525],[120.8972119,14.2708025],[120.8970724,14.2709078],[120.8969423,14.2710377],[120.8968391,14.2711235],[120.8967237,14.2711612],[120.896607,14.2711807],[120.8964635,14.271169],[120.8963603,14.2711144],[120.8962624,14.2710144],[120.896206,14.2708896],[120.89619,14.2707856],[120.8961953,14.2706803],[120.8962168,14.2705374],[120.8962154,14.2704464],[120.896198,14.2703814],[120.8961618,14.2703034],[120.8961095,14.2701812],[120.8960545,14.2700448],[120.8959874,14.269907],[120.8959579,14.2698238],[120.8959499,14.2697341],[120.8959553,14.2696042],[120.8959955,14.2694716],[120.8960746,14.2693377],[120.8961672,14.2691181],[120.8962463,14.2689907],[120.8962865,14.2688971],[120.8963495,14.268823],[120.8964059,14.2687723],[120.896426,14.2686891],[120.896422,14.2686164],[120.8963965,14.2685306],[120.896363,14.2684539],[120.8963294,14.2683434],[120.8962905,14.2682602],[120.8962718,14.2681991],[120.8962664,14.2681602],[120.8962731,14.2681251],[120.8963093,14.2680796],[120.8963737,14.268012],[120.8965306,14.2678651],[120.8965762,14.2677962],[120.8965856,14.2677429],[120.8965789,14.2676896],[120.8965494,14.2676117],[120.8965051,14.2675493],[120.8964716,14.2674726],[120.8964595,14.2674024],[120.8964568,14.2673218],[120.8964609,14.2672321],[120.8964702,14.267149],[120.8964702,14.2670723],[120.8964662,14.2670125],[120.8964461,14.2669306],[120.896422,14.2668097],[120.8963764,14.266681],[120.8963267,14.266555],[120.896312,14.2664809],[120.8963026,14.2664133],[120.8963107,14.2663431],[120.8963133,14.2662508],[120.8962959,14.2661702],[120.8962503,14.2660611],[120.896194,14.2659649],[120.8961578,14.2658921],[120.8960947,14.2657985],[120.8960907,14.2657257],[120.8961095,14.2656477],[120.8961511,14.2655516],[120.8961953,14.2654762],[120.8962248,14.2653826],[120.8962516,14.2653293],[120.8963053,14.2653202],[120.8963723,14.265315],[120.8964555,14.2653267],[120.8965252,14.2653436],[120.8965816,14.2653371],[120.8966352,14.2652721],[120.8966875,14.2651837],[120.896709,14.2650902],[120.8967103,14.2650161],[120.8967358,14.2649433],[120.8967948,14.2648445],[120.8968283,14.2647626],[120.8968471,14.2646677],[120.8968471,14.2645729],[120.8968377,14.2645118],[120.8968323,14.2644572],[120.8968364,14.2643428],[120.8968283,14.2642726],[120.8967935,14.2642037],[120.8967398,14.2640932],[120.8967049,14.2639984],[120.8966728,14.2639048],[120.8966728,14.2638541],[120.8966835,14.2637865],[120.8967519,14.2636669],[120.8968176,14.2635941],[120.8968766,14.2635045],[120.8969074,14.263407],[120.8969209,14.2633069],[120.8969142,14.2632146],[120.8968994,14.2631431],[120.8968779,14.2631002],[120.8968659,14.2630664],[120.8968659,14.2630339],[120.8968954,14.2629754],[120.8969584,14.2628624],[120.8969919,14.2627935],[120.8970536,14.2627259],[120.8971247,14.2626336],[120.8971958,14.2625387],[120.8972642,14.2624607],[120.8973259,14.2624347],[120.8973929,14.2624347],[120.8974989,14.2624568],[120.897696,14.2625075],[120.8978355,14.2625426],[120.8979307,14.2625465],[120.8980407,14.2625543],[120.8981547,14.2625543],[120.8982083,14.2625166],[120.8982445,14.2624425],[120.898274,14.2623243],[120.8983009,14.2622099],[120.8983022,14.2620968],[120.8983156,14.2619902],[120.8983022,14.2618784],[120.8982807,14.2617732],[120.8982392,14.2616523],[120.8982083,14.2615496],[120.898203,14.2614313],[120.8981748,14.2612857],[120.8981735,14.2611792],[120.8981989,14.2609881],[120.8982445,14.2608126],[120.8982901,14.2606489],[120.898329,14.2604513],[120.8983277,14.2603148],[120.898325,14.2601861],[120.8983451,14.2599262],[120.8983947,14.2598209],[120.8984859,14.2597182],[120.8986187,14.2596038],[120.8987166,14.2595037],[120.8987582,14.2594245],[120.8987622,14.2593361],[120.8987233,14.2592269],[120.8986402,14.2591281],[120.8985221,14.2589838],[120.8984162,14.2588812],[120.8983813,14.2587746],[120.8983639,14.258642],[120.8983988,14.2584301],[120.8984658,14.2582858],[120.8985007,14.2581208],[120.8985248,14.2579726],[120.8985396,14.2578413],[120.8985704,14.2576853],[120.8986334,14.2574774],[120.8987139,14.2573019],[120.898785,14.25722],[120.8989339,14.257142],[120.899123,14.256977],[120.8992222,14.256847],[120.8992852,14.2567222],[120.8993188,14.2566091],[120.8993778,14.2565103],[120.8995092,14.2564024],[120.8996098,14.2562322],[120.8996554,14.2561152],[120.8996881,14.2560263],[120.8997063,14.2559462],[120.8997144,14.2558513],[120.899701,14.255759],[120.8996353,14.2555719],[120.8995883,14.2555017],[120.899536,14.255464],[120.8994019,14.2554185],[120.8993281,14.2553756],[120.8992504,14.2552898],[120.8991981,14.2552105],[120.8991042,14.2551208],[120.8990023,14.2550844],[120.8989298,14.2550363],[120.8989204,14.2550103],[120.8988976,14.2549947],[120.8987984,14.2549597],[120.8987193,14.2549051],[120.8986992,14.2548817],[120.8986898,14.2548297],[120.8987045,14.2547114],[120.8987488,14.2546152],[120.8987649,14.2545541],[120.8987622,14.2544878],[120.8987381,14.2544033],[120.8987367,14.2543448],[120.8987609,14.254263],[120.8987676,14.2541824],[120.8987944,14.2541369],[120.898789,14.2540862],[120.8987595,14.2540394],[120.8987367,14.2539601],[120.8987515,14.2537755],[120.8987273,14.2536676],[120.8987354,14.2535611],[120.898734,14.2534649],[120.8987166,14.25337],[120.8986884,14.2532816],[120.8986482,14.2532088],[120.8986274,14.2531425],[120.8986174,14.2530749],[120.8985865,14.2530073],[120.8985409,14.2529566],[120.8985114,14.2529345],[120.8984765,14.2528617],[120.8983907,14.2527812],[120.8983773,14.2527578],[120.8983733,14.2526772],[120.8983934,14.2525992],[120.8984068,14.2525134],[120.898435,14.2524458],[120.8985127,14.2523704],[120.898616,14.2522859],[120.8987501,14.2522131],[120.8987689,14.2521923],[120.8987984,14.2521455],[120.8988158,14.252091],[120.8989003,14.2520208],[120.8989339,14.2519766],[120.8989124,14.2519155],[120.8988775,14.2518518],[120.8988319,14.251805],[120.8987984,14.2517608],[120.8987837,14.2517049],[120.8987944,14.2516217],[120.898848,14.2515229],[120.8988453,14.2514085],[120.8988293,14.2513306],[120.8987702,14.2512669],[120.898722,14.2512344],[120.898671,14.2511577],[120.8986388,14.2510758],[120.8985798,14.2510173],[120.8985141,14.2509276],[120.8985047,14.25086],[120.8985034,14.250808],[120.8984819,14.2506949],[120.8984484,14.2505922],[120.8984363,14.2505221],[120.8984403,14.2504545],[120.898447,14.2503843],[120.8984672,14.2503258],[120.8985516,14.2502283],[120.8985704,14.250175],[120.8985892,14.2500658],[120.8986294,14.2499592],[120.8986898,14.2498422],[120.8987582,14.2497564],[120.8988078,14.2496694],[120.8988708,14.2496161],[120.8990237,14.2495654],[120.8990733,14.2495355],[120.8991256,14.2494341],[120.8991538,14.2493002],[120.8992088,14.2491637],[120.8992074,14.2490519],[120.8992088,14.2489401],[120.899186,14.2488089],[120.8992423,14.2486139],[120.8992396,14.2485008],[120.8992262,14.2484488],[120.8992262,14.2483409],[120.8992423,14.2482876],[120.8992705,14.2482538],[120.8992973,14.2482421],[120.8993804,14.2482356],[120.8994234,14.2482005],[120.8994703,14.2480731],[120.8994757,14.2480225],[120.8994757,14.2479952],[120.8994368,14.2478925],[120.8994448,14.247808],[120.8994931,14.2477417],[120.899532,14.2476754],[120.8995628,14.2475896],[120.8996004,14.2475467],[120.8996567,14.2474544],[120.8996661,14.2473888],[120.8996809,14.2473374],[120.8997124,14.2472679],[120.8997506,14.2472074],[120.8997549,14.2471345],[120.8994421,14.2471312],[120.8964904,14.2470934],[120.8960921,14.2470883],[120.8920031,14.2470359],[120.8892183,14.2467976],[120.8892852,14.246585],[120.8893047,14.2464418],[120.8893101,14.2463131],[120.8893087,14.2461247],[120.8893074,14.2459752],[120.8893275,14.2458972],[120.8893946,14.2457711],[120.8894657,14.2456957],[120.8895488,14.2456723],[120.8896668,14.2456294],[120.8897728,14.2455553],[120.8898506,14.2454669],[120.889927,14.2453226],[120.8899806,14.245155],[120.8899927,14.2450432],[120.8900249,14.2449015],[120.8900692,14.2448131],[120.8901308,14.244752],[120.8901791,14.2446571],[120.8902207,14.2445336],[120.8902274,14.2444101],[120.8902355,14.2442996],[120.8902194,14.2441918],[120.8901992,14.244119],[120.8901805,14.2439942],[120.8901925,14.2438772],[120.8901979,14.2437459],[120.8902475,14.2435886],[120.8902502,14.2434508],[120.8902435,14.2433741],[120.8902153,14.2432779],[120.8901644,14.2431493],[120.8901644,14.2429361],[120.8901563,14.2428828],[120.8901684,14.2428035],[120.8902502,14.2425669],[120.8902837,14.242407],[120.8903736,14.2422328],[120.8903857,14.2420431],[120.8904406,14.2418286],[120.890501,14.2417038],[120.8906297,14.2415257],[120.8907558,14.2413138],[120.890802,14.2412142],[120.8908966,14.2410954],[120.8909386,14.2409835],[120.8909462,14.2408303],[120.8909248,14.2406938],[120.8908872,14.240504],[120.8908564,14.2404273],[120.8908322,14.2403207],[120.8908162,14.2402973],[120.8907478,14.2402479],[120.8906096,14.2401998],[120.8905627,14.2401647],[120.8904903,14.240036],[120.8904661,14.2399853],[120.8904594,14.239932],[120.8905694,14.2397539],[120.8906297,14.2396929],[120.890843,14.2395681],[120.8909462,14.2395369],[120.8909892,14.2395044],[120.8910482,14.2394134],[120.8912051,14.2392691],[120.8912534,14.2391755],[120.8913325,14.2390962],[120.8913539,14.2390468],[120.8913593,14.238935],[120.8913499,14.2388817],[120.891311,14.2387738],[120.8912319,14.2386555],[120.8912225,14.2385762],[120.8911769,14.2385437],[120.8911233,14.2385359],[120.8910777,14.2384982],[120.8910348,14.2383903],[120.8910133,14.2383098],[120.8909623,14.2382552],[120.8908604,14.2381928],[120.8907558,14.2381226],[120.890674,14.2380888],[120.8906083,14.2380225],[120.8905667,14.2379302],[120.890568,14.2377703],[120.8905908,14.2376117],[120.8906364,14.237522],[120.8907156,14.2374687],[120.8907679,14.2373634],[120.8908068,14.237275],[120.8908725,14.2372035],[120.8909248,14.2371034],[120.8910026,14.2370098],[120.891083,14.2369604],[120.8911273,14.2368981],[120.8911943,14.2367993],[120.8912775,14.2367213],[120.8913285,14.2366394],[120.8913633,14.2365471],[120.8913834,14.2364509],[120.8913875,14.2363391],[120.8913888,14.2362273],[120.8913794,14.2361207],[120.8913258,14.23594],[120.8913016,14.2358126],[120.8913016,14.2357216],[120.8913553,14.235628],[120.8914545,14.2355422],[120.891535,14.2354928],[120.8916396,14.2355032],[120.8917308,14.235589],[120.8918005,14.2356618],[120.8918783,14.2357138],[120.8919641,14.2357528],[120.8920366,14.2357346],[120.8920902,14.2356098],[120.8921412,14.2354772],[120.8922055,14.2353784],[120.8923396,14.2351575],[120.8925059,14.2348611],[120.8926427,14.2346557],[120.8926991,14.2345283],[120.8927634,14.2343697],[120.8927983,14.2342241],[120.8928332,14.2340707],[120.8928573,14.2338939],[120.8928949,14.2337171],[120.8929887,14.2335845],[120.8930773,14.2334702],[120.893257,14.2332466],[120.8933803,14.2330282],[120.8935225,14.2328956],[120.8936271,14.2327734],[120.8938202,14.2325992],[120.8938149,14.2325056],[120.8938605,14.232373],[120.8939972,14.2322326],[120.8941019,14.2320818],[120.8942038,14.2318452],[120.8943057,14.2316034],[120.8944666,14.231385],[120.8946758,14.2312369],[120.8948126,14.2311043],[120.894928,14.2309223],[120.8950219,14.2307819],[120.8951104,14.2306363],[120.8951935,14.2304361],[120.8952391,14.2302515],[120.8954,14.2300721],[120.8955529,14.2300019],[120.8956602,14.2299837],[120.8957836,14.2299915],[120.8959204,14.2300149],[120.8960733,14.2299837],[120.8962128,14.2299369],[120.896371,14.2298121],[120.8965722,14.2296483],[120.8967921,14.2295313],[120.8969021,14.2294481],[120.897004,14.2293103],[120.8971328,14.2291543],[120.89724,14.2290035],[120.8972856,14.2287877],[120.897342,14.2285043],[120.8974868,14.2283561],[120.897578,14.2282911],[120.8975995,14.2281924],[120.8976719,14.2280936],[120.8977362,14.2280208],[120.8977926,14.227857],[120.897814,14.2276646],[120.8977953,14.2273032],[120.8978006,14.226999],[120.8978006,14.226557],[120.8977926,14.2264036],[120.8977228,14.2262346],[120.897637,14.2261228],[120.897586,14.2259538],[120.8975619,14.225751],[120.8976048,14.2256002],[120.8977416,14.2254988],[120.8977872,14.2254156],[120.8978382,14.2252102],[120.8978516,14.2250386],[120.8979213,14.2249138],[120.8980179,14.2248176],[120.8981493,14.2247942],[120.8983558,14.2247552],[120.8985087,14.2246824],[120.8986133,14.224451],[120.8986697,14.2242794],[120.8986804,14.224152],[120.8987394,14.223931],[120.8988306,14.223658],[120.8989325,14.2235176],[120.8989519,14.2234765],[120.8990157,14.2233408],[120.8991015,14.2231588],[120.8992007,14.2229846],[120.8993107,14.2228494],[120.8994475,14.222748],[120.8995843,14.2226362],[120.8996165,14.2225452],[120.8995789,14.222371],[120.8995709,14.2222488],[120.8996353,14.2221162],[120.899764,14.2220486],[120.8999464,14.2220174],[120.900102,14.221955],[120.900228,14.2218614],[120.9004131,14.2216404],[120.9005204,14.221448],[120.9006008,14.221253],[120.9007671,14.2211022],[120.9009442,14.2209956],[120.9010944,14.2208604],[120.9012258,14.2206758],[120.9013545,14.2205354],[120.901474,14.2204327],[120.9015973,14.2203989],[120.9017341,14.220395],[120.9018736,14.2203989],[120.9020291,14.2204067],[120.9022062,14.2204275],[120.9024476,14.2204431],[120.9026662,14.2204392],[120.9028056,14.2204132],[120.9029974,14.2203599],[120.9030913,14.2202754],[120.903147,14.2201869],[120.9040502,14.2204548],[120.9048522,14.2206914],[120.9053805,14.2208292],[120.9061369,14.2210736],[120.9072286,14.2214376],[120.9080681,14.2217366],[120.9089318,14.2220499],[120.9104023,14.2224893],[120.9107691,14.2226024],[120.9112787,14.2227376],[120.9119617,14.2229258],[120.9121922,14.2229755],[120.9122338,14.2228755],[120.9122912,14.2227833],[120.9125729,14.2228429],[120.9133521,14.2229729],[120.9143203,14.2231523],[120.9149131,14.2232654],[120.915298,14.2233551],[120.9157996,14.2235293],[120.9162462,14.2236398],[120.9169516,14.2237893],[120.9176812,14.2238933],[120.9185958,14.2240259],[120.9192841,14.2240982],[120.9198967,14.2241351],[120.9201629,14.2241621],[120.920539,14.2242196],[120.9209239,14.2242794],[120.9219021,14.2244412],[120.9226325,14.224568],[120.92343,14.224692],[120.9240098,14.2248345],[120.9245053,14.2249283],[120.9250493,14.2250893],[120.925404,14.2252073],[120.9258015,14.2253246],[120.9261701,14.2254309],[120.9267385,14.2256157],[120.9267962,14.2256369],[120.9271488,14.2257652],[120.9278901,14.2260629],[120.92797,14.2260921],[120.9283161,14.2262125],[120.9286849,14.2263438],[120.9291192,14.2264972],[120.9294587,14.2266233],[120.9298101,14.2267455],[120.9305155,14.2269869],[120.9304444,14.227132],[120.9303305,14.2272642],[120.9301642,14.2274059],[120.9300381,14.2275112],[120.9299509,14.2276155],[120.9298865,14.2277426],[120.9298316,14.227909],[120.9297913,14.2280559],[120.9297685,14.2281729],[120.9297404,14.2282703],[120.9296881,14.2283405],[120.9296183,14.2283847],[120.9294976,14.2284133],[120.9293689,14.2284614],[120.9292482,14.2285316],[120.9291463,14.2285901],[120.9290148,14.2287045],[120.9289974,14.2287591],[120.9290081,14.2288358],[120.9290081,14.228906],[120.9289759,14.2289801],[120.9288968,14.2290581],[120.9288485,14.2291296],[120.928756,14.2292765],[120.9286635,14.2293857],[120.9285454,14.2294806],[120.9284462,14.2295495],[120.9283966,14.2296236],[120.9283926,14.2297315],[120.928406,14.2298862],[120.9284274,14.2300019],[120.9284261,14.230102],[120.9283926,14.2302021],[120.9283215,14.2303178],[120.9282196,14.2304816],[120.9281659,14.2305856],[120.9280667,14.2306779],[120.9279701,14.2307559],[120.9279165,14.2308664],[120.9278266,14.231025],[120.9276979,14.2312264],[120.9276107,14.231359],[120.9275168,14.2315514],[120.9274551,14.2317074],[120.9273908,14.2318686],[120.9273666,14.2319791],[120.9273612,14.2321026],[120.9273814,14.2322378],[120.9273934,14.2323574],[120.9274055,14.2324497],[120.9274444,14.2325654],[120.9275007,14.2326642],[120.9275946,14.2327474],[120.9277126,14.2328163],[120.9278092,14.232919],[120.9278709,14.2330243],[120.9279339,14.2331257],[120.9279715,14.233231],[120.9279962,14.2333181],[120.9279902,14.2334013],[120.9279513,14.2334766],[120.9278762,14.2335663],[120.9277998,14.2336534],[120.9277193,14.2337236],[120.9276898,14.2337743],[120.9276804,14.2338497],[120.9276898,14.233942],[120.9276818,14.2340603],[120.9276348,14.2341604],[120.927557,14.2342527],[120.9274699,14.2343359],[120.9273747,14.2344477],[120.9273157,14.2345478],[120.9272392,14.2346648],[120.9271775,14.2347519],[120.9270984,14.2348234],[120.9270193,14.234904],[120.9269817,14.2349872],[120.9269522,14.23506],[120.9268959,14.2351913],[120.9268315,14.2353082],[120.9268007,14.2353524],[120.9267658,14.2354304],[120.926747,14.2355071],[120.926735,14.2355968],[120.9267215,14.2357112],[120.9267162,14.2358451],[120.9267028,14.2360336],[120.9266813,14.2361298],[120.9266464,14.2362013],[120.9265566,14.236291],[120.9264936,14.2363807],[120.9264801,14.2364509],[120.9265003,14.2365289],[120.9265164,14.2366056],[120.926519,14.2367109],[120.9264868,14.2368318],[120.9263903,14.2369682],[120.9263594,14.237067],[120.9262884,14.2372282],[120.9262481,14.2373309],[120.9261905,14.2374934],[120.9261529,14.237639],[120.9261328,14.2377885],[120.9261395,14.2378717],[120.9261422,14.237964],[120.9261154,14.2380576],[120.9260993,14.2381876],[120.9260899,14.2383254],[120.9260952,14.2384397],[120.926106,14.238545],[120.926106,14.2386438],[120.9260952,14.2388102],[120.9260845,14.2389571],[120.926055,14.2391521],[120.9260134,14.239351],[120.9259638,14.2394745],[120.9259155,14.2395473],[120.9258217,14.2396409],[120.9257694,14.2396682],[120.92565,14.2397033],[120.9255441,14.2397656],[120.9254368,14.2398358],[120.9253389,14.2399593],[120.9252651,14.2400568],[120.9252208,14.2401764],[120.925194,14.2403064],[120.9251592,14.2404845],[120.9251444,14.2405963],[120.925127,14.2407263],[120.9250975,14.2408836],[120.9250572,14.2410083],[120.9249848,14.2411149],[120.924907,14.2412176],[120.9248748,14.2412969],[120.9248494,14.2413684],[120.9247796,14.2414802],[120.9247233,14.2415439],[120.924667,14.2416375],[120.9246214,14.2417636],[120.9245865,14.2418832],[120.9245409,14.2419677],[120.9244578,14.2420457],[120.9243572,14.2421328],[120.9242874,14.2421925],[120.9242485,14.2422614],[120.9242271,14.2423342],[120.9241788,14.2424746],[120.9241346,14.2425994],[120.9241185,14.2426878],[120.9240916,14.2428048],[120.9240353,14.2429374],[120.9239924,14.2430544],[120.9239441,14.2431818],[120.923861,14.2433],[120.9237564,14.2434339],[120.9237282,14.2435223],[120.9237175,14.2436055],[120.9236974,14.2437134],[120.9236598,14.2438096],[120.9236102,14.2438746],[120.9234559,14.2440647],[120.9233004,14.244171],[120.9231957,14.2442701],[120.923114,14.2443204],[120.923067,14.2443893],[120.9230335,14.2444881],[120.9229866,14.2445726],[120.9228645,14.244699],[120.9228002,14.2448079],[120.9227559,14.2449379],[120.9227277,14.2450981],[120.9226996,14.2452733],[120.9226781,14.2454582],[120.9226472,14.2456167],[120.9226379,14.2457438],[120.9226044,14.2458621],[120.9224904,14.2459687],[120.9223361,14.2461185],[120.9222691,14.2462196],[120.9222275,14.2463768],[120.9222047,14.2466433],[120.9221577,14.2469049],[120.9220679,14.2470736],[120.9220397,14.2471464],[120.9220143,14.2472412],[120.9219848,14.2473452],[120.9219486,14.2474492],[120.9218909,14.247535],[120.9218144,14.2475896],[120.9217152,14.2477053],[120.9216736,14.2477924],[120.921616,14.2479432],[120.9215797,14.2480744],[120.9215476,14.248194],[120.921514,14.2483227],[120.9215114,14.2484995],[120.9214993,14.2486412],[120.9214886,14.2487985],[120.9214872,14.2489336],[120.921459,14.2490766],[120.9214255,14.2492326],[120.921447,14.2493457],[120.9214564,14.2494744],[120.9214926,14.2495862],[120.9215489,14.2497201],[120.9216535,14.2498864],[120.921742,14.2500086],[120.9218614,14.2501191],[120.9219821,14.250201],[120.9220446,14.2502451],[120.922147,14.2503362],[120.9222999,14.2505286],[120.9223911,14.2506338],[120.9224984,14.2507612],[120.922599,14.2509081],[120.922721,14.2509614],[120.9228297,14.2510576],[120.9228913,14.2511551],[120.9229758,14.2512266],[120.9231998,14.2513825],[120.9233607,14.2515216],[120.9235136,14.251675],[120.9235968,14.2517647],[120.9237282,14.2518843],[120.9238033,14.2519532],[120.9238368,14.2520442],[120.9238408,14.252139],[120.9238395,14.2521897],[120.9238435,14.252321],[120.9238301,14.2524536],[120.9238181,14.2526317],[120.9238194,14.2528033],[120.9238301,14.2528955],[120.9238891,14.2530294],[120.9239441,14.2531412],[120.9240219,14.2532192],[120.9241037,14.2532946],[120.9241909,14.2533726],[120.9242767,14.2534636],[120.9243867,14.2535805],[120.9244443,14.2536689],[120.9244993,14.2537807],[120.9245396,14.2538704],[120.9245691,14.253964],[120.9245758,14.2540498],[120.9245677,14.2541538],[120.9245463,14.254237],[120.9244698,14.2543929],[120.9244336,14.2544982],[120.9244229,14.2546295],[120.924447,14.2547543],[120.9245047,14.2548622],[120.9245718,14.2549649],[120.924671,14.2550441],[120.9247904,14.2550961],[120.9249124,14.2551338],[120.9250773,14.2551845],[120.9251471,14.2552365],[120.9252088,14.2553002],[120.9252517,14.2553691],[120.9252933,14.255451],[120.9253509,14.2555628],[120.9254046,14.2556408],[120.9254877,14.2556996],[120.9255748,14.255749],[120.9256433,14.2558318],[120.9257023,14.2559267],[120.9257385,14.2560112],[120.9257653,14.2561139],[120.9257828,14.2562452],[120.9257908,14.2563725],[120.9258257,14.2564999],[120.9258834,14.2566351],[120.9259357,14.2567456],[120.9259625,14.2568236],[120.9259759,14.256912],[120.9259719,14.2570289],[120.9259638,14.2571433],[120.9259665,14.2572668],[120.9259424,14.257389],[120.9259075,14.2574878],[120.9258927,14.2575593],[120.9259021,14.257658],[120.925933,14.2577659],[120.9259531,14.2578582],[120.9259732,14.2579453],[120.9260014,14.2580506],[120.926,14.2581481],[120.9260108,14.2582339],[120.9260014,14.2583391],[120.9259719,14.2584067],[120.9259035,14.2584678],[120.9258592,14.2585289],[120.9258337,14.2586251],[120.9258217,14.2587356],[120.9258203,14.2588461],[120.925819,14.2589643],[120.925831,14.2590657],[120.9258686,14.2591645],[120.9259129,14.2592893],[120.925933,14.2593998],[120.9259544,14.2595362],[120.9259638,14.2596519],[120.9259625,14.2597598],[120.9259625,14.259908],[120.925945,14.2600068],[120.9259129,14.2601588],[120.9258847,14.2603226],[120.9258512,14.2604396],[120.9257989,14.2605514],[120.9257399,14.2606372],[120.9256634,14.2607242],[120.9256232,14.2608035],[120.9256004,14.2608685],[120.9255454,14.2609569],[120.9254636,14.2610141],[120.9254153,14.261096],[120.9253871,14.2612078],[120.925363,14.2613624],[120.9253402,14.2615171],[120.9253415,14.2616133],[120.9253456,14.2616926],[120.925367,14.2617758],[120.9253885,14.261907],[120.9254126,14.2620448],[120.9254394,14.2621371],[120.925469,14.2622749],[120.9255025,14.2624074],[120.9255226,14.2625452],[120.9255145,14.2626479],[120.9255052,14.2627415],[120.9255253,14.2628481],[120.9255373,14.2629417],[120.925528,14.2630313],[120.9255092,14.2631535],[120.9255199,14.2632471],[120.9255575,14.2633433],[120.9255762,14.2634395],[120.925599,14.2635564],[120.9256071,14.2636929],[120.9256017,14.2638034],[120.9256259,14.2639113],[120.9256701,14.2639828],[120.9257157,14.2640776],[120.9257761,14.2642505],[120.9257855,14.2643961],[120.9257948,14.2645274],[120.9258136,14.2646378],[120.9258766,14.2647964],[120.9259316,14.2650174],[120.9260188,14.2652773],[120.9260818,14.2655022],[120.9261221,14.2656451],[120.9261744,14.2658193],[120.9261905,14.2660156],[120.9261703,14.2662326],[120.9261878,14.2664016],[120.9262548,14.2665667],[120.926346,14.2667304],[120.9264171,14.2668682],[120.9264667,14.2670268],[120.9264654,14.2671672],[120.9264386,14.2672958],[120.926405,14.2674661],[120.926393,14.2676637],[120.9263581,14.2678989],[120.9263353,14.2680315],[120.9263219,14.2681822],[120.9263273,14.2683031],[120.926334,14.2685709],[120.9263474,14.2687606],[120.9263434,14.2689283],[120.9263259,14.2690115],[120.9262843,14.269157],[120.9262106,14.2692649],[120.9261167,14.2693507],[120.9259799,14.26943],[120.9258619,14.2695041],[120.9257425,14.2695665],[120.925646,14.2696223],[120.925587,14.2696808],[120.9255709,14.2697562],[120.925595,14.2698563],[120.9256648,14.2699785],[120.9257787,14.2701032],[120.9259142,14.2701942],[120.9260483,14.2702878],[120.9262039,14.2703541],[120.9263581,14.2704191],[120.9264386,14.2704685],[120.9265378,14.270575],[120.9266867,14.2707544],[120.9268248,14.2709208],[120.9268825,14.2710092],[120.9269106,14.271117],[120.9269066,14.2712873],[120.9268865,14.2714537],[120.9268798,14.2715576],[120.9268758,14.2716759],[120.9268476,14.2718033],[120.9267819,14.2719449],[120.9267323,14.2720879],[120.9266599,14.2722621],[120.9265874,14.2723998],[120.9264842,14.272574],[120.9264144,14.2726936],[120.9263192,14.2728664],[120.9262857,14.2730198],[120.9262629,14.2731485],[120.9262615,14.2732408],[120.9262801,14.2733697],[120.9263431,14.2735569],[120.9264493,14.273723],[120.9265727,14.2738763],[120.9266478,14.2740739],[120.92668,14.274248],[120.9266666,14.2744144],[120.9266317,14.2745444],[120.9265324,14.2746353],[120.9264064,14.2746691],[120.9261945,14.2747133],[120.925945,14.2747679],[120.9257761,14.2748199],[120.925599,14.2749447],[120.9255373,14.2750798],[120.9255213,14.2752254],[120.9255347,14.2754178],[120.9256178,14.2756023],[120.9257331,14.2757141],[120.9258485,14.2758752],[120.9259182,14.276052],[120.925937,14.2762028],[120.925937,14.2762963],[120.9259397,14.2764094],[120.9317252,14.2782202],[120.9316273,14.2783875],[120.9315012,14.2786085],[120.9314784,14.2786319],[120.9314556,14.2786514],[120.9312491,14.2787294],[120.9310855,14.2789113],[120.9310506,14.2789633],[120.9310265,14.2790153],[120.9310158,14.2790582],[120.9310077,14.2791374],[120.9310077,14.2791933],[120.9310131,14.2792193],[120.9310345,14.2792687],[120.9310521,14.279285],[120.9310667,14.2793077],[120.9312652,14.2794533],[120.931288,14.2794676],[120.931354,14.2795604],[120.9314704,14.2796846],[120.9314851,14.2797067],[120.9314999,14.2797847],[120.9315334,14.2798887],[120.9315455,14.280029],[120.9316166,14.2801161],[120.9316635,14.2801889],[120.9316447,14.2803526],[120.9316112,14.280428],[120.9315374,14.2805112],[120.9315321,14.2805385],[120.9315375,14.2807132],[120.9315482,14.2807958],[120.9314986,14.2808959],[120.9314825,14.2810363],[120.9315026,14.2811922],[120.9315965,14.2813365],[120.9317024,14.2814366],[120.9324212,14.2817589],[120.9324601,14.2817992],[120.9324735,14.2818213],[120.9324843,14.2818472],[120.9324896,14.2818732],[120.9324883,14.2819044],[120.9324816,14.281933],[120.9324574,14.2819824],[120.9323998,14.2820474],[120.9323743,14.2820656],[120.9320404,14.2822423],[120.9320122,14.2825036],[120.9320632,14.2826374],[120.9320605,14.2828064],[120.9319317,14.2830377],[120.9318486,14.2831235],[120.9317239,14.2832093],[120.9313376,14.2833899],[120.9312813,14.283451],[120.9312813,14.2835303],[120.931351,14.2836512],[120.9315053,14.2837603],[120.9315415,14.2837473],[120.931685,14.2839358],[120.9317654,14.2840943],[120.9317748,14.2841229],[120.9317896,14.2842347],[120.9317881,14.2843087],[120.9317386,14.2845362],[120.9315522,14.2848546],[120.9315093,14.2849781],[120.9314758,14.2852276],[120.9314825,14.2855045],[120.9314476,14.285637],[120.931406,14.2860152],[120.931347,14.2861738],[120.9311593,14.2864181],[120.9309688,14.2867586],[120.9306966,14.2871004],[120.9303573,14.2874006],[120.9302554,14.2875592],[120.9301776,14.2877645],[120.9301347,14.2879854],[120.9301186,14.2880426],[120.9300354,14.288261],[120.9299684,14.2885573],[120.9299924,14.2886264],[120.9300622,14.2887054],[120.9300944,14.2888354],[120.9300998,14.2888926],[120.9300917,14.2892929],[120.9301266,14.2896282],[120.9301293,14.2897347],[120.9301186,14.2898413],[120.9300891,14.2900024],[120.9300435,14.2901636],[120.9299818,14.2903221],[120.9298772,14.2904521],[120.9297752,14.2905041],[120.9297189,14.2905145],[120.9294024,14.2905353],[120.9293624,14.2905484],[120.9293058,14.2905613],[120.9292173,14.2906289],[120.9291691,14.2907302],[120.9292012,14.2909148],[120.9291932,14.2911279],[120.9291181,14.291393],[120.9290781,14.291522],[120.9290459,14.2917882],[120.9290631,14.2918583],[120.9291155,14.2919038],[120.9291959,14.2919297],[120.9292999,14.2919405],[120.9293796,14.2919674],[120.9294187,14.2920273],[120.929507,14.2921247],[120.9295332,14.292241],[120.929526,14.2924003],[120.9294683,14.2925159],[120.9294321,14.2926043],[120.9294307,14.2927389],[120.9294911,14.2930202],[120.929432,14.2932424],[120.9293208,14.2934698],[120.9292336,14.2936089],[120.9292041,14.2937583],[120.9292106,14.2938986],[120.9292522,14.2940468],[120.9292859,14.294234],[120.9293128,14.2944796],[120.929326,14.2947291],[120.9293356,14.2949682],[120.9293945,14.2951957],[120.9294775,14.2953503],[120.9295742,14.2954543],[120.9296827,14.2956141],[120.9297565,14.2957973],[120.9298557,14.2960481],[120.9299055,14.2962743],[120.9299209,14.2965319],[120.9299042,14.2966992],[120.9299348,14.296837],[120.9299871,14.2969682],[120.9300832,14.2970464],[120.9302594,14.2971203],[120.9305226,14.2971229],[120.9307652,14.2970351],[120.9309393,14.2970096],[120.9310844,14.2970337],[120.9311954,14.2971369],[120.9313175,14.297349],[120.9313551,14.2975803],[120.9313749,14.2978392],[120.9313722,14.2981424],[120.9314032,14.2983298],[120.9315048,14.2984668],[120.9316045,14.2986369],[120.9317135,14.2988658],[120.9317976,14.2990917],[120.9317145,14.2992945],[120.9317512,14.2995009],[120.931811,14.2997259],[120.9319823,14.2999113],[120.9321383,14.3000378],[120.9322616,14.300226],[120.9323608,14.3005024],[120.9323797,14.3008877],[120.9323421,14.3011749],[120.9323349,14.3014282],[120.9324118,14.3016466],[120.932579,14.301821],[120.9327912,14.3020045],[120.9328625,14.3021456],[120.9328571,14.3023198],[120.9328188,14.3025347],[120.932869,14.3027005],[120.9329339,14.3028507],[120.9329583,14.3029462],[120.9328732,14.3029904],[120.9327927,14.3030592],[120.9327109,14.3031788],[120.9326908,14.3032789],[120.9327203,14.3033607],[120.9327941,14.3034088],[120.9328088,14.3034998],[120.9327538,14.303609],[120.9326197,14.3036896],[120.9324118,14.3037961],[120.932196,14.3038689],[120.9319933,14.3039144],[120.931819,14.3039884],[120.9316957,14.3041067],[120.9315911,14.3042068],[120.9314516,14.3043627],[120.9313403,14.3044745],[120.9312464,14.3046097],[120.9311271,14.3047292],[120.9310332,14.3048722],[120.930946,14.3050463],[120.9308454,14.305262],[120.9307448,14.3055089],[120.9306603,14.3057701],[120.9305651,14.3059494],[120.9303948,14.3060898],[120.9302258,14.3062067],[120.9301105,14.3063301],[120.9300015,14.3064879],[120.929958,14.3066825],[120.9299459,14.306832],[120.9298471,14.3069672],[120.9297569,14.3070657],[120.9296605,14.3071],[120.9294936,14.3071345],[120.9293146,14.307188],[120.9291744,14.3072595],[120.9290186,14.3074068],[120.9289325,14.3074986],[120.9288085,14.3075793],[120.9286288,14.3076656],[120.9283455,14.3077597],[120.9282088,14.3078168],[120.9280238,14.3079129],[120.9279084,14.3080287],[120.9278145,14.3082223],[120.9277072,14.3084419],[120.9276401,14.3086732],[120.9276079,14.3088837],[120.9276321,14.3090475],[120.9276777,14.3091709],[120.9277569,14.3092801],[120.9278145,14.3094061],[120.9278467,14.309527],[120.927848,14.3096478],[120.9277756,14.3097894],[120.9276803,14.3099402],[120.9275463,14.3101169],[120.9274028,14.3102898],[120.9273451,14.3104535],[120.9273223,14.3106211],[120.9273437,14.3107459],[120.9273705,14.3108758],[120.9273505,14.3110252],[120.9273116,14.3111683],[120.9271989,14.3112657],[120.9270595,14.3113164],[120.9268275,14.311354],[120.9266088,14.311393],[120.9263313,14.311458],[120.9261099,14.3115542],[120.9260483,14.3116283],[120.9260295,14.31174],[120.9260791,14.3118725],[120.9262122,14.3119412],[120.9263898,14.3119847],[120.9265564,14.312045],[120.9266893,14.3121376],[120.9267911,14.3122928],[120.9268783,14.3124738],[120.9268857,14.3126544],[120.9268485,14.3128713],[120.9267003,14.3130994],[120.9266094,14.3132258],[120.9265454,14.3133522],[120.9265158,14.3134733],[120.9265237,14.313606],[120.9266138,14.3137261],[120.9267201,14.3137947],[120.9268422,14.3138581],[120.9269084,14.3139531],[120.92692,14.3140881],[120.9269011,14.3142813],[120.9268089,14.3144422],[120.9267279,14.3145774],[120.9266367,14.3146882],[120.9265932,14.3147529],[120.9265411,14.3148763],[120.9265466,14.315012],[120.9265713,14.3151498],[120.9265819,14.3153085],[120.9265617,14.3155125],[120.9265845,14.3157087],[120.926665,14.3158725],[120.9268085,14.3160167],[120.9270287,14.3161841],[120.9271586,14.3162622],[120.9272325,14.3164064],[120.9272082,14.3165768],[120.9271599,14.3167314],[120.9270944,14.3167897],[120.9269815,14.3168302],[120.9268099,14.3168354],[120.9266183,14.3168547],[120.9264948,14.3169476],[120.926459,14.3170449],[120.9265123,14.3171561],[120.9266262,14.3172732],[120.9268663,14.3173609],[120.9271239,14.317403],[120.9272754,14.3174381],[120.9274343,14.3175051],[120.9275489,14.3176496],[120.927714,14.3178877],[120.9278278,14.318106],[120.9278923,14.318288],[120.9279099,14.3184454],[120.9279252,14.3185625],[120.9279728,14.3187142],[120.9279939,14.3188367],[120.9279312,14.3189991],[120.9277891,14.3191235],[120.92765,14.3192107],[120.9274995,14.3193461],[120.9274109,14.3194912],[120.9273914,14.319665],[120.9274694,14.3199195],[120.9276276,14.320323],[120.9277538,14.3205834],[120.9278485,14.3208067],[120.9278789,14.3209596],[120.9278348,14.3211054],[120.9277864,14.3212923],[120.9276945,14.3214469],[120.9275367,14.3217473],[120.9272157,14.3223406],[120.9270838,14.3226412],[120.9270662,14.32281],[120.9271065,14.3229664],[120.9272553,14.3231553],[120.9272774,14.3232368],[120.9272808,14.3232813],[120.9272714,14.3234279],[120.9272617,14.3236002],[120.9272763,14.3237348],[120.9273583,14.3238886],[120.9275034,14.3239483],[120.9276228,14.3240223],[120.9277431,14.3241375],[120.9277993,14.32431],[120.927916,14.3244685],[120.9279898,14.3246179],[120.9280828,14.3248098],[120.928093,14.3249896],[120.9280689,14.3251806],[120.9280662,14.3253677],[120.928093,14.3255873],[120.9281077,14.3257757],[120.9281627,14.3259303],[120.9282633,14.3260446],[120.9284309,14.3262136],[120.9285267,14.3263483],[120.9285749,14.3264093],[120.9286214,14.3264864],[120.9286581,14.3266095],[120.9286821,14.3267743],[120.9286577,14.3269399],[120.9286004,14.3270629],[120.928484,14.3271525],[120.9282719,14.327215],[120.9280367,14.3272572],[120.9277431,14.3274008],[120.9276745,14.3275066],[120.9276847,14.3276821],[120.9276267,14.3279574],[120.9275246,14.3283265],[120.9273664,14.328644],[120.9271593,14.3289524],[120.9267833,14.3291682],[120.9262968,14.3293144],[120.9261054,14.3294363],[120.9260926,14.329597],[120.9261591,14.329835],[120.9261913,14.3301313],[120.9261838,14.3303803],[120.9261242,14.3305392],[120.9258592,14.3306064],[120.9254779,14.3305886],[120.9249709,14.3304509],[120.9246812,14.3305055],[120.9244372,14.3306717],[120.9242843,14.3308822],[120.9240831,14.3311942],[120.9239993,14.3313783],[120.9239382,14.3315891],[120.9239119,14.3317966],[120.9238793,14.3319685],[120.9238433,14.3321958],[120.9237817,14.3322365],[120.9237421,14.3322672],[120.923692,14.3323566],[120.9235927,14.3324698],[120.9233836,14.3326257],[120.9232307,14.3328648],[120.9230456,14.3332728],[120.9229302,14.3336574],[120.9229141,14.3338913],[120.9230939,14.3341797],[120.9231395,14.3345175],[120.9232118,14.3348164],[120.9233031,14.3351646],[120.9233849,14.3356181],[120.9233714,14.3360222],[120.9233384,14.3362218],[120.9234385,14.3364861],[120.9235643,14.3367094],[120.9236961,14.3368265],[120.9238663,14.337241],[120.923928,14.3374852],[120.9240219,14.3377997],[120.9240702,14.3382792],[120.92404,14.3386035],[120.9240263,14.3394754],[120.9239494,14.3400064],[120.9239518,14.3404493],[120.9239236,14.3407613],[120.9239354,14.3411615],[120.923925,14.3415096],[120.923889,14.3419258],[120.9239085,14.3421085],[120.9239635,14.3427081],[120.9239743,14.3428901],[120.9239602,14.3430516],[120.9239291,14.3431728],[120.9238377,14.3433975],[120.9237663,14.343528],[120.9236236,14.3437117],[120.9233206,14.3442547],[120.9232226,14.344434],[120.9230724,14.3446016],[120.9229517,14.3446846],[120.9227292,14.3448173],[120.9225131,14.3450641],[120.9224313,14.3453214],[120.9223938,14.3455708],[120.9223858,14.3457982],[120.9222962,14.3459417],[120.9222409,14.3462322],[120.9222397,14.3465609],[120.9222749,14.346831],[120.9222514,14.3471247],[120.9222407,14.3472038],[120.9221937,14.347481],[120.9220889,14.3477401],[120.9220194,14.3480527],[120.9219825,14.3483158],[120.9220352,14.348695],[120.9221008,14.3491032],[120.9220484,14.3493114],[120.9220505,14.349505],[120.9220397,14.3497571],[120.9219821,14.3499831],[120.9219056,14.3501988],[120.9218114,14.3504509],[120.9217937,14.3505846],[120.9217913,14.3507489],[120.9218147,14.3509078],[120.921851,14.3510741],[120.9219654,14.3513848],[120.922032,14.3516062],[120.922067,14.3517707],[120.9220789,14.3519869],[120.9220808,14.352162],[120.9220726,14.3523027],[120.9220546,14.3524558],[120.922016,14.3525667],[120.9219636,14.3526375],[120.9218521,14.3527582],[120.9216755,14.3530235],[120.921601,14.3531838],[120.9215569,14.3533322],[120.9215225,14.3534362],[120.9214728,14.353523],[120.9213887,14.3536165],[120.9212743,14.3536846],[120.9210397,14.3538128],[120.9209391,14.3538466],[120.9208239,14.3539181],[120.9206678,14.3540069],[120.9204892,14.3541065],[120.9203486,14.3542251],[120.9202557,14.3543231],[120.9201944,14.3544434],[120.9201429,14.3545643],[120.9201032,14.354702],[120.9200954,14.3548558],[120.9201018,14.3550761],[120.9201421,14.3552866],[120.9201902,14.3554318],[120.9202011,14.3555582],[120.9201957,14.3556998],[120.9201676,14.3558921],[120.9200522,14.3562966],[120.9199999,14.3564143],[120.919922,14.3565445],[120.9198395,14.3566048],[120.9197424,14.3566586],[120.919607,14.3567222],[120.9195279,14.3567703],[120.9194668,14.3568196],[120.9194313,14.3568678],[120.9194138,14.3569288],[120.9194085,14.3570042],[120.9194371,14.3570704],[120.9194796,14.3571536],[120.9195292,14.357255],[120.9195574,14.3573537],[120.9195677,14.3574223],[120.9195748,14.3574862],[120.9195802,14.3575875],[120.9196164,14.3576772],[120.9196808,14.3577344],[120.9197132,14.3578053],[120.9197108,14.3578475],[120.9197082,14.3579604],[120.9197086,14.3580255],[120.9197257,14.3581248],[120.9197256,14.3582284],[120.9197042,14.3583665],[120.9196681,14.3585177],[120.9196146,14.3586525],[120.9195507,14.358814],[120.9194943,14.3589686],[120.9194221,14.3591601],[120.9193743,14.35927],[120.9193341,14.3593675],[120.9192938,14.3594591],[120.9192332,14.359572],[120.9191671,14.3596546],[120.9191007,14.3597215],[120.9190272,14.3597755],[120.9189769,14.3598092],[120.9188928,14.3598456],[120.9187905,14.3598676],[120.9185596,14.3598923],[120.9183538,14.3598993],[120.9181626,14.3598586],[120.9180164,14.3598067],[120.917826,14.3596962],[120.9176946,14.3596195],[120.9175631,14.3595208],[120.9173942,14.3594558],[120.9171997,14.3594312],[120.9170093,14.3594519],[120.9168363,14.359478],[120.9166954,14.359526],[120.9165828,14.3595844],[120.9164017,14.3596468],[120.9162033,14.3597209],[120.916037,14.3598001],[120.9159404,14.3598807],[120.9158626,14.3599911],[120.9158076,14.3600898],[120.9157753,14.3601882],[120.9157714,14.3603055],[120.9157835,14.3604445],[120.9157768,14.3605341],[120.9157674,14.3606197],[120.9157696,14.3607816],[120.9157929,14.3609187],[120.9158103,14.3610499],[120.9158157,14.3612461],[120.915813,14.361402],[120.915786,14.3615579],[120.9157097,14.361823],[120.9156454,14.3619464],[120.915583,14.362069],[120.9155253,14.362174],[120.9154836,14.3622948],[120.9154201,14.3624894],[120.9153771,14.3626375],[120.9153498,14.3628076],[120.9152953,14.3629571],[120.9152564,14.3631299],[120.9152041,14.3632832],[120.9151884,14.3634209],[120.9151909,14.3634861],[120.9151931,14.3635441],[120.9151934,14.3635522],[120.9151908,14.3636678],[120.9151821,14.3638016],[120.9151625,14.3639497],[120.9151409,14.3640482],[120.9150995,14.3641602],[120.915071,14.3642867],[120.9150338,14.3644148],[120.9149976,14.3645603],[120.9149525,14.3647075],[120.9149145,14.3648617],[120.914896,14.3650156],[120.9148622,14.3653009],[120.9147883,14.3655951],[120.9146864,14.3659246],[120.914598,14.3662156],[120.9145041,14.3665976],[120.9144424,14.3668949],[120.9144115,14.3670794],[120.9143954,14.3672693],[120.9143901,14.3675276],[120.9143888,14.3676027],[120.914386,14.3677629],[120.9143968,14.3680149],[120.9144236,14.3681915],[120.9144749,14.3684098],[120.9145457,14.3686267],[120.9146007,14.3688346],[120.9146784,14.3691542],[120.9147558,14.3694538],[120.9147713,14.3696238],[120.9147535,14.3697999],[120.9147194,14.3699869],[120.914669,14.3700935],[120.9146127,14.3701701],[120.9145003,14.3702274],[120.9143894,14.3702403],[120.914264,14.3702279],[120.9141527,14.3701887],[120.9140422,14.370165],[120.9139368,14.370161],[120.9138335,14.3701649],[120.9136502,14.3701602],[120.913509,14.3701714],[120.9133654,14.3702143],[120.9132328,14.3702878],[120.9130832,14.3704401],[120.9127781,14.3707976],[120.9126922,14.3708976],[120.912644,14.3710211],[120.9126017,14.371233],[120.9125919,14.3714499],[120.9126326,14.3715965],[120.9127338,14.3716849],[120.9128588,14.3717405],[120.9131415,14.3718083],[120.9133696,14.3719245],[120.9134394,14.3719601],[120.9135492,14.3720344],[120.9136404,14.3721318],[120.9136833,14.3722461],[120.913698,14.3723953],[120.9136833,14.3725605],[120.9137155,14.3727502],[120.9137259,14.3729224],[120.9137169,14.3730841],[120.9137222,14.3731893],[120.9137665,14.3734426],[120.9138228,14.3736843],[120.9138882,14.3739024],[120.9139167,14.3740987],[120.9139122,14.3743784],[120.9138958,14.3744936],[120.9138738,14.3746482],[120.913848,14.3748794],[120.9138456,14.3750263],[120.9138025,14.3752343],[120.9138201,14.3753166],[120.9138624,14.3754264],[120.9138825,14.3755303],[120.9138865,14.3756511],[120.9138797,14.3757662],[120.9138711,14.3759058],[120.9138476,14.3760338],[120.9138148,14.3761532],[120.9137893,14.3762669],[120.9137906,14.3763267],[120.9138047,14.3764163],[120.9138034,14.3764874],[120.9137772,14.3765787],[120.9137115,14.3767079],[120.913633,14.3768223],[120.9135908,14.3768807],[120.9135438,14.3769612],[120.9135143,14.3770197],[120.9134694,14.3770659],[120.913397,14.3771048],[120.9133293,14.3771282],[120.913289,14.3771549],[120.9132434,14.3771964],[120.9132019,14.3772575],[120.9131562,14.3773368],[120.9130959,14.3774121],[120.9130175,14.377477],[120.9129151,14.3775714],[120.9127821,14.3777082],[120.9126507,14.3778401],[120.9125435,14.3779504],[120.9124794,14.3780363],[120.9124173,14.3781324],[120.9123613,14.3782288],[120.9122727,14.3784111],[120.9120926,14.3788365],[120.9118514,14.3794965],[120.9116998,14.3798667],[120.9116341,14.3800551],[120.9115561,14.3802142],[120.9114705,14.3803643],[120.9113954,14.3804838],[120.911213,14.3807163],[120.9110433,14.3809197],[120.9108375,14.3811463],[120.9107584,14.3812554],[120.9106833,14.3813594],[120.9105989,14.381444],[120.9105049,14.3815386],[120.9103866,14.3816232],[120.9103096,14.3816645],[120.9102622,14.3817251],[120.9102152,14.3818024],[120.9100623,14.3819465],[120.9099765,14.3820505],[120.9099349,14.3821492],[120.9098909,14.3822157],[120.9097579,14.3824194],[120.9096536,14.3826331],[120.9096104,14.3827338],[120.9095849,14.3828325],[120.909541,14.383078],[120.9095179,14.383256],[120.9094936,14.3835415],[120.9094427,14.3838263],[120.9093851,14.3840277],[120.9093475,14.3841529],[120.9092912,14.3842368],[120.9092081,14.384307],[120.9091002,14.3843854],[120.9089693,14.3844499],[120.9088379,14.3844875],[120.9087414,14.3844797],[120.90863,14.3844719],[120.9085225,14.3844992],[120.9083913,14.3845512],[120.9082049,14.3846538],[120.9080032,14.3847611],[120.9078093,14.3848565],[120.9077141,14.3849292],[120.9076376,14.3850188],[120.9075478,14.3850689],[120.9074498,14.3851118],[120.9073587,14.3851449],[120.9071468,14.3852449],[120.9069698,14.3853514],[120.9067954,14.3855008],[120.906731,14.3855813],[120.9066023,14.3856944],[120.9063609,14.3858684],[120.9062,14.3860087],[120.9060739,14.3861295],[120.9059545,14.3862477],[120.9058352,14.3863608],[120.9057748,14.3864465],[120.9056957,14.3865686],[120.9056085,14.3867453],[120.9055012,14.3869895],[120.9054141,14.3871597],[120.9053645,14.3872662],[120.905337,14.3873623],[120.9053309,14.3874377],[120.905339,14.3875182],[120.9053859,14.3876027],[120.9054664,14.3876533],[120.9055857,14.3876949],[120.9056863,14.3877131],[120.9058003,14.3877417],[120.9059049,14.3877871],[120.9060068,14.3878534],[120.9060739,14.3879222],[120.9061356,14.3879911],[120.9061798,14.3880976],[120.9062013,14.3882158],[120.9062093,14.3883301],[120.906204,14.3884561],[120.9061772,14.3885782],[120.9061235,14.3886796],[120.9060243,14.3887978],[120.9059224,14.38889],[120.9058137,14.3890186],[120.905638,14.3891953],[120.9055093,14.3893447],[120.9054302,14.3894447],[120.905402,14.3895096],[120.905394,14.3895811],[120.9054194,14.3896538],[120.905457,14.3897019],[120.9055227,14.3897552],[120.9056179,14.3898032],[120.9057239,14.3898344],[120.9058271,14.389876],[120.9058902,14.3899292],[120.9059344,14.3900124],[120.9059572,14.3901072],[120.9059787,14.3903358],[120.9059894,14.3905995],[120.9060055,14.390797],[120.9060451,14.3910951],[120.9060746,14.3912939],[120.9061282,14.3916115],[120.9061557,14.3917635],[120.9061865,14.3919102],[120.9062,14.3920544],[120.9061879,14.3921947],[120.9061731,14.3922973],[120.9061235,14.3924493],[120.9060444,14.3926611],[120.9059555,14.392927],[120.9058915,14.3931508],[120.905858,14.3932872],[120.9058419,14.3933911],[120.9057976,14.3935301],[120.9057185,14.3936639],[120.9056233,14.393773],[120.9054758,14.3938971],[120.9053403,14.3940049],[120.9052411,14.394088],[120.9051009,14.3941997],[120.9049729,14.3943063],[120.9048803,14.3943894],[120.9048206,14.3944258],[120.9047556,14.3944758],[120.9046195,14.3945739],[120.9045491,14.3946226],[120.9044498,14.3946882],[120.9043626,14.394731],[120.9042191,14.3947765],[120.9040777,14.3948148],[120.9039047,14.3948499],[120.9037652,14.3948661],[120.9036592,14.3948928],[120.9035446,14.3949454],[120.9034185,14.3950233],[120.9033348,14.3950955],[120.9032679,14.3951498],[120.9031242,14.3952745],[120.903008,14.395343],[120.9028445,14.3954643],[120.9026986,14.3955712],[120.9026223,14.3956536],[120.9025905,14.3957675],[120.9025655,14.3959263],[120.9025668,14.3960194],[120.9025884,14.3960982],[120.9026353,14.3961931],[120.9026782,14.3963022],[120.9027048,14.3964081],[120.9027031,14.3965706],[120.9026728,14.3967163],[120.9026274,14.3968439],[120.9025508,14.396927],[120.9024623,14.3969503],[120.9023711,14.3969582],[120.9023111,14.3969851],[120.9022464,14.3970296],[120.9022077,14.3970908],[120.9022088,14.3971569],[120.9022316,14.3972089],[120.9022786,14.3972881],[120.9023165,14.3973621],[120.902395,14.397417],[120.9025442,14.3974893],[120.902672,14.3975925],[120.9027617,14.3976899],[120.902807,14.3977635],[120.9028276,14.3978637],[120.9028137,14.3979532],[120.9027511,14.3980362],[120.9026258,14.3980885],[120.9025057,14.3981111],[120.9024061,14.3980864],[120.9022771,14.3980622],[120.9021203,14.3980597],[120.9020174,14.3980812],[120.9018467,14.398161],[120.9016994,14.3982387],[120.9016066,14.3983159],[120.9015584,14.3984091],[120.901546,14.3984832],[120.9015416,14.39861],[120.9015329,14.3987196],[120.9015146,14.3988489],[120.9015349,14.3990048],[120.901553,14.3991535],[120.9015761,14.3993528],[120.9015718,14.3994769],[120.9015356,14.3995977],[120.9015274,14.3997398],[120.9015074,14.3999017],[120.9014866,14.400083],[120.9014578,14.4002264],[120.9014202,14.4003653],[120.9013595,14.4005385],[120.9012413,14.400819],[120.9009236,14.4011905],[120.9008047,14.4013695],[120.9006719,14.4015475],[120.9005328,14.4016861],[120.9003998,14.4017508],[120.9001673,14.4018773],[120.9000202,14.4019125],[120.899886,14.4019073],[120.8997925,14.4019131],[120.8995883,14.4019164],[120.8993882,14.4018732],[120.8992597,14.4018787],[120.8991423,14.4019478],[120.8990814,14.4020346],[120.8990016,14.4020954],[120.8986866,14.4022032],[120.8984267,14.4024022],[120.8980621,14.4027374],[120.8979434,14.4028158],[120.8977505,14.4029432],[120.8976858,14.4031137],[120.8976976,14.40349],[120.8977075,14.4038262],[120.8976623,14.404225],[120.8975094,14.4046425],[120.8972096,14.4048601],[120.8969626,14.4050188],[120.8966804,14.4053951],[120.8964393,14.4058302],[120.8963981,14.4062771],[120.8963687,14.406327],[120.8961011,14.4069524],[120.8957156,14.407125],[120.8954233,14.4073849],[120.8949427,14.4077719],[120.894743,14.4079584],[120.8945206,14.4082294],[120.894284,14.4085742],[120.8940669,14.4087023],[120.8939352,14.4087286],[120.8936051,14.4086936],[120.8932892,14.4086309],[120.8931701,14.4086415],[120.8930592,14.4086757],[120.8929341,14.4087557],[120.8928374,14.4088396],[120.8927248,14.4090208],[120.8926665,14.4091517],[120.8925959,14.4092708],[120.8924391,14.4094248],[120.892088,14.4096874],[120.8915373,14.4102345],[120.8912516,14.4105806],[120.8910583,14.4107662],[120.8908906,14.4109237],[120.8907181,14.4110296],[120.8904108,14.4111471],[120.8901951,14.4112119],[120.8900288,14.4112311],[120.8898437,14.4112217],[120.8897568,14.4112313],[120.8896993,14.4112668],[120.8896144,14.4114381],[120.8895323,14.4115979],[120.8894419,14.4117898],[120.88931,14.4119998],[120.8890609,14.4122261],[120.8887532,14.4124671],[120.8885317,14.4126918],[120.8883445,14.4128367],[120.8882403,14.4130353],[120.8881057,14.4133652],[120.8878259,14.4140171],[120.8876923,14.4142079],[120.8876196,14.4143597],[120.8875432,14.4146053],[120.8874632,14.4149138]]]}}]}