{"type":"FeatureCollection","features":[{"type":"Feature","id":"relation/1486016","properties":{"admin_level":"6","boundary":"administrative","name":"Imus","name:en":"Imus","name:ja":"イマス","name:tl":"Imus","old_ref":"042109000","population":"496794","population:date":"2020-05-01","postal_code":"4103","ref":"0402109000","type":"boundary","wikidata":"Q63145","wikipedia":"en:Imus","id":"relation/1486016"},"geometry":{"type":"Polygon","coordinates":[[[120.9732212,14.379851],[120.9732078,14.3799242],[120.9731604,14.3799617],[120.9730883,14.3799663],[120.9729534,14.3800293],[120.9726572,14.3802353],[120.9726038,14.3803891],[120.9725511,14.3805539],[120.9724552,14.3806259],[120.9722011,14.380677],[120.9720594,14.380675],[120.9717216,14.3807467],[120.9715197,14.380814],[120.9713717,14.3808212],[120.9713176,14.3808735],[120.9712587,14.380949],[120.9712216,14.3810568],[120.9711007,14.381232],[120.9710032,14.3813351],[120.9709991,14.3813431],[120.9709572,14.381426],[120.9709336,14.3815159],[120.9707634,14.3822303],[120.9707501,14.3822869],[120.9707152,14.382347],[120.9706193,14.382453],[120.9704367,14.3826067],[120.9703079,14.3827393],[120.9701885,14.3828768],[120.9701087,14.3829819],[120.9700457,14.3831401],[120.9700388,14.3832383],[120.9700987,14.3833358],[120.9701059,14.383438],[120.9700388,14.3835518],[120.9700677,14.3836297],[120.9700206,14.3837497],[120.9700579,14.383844],[120.9700807,14.3839427],[120.9700176,14.3840201],[120.9699594,14.3841056],[120.9699717,14.3842234],[120.9700395,14.3843613],[120.9700259,14.3845748],[120.9700623,14.3847292],[120.9700796,14.3848024],[120.9701105,14.3849344],[120.9701834,14.385071],[120.970197,14.3851468],[120.9702207,14.3851925],[120.9702256,14.3852675],[120.9701885,14.3853426],[120.9701249,14.3854883],[120.970041,14.3855636],[120.969902,14.3855603],[120.9698037,14.3854881],[120.9697435,14.3853887],[120.9696274,14.3853929],[120.969563,14.3854454],[120.9695732,14.3855735],[120.969546,14.3857311],[120.9694477,14.3858198],[120.9693155,14.3859643],[120.9693291,14.3860464],[120.9692956,14.3861776],[120.9691625,14.3863156],[120.9691391,14.3863835],[120.9691321,14.386483],[120.9690854,14.3866097],[120.9690691,14.3867116],[120.9691224,14.386845],[120.9692346,14.3872164],[120.9692604,14.3873213],[120.9692977,14.3874728],[120.9692253,14.3877719],[120.9691458,14.3879435],[120.969123,14.3880007],[120.9690162,14.3880909],[120.9690494,14.3882061],[120.9691134,14.3882813],[120.9691513,14.3883258],[120.9692962,14.3884298],[120.9693436,14.388532],[120.9694789,14.3884976],[120.9696375,14.38845],[120.9697787,14.3884045],[120.9699099,14.3883471],[120.9700503,14.388274],[120.9705084,14.3879453],[120.9706029,14.3878934],[120.9707028,14.387852],[120.9709848,14.3877652],[120.9710824,14.3877352],[120.9717667,14.3875638],[120.9721148,14.3874712],[120.9721999,14.3874471],[120.972522,14.387354],[120.9727699,14.3872836],[120.9739226,14.3869714],[120.974152,14.3869275],[120.9745059,14.3868912],[120.9747421,14.3868565],[120.9747965,14.3869489],[120.9751324,14.3877755],[120.9729817,14.3885568],[120.9727689,14.3886341],[120.9728955,14.3887052],[120.9729315,14.3887311],[120.9729531,14.3887838],[120.9729488,14.3888889],[120.9729106,14.3889436],[120.9729444,14.3890406],[120.9730334,14.3890944],[120.973071,14.389105],[120.9730573,14.3891671],[120.9730592,14.3892256],[120.9730577,14.3892775],[120.973049,14.3893097],[120.9730044,14.389356],[120.9729178,14.3894165],[120.9728367,14.3895045],[120.9728415,14.3895925],[120.9727956,14.3897582],[120.9727866,14.3897907],[120.9727437,14.3899674],[120.9727271,14.3900476],[120.9727008,14.3901752],[120.9726042,14.3902895],[120.9724249,14.3904475],[120.9723682,14.3905285],[120.9722609,14.3906428],[120.9721429,14.3908819],[120.9720678,14.3910689],[120.972218,14.3911832],[120.9722824,14.3913703],[120.9723467,14.3915678],[120.9724326,14.391786],[120.9724428,14.3918849],[120.9723705,14.3919754],[120.9723303,14.3921656],[120.9722677,14.3923085],[120.9721694,14.3924699],[120.9720299,14.3926705],[120.9718789,14.3927886],[120.9718653,14.3927964],[120.9717456,14.3928761],[120.9716285,14.3929541],[120.9713696,14.3932721],[120.9712668,14.3935203],[120.9712114,14.3937543],[120.9711519,14.3939164],[120.9710003,14.3941294],[120.9708649,14.3942372],[120.9707515,14.3943856],[120.9706193,14.3945278],[120.9705301,14.3946086],[120.970445,14.3946707],[120.9703591,14.3947219],[120.9702813,14.3947612],[120.9701868,14.394816],[120.9700835,14.3948898],[120.969974,14.3949874],[120.9698971,14.3950512],[120.9698258,14.395113],[120.9697479,14.3951889],[120.9696725,14.3952546],[120.9696104,14.395301],[120.9695675,14.3953143],[120.9695162,14.3953208],[120.9694566,14.3953261],[120.9693888,14.3953315],[120.9693385,14.395339],[120.9692963,14.3953517],[120.9692496,14.3953669],[120.9692138,14.3953822],[120.9691729,14.3954182],[120.9691447,14.3954539],[120.9691273,14.3955104],[120.9691172,14.395554],[120.9691152,14.3955981],[120.9691159,14.3956189],[120.9691239,14.3956553],[120.9691232,14.3956904],[120.9691031,14.3957163],[120.9690669,14.3957417],[120.9690146,14.3957586],[120.9689375,14.3957858],[120.9688906,14.3958261],[120.9688403,14.3958722],[120.9688101,14.3959112],[120.96879,14.3959482],[120.9687759,14.3959781],[120.9687732,14.3960041],[120.9687752,14.3960495],[120.9687906,14.3961002],[120.9688041,14.3961437],[120.9688134,14.3961768],[120.968823,14.3962068],[120.9688279,14.3962528],[120.9688262,14.3962717],[120.9688213,14.3962973],[120.9688081,14.396333],[120.9687679,14.3964054],[120.9687249,14.3964678],[120.9686646,14.3965548],[120.9686197,14.3966211],[120.9685566,14.3967023],[120.9685251,14.3967607],[120.9685057,14.396812],[120.9684916,14.3968627],[120.9684822,14.3969432],[120.9684788,14.3970381],[120.9684695,14.3971199],[120.9684467,14.3972245],[120.9684299,14.3973018],[120.9684259,14.3973661],[120.96845,14.3974342],[120.9684949,14.3974869],[120.9685519,14.3975473],[120.9685667,14.3975732],[120.9685687,14.3976018],[120.9685519,14.3976323],[120.9684902,14.3976661],[120.9683823,14.3977194],[120.9683072,14.3977713],[120.9682468,14.3978123],[120.968224,14.3978421],[120.9682113,14.3978688],[120.9682113,14.3979012],[120.9682254,14.3979467],[120.9682777,14.398],[120.9683441,14.3980493],[120.9684138,14.3980941],[120.9684708,14.3981389],[120.9684842,14.3981818],[120.9684835,14.3982182],[120.9684607,14.3982578],[120.9684359,14.398276],[120.9684004,14.3983039],[120.9683541,14.3983591],[120.9682879,14.3984479],[120.96823,14.3985332],[120.968182,14.3986032],[120.9681376,14.3986869],[120.9681147,14.3987352],[120.968102,14.3988001],[120.9680986,14.3988462],[120.9680913,14.3989138],[120.9680879,14.3989573],[120.9680758,14.3990047],[120.9680329,14.3990599],[120.9679806,14.3991106],[120.9679176,14.3991703],[120.9678861,14.3992184],[120.9678559,14.3992782],[120.9678143,14.3993463],[120.9677902,14.399373],[120.9677573,14.3994126],[120.9677191,14.39946],[120.9676758,14.3994968],[120.9676353,14.3995211],[120.967589,14.399536],[120.967524,14.399549],[120.9674489,14.3995444],[120.9673811,14.3995392],[120.9672846,14.3995451],[120.9672035,14.3995698],[120.967131,14.3996081],[120.9671022,14.3996432],[120.9670895,14.3996951],[120.9670807,14.399764],[120.967066,14.3998094],[120.9670224,14.3998692],[120.9669822,14.399927],[120.9669379,14.3999653],[120.9668729,14.3999952],[120.966777,14.4000134],[120.9666623,14.4000173],[120.9665772,14.4000088],[120.9665108,14.4000004],[120.9664618,14.4000075],[120.9664196,14.4000309],[120.9663753,14.4000673],[120.9663096,14.4001225],[120.9662312,14.4001744],[120.9661507,14.4002361],[120.9660957,14.4002862],[120.9660307,14.4003498],[120.9659639,14.4004367],[120.9659138,14.400515],[120.9658989,14.4005495],[120.9658892,14.4005856],[120.9658771,14.4006447],[120.9658758,14.4006843],[120.9658825,14.4007408],[120.9658952,14.4007811],[120.965924,14.4008317],[120.965979,14.4008973],[120.9660367,14.4009454],[120.9660789,14.4009895],[120.9660977,14.4010285],[120.9660977,14.4010603],[120.9660809,14.4011032],[120.9660199,14.4011474],[120.9659703,14.4011746],[120.9659006,14.4012104],[120.9658127,14.4012779],[120.9657202,14.4013526],[120.9656753,14.4014124],[120.9656404,14.4015163],[120.9656095,14.4016657],[120.9656002,14.4017527],[120.9655961,14.4018475],[120.9656069,14.4019722],[120.9656283,14.402067],[120.9656793,14.4021787],[120.9656918,14.4022657],[120.9656639,14.4023392],[120.9656377,14.4023892],[120.9655941,14.4024405],[120.9655479,14.4024918],[120.9654895,14.4025476],[120.9654339,14.4025788],[120.9653581,14.4026087],[120.9652863,14.4026308],[120.9652287,14.4026483],[120.9651811,14.4026834],[120.9651388,14.4027334],[120.96512,14.4027763],[120.9651113,14.4028191],[120.9651066,14.4028737],[120.9651261,14.4029166],[120.9651496,14.4029432],[120.9651757,14.4029659],[120.9651911,14.4029971],[120.9651884,14.4030309],[120.9651706,14.4030504],[120.9651274,14.4030796],[120.9650892,14.4031062],[120.9650475,14.403123],[120.96499,14.4031419],[120.964945,14.4031653],[120.9649029,14.4031993],[120.96488,14.4032419],[120.9648773,14.4032916],[120.964884,14.4033472],[120.9648773,14.4033872],[120.9648398,14.4034303],[120.9647907,14.4034606],[120.9647083,14.4034835],[120.9646255,14.4034954],[120.96453,14.4035017],[120.9644344,14.4035047],[120.9643456,14.403518],[120.9642825,14.4035472],[120.9642216,14.403587],[120.964194,14.4036427],[120.9641595,14.4036835],[120.9641343,14.4037128],[120.9640914,14.4037303],[120.9640465,14.4037213],[120.9640145,14.4036975],[120.9639814,14.4036557],[120.9639426,14.4035963],[120.9639017,14.40354],[120.9638397,14.4034816],[120.9637856,14.4034615],[120.9637025,14.4034569],[120.9636292,14.4034815],[120.9634992,14.4035189],[120.963447,14.4035368],[120.9633873,14.403566],[120.9633377,14.4035901],[120.9632881,14.4036121],[120.9632384,14.4036143],[120.9631817,14.4035893],[120.9631298,14.4035602],[120.9630974,14.4035378],[120.9629954,14.4034834],[120.9628784,14.4034192],[120.9627832,14.4033829],[120.9626657,14.4033236],[120.9626104,14.4032829],[120.9625203,14.4032842],[120.9624315,14.4032957],[120.9623567,14.4033082],[120.962272,14.4033316],[120.9621958,14.4033452],[120.9621111,14.4033719],[120.9620536,14.403377],[120.962014,14.40339],[120.9619866,14.4034147],[120.961956,14.4034787],[120.9619101,14.4035439],[120.9618613,14.403597],[120.961784,14.4036686],[120.9617018,14.4037367],[120.9616064,14.4038005],[120.9615294,14.4038373],[120.9613296,14.4039139],[120.961196,14.4039414],[120.9611006,14.4039495],[120.9609995,14.4039856],[120.9609447,14.4040029],[120.9608372,14.4040226],[120.9607453,14.4040165],[120.960675,14.4039888],[120.9606066,14.4039388],[120.960545,14.4039068],[120.9604745,14.4038966],[120.9603973,14.403904],[120.9602914,14.4039349],[120.9601965,14.4039707],[120.9601023,14.403991],[120.9600299,14.4039999],[120.9599729,14.4040233],[120.9599161,14.40406],[120.9598582,14.4041467],[120.9598079,14.4042344],[120.9597194,14.4043473],[120.9596396,14.4044611],[120.9596014,14.4045673],[120.9595835,14.4046745],[120.9595852,14.4048127],[120.9595788,14.4049294],[120.959558,14.4051499],[120.9595208,14.4052731],[120.9593755,14.405438],[120.9593197,14.4055516],[120.9592728,14.4056417],[120.9592328,14.4057357],[120.9592259,14.4058074],[120.9592237,14.4058872],[120.9592326,14.4059366],[120.9592641,14.4060015],[120.9593191,14.4061078],[120.9593453,14.406175],[120.9593595,14.406234],[120.959364,14.4062867],[120.95936,14.4063484],[120.9593397,14.4064033],[120.9592909,14.4064886],[120.9592494,14.406549],[120.9591575,14.4065911],[120.9590571,14.4066362],[120.9589838,14.4066978],[120.9589313,14.4067631],[120.9588819,14.4068621],[120.9588611,14.4069381],[120.9588591,14.406997],[120.9588631,14.4070335],[120.9588873,14.4070712],[120.9589067,14.4071453],[120.9589129,14.4072184],[120.9588866,14.407292],[120.9588484,14.4073765],[120.9588035,14.407486],[120.9587988,14.407533],[120.9588209,14.407581],[120.9588812,14.4076642],[120.9589443,14.4077504],[120.9589832,14.4078214],[120.9589899,14.4079071],[120.9590167,14.4079946],[120.9590824,14.4080811],[120.9591803,14.4081876],[120.9593017,14.4082863],[120.9594033,14.4083616],[120.9594364,14.4084448],[120.9594498,14.4085298],[120.9594378,14.4086345],[120.9593948,14.4087227],[120.9593171,14.4088839],[120.9592769,14.4089683],[120.9592567,14.4090606],[120.9592688,14.4091631],[120.9592595,14.4092566],[120.959238,14.4094047],[120.9591865,14.4095327],[120.959053,14.4097748],[120.9590207,14.4098775],[120.9590127,14.4099749],[120.9590207,14.4100581],[120.9590435,14.4101593],[120.9590529,14.4102815],[120.9590462,14.4103451],[120.9590033,14.4103944],[120.9589322,14.4104672],[120.9588457,14.4105776],[120.9587793,14.4106673],[120.9586846,14.4107499],[120.9586211,14.410792],[120.9585479,14.4108328],[120.9584923,14.4108738],[120.9584232,14.4108985],[120.9583776,14.410929],[120.9583595,14.4109758],[120.9583649,14.4110128],[120.958389,14.4110608],[120.9584534,14.4111205],[120.9584856,14.4111894],[120.958487,14.411266],[120.9584346,14.4113687],[120.9583449,14.4114479],[120.958208,14.4114869],[120.9580994,14.4114881],[120.9579063,14.4114985],[120.9577118,14.4114985],[120.9575804,14.411509],[120.9574684,14.4115387],[120.9573919,14.4115668],[120.9573195,14.4116044],[120.9572679,14.4116791],[120.9572478,14.4117434],[120.9572464,14.4118128],[120.9572632,14.4119383],[120.9572665,14.4120636],[120.9572641,14.4121771],[120.9572431,14.412261],[120.9571873,14.4123271],[120.9571237,14.4123916],[120.9570493,14.4124467],[120.956916,14.4125161],[120.9568427,14.4125383],[120.956779,14.41255],[120.9567241,14.4125747],[120.9566858,14.4126143],[120.9566631,14.4126643],[120.9566624,14.4127124],[120.9566858,14.4127637],[120.956714,14.4128059],[120.9567663,14.4128507],[120.9568065,14.4129059],[120.9568227,14.4129455],[120.9568186,14.4129806],[120.9568012,14.4130105],[120.9567476,14.4130468],[120.9566832,14.4130715],[120.9565886,14.4130813],[120.9564713,14.4130936],[120.9563727,14.4130948],[120.9562942,14.413078],[120.9562319,14.413056],[120.9561166,14.4130241],[120.9560234,14.4130136],[120.9558718,14.4129995],[120.9557625,14.4129871],[120.9556425,14.4129637],[120.9555788,14.4129598],[120.9555238,14.4129728],[120.9554876,14.4130053],[120.9554681,14.4130469],[120.9554715,14.4130834],[120.9554976,14.4131391],[120.9555553,14.4132177],[120.9556144,14.4133111],[120.9556907,14.4134378],[120.9557464,14.4135241],[120.9557752,14.4135892],[120.9557893,14.4136496],[120.9557879,14.4137112],[120.9557699,14.4137814],[120.9557397,14.4138366],[120.9556914,14.4138781],[120.9556163,14.413908],[120.9555097,14.4139372],[120.95533,14.4139483],[120.9552334,14.4139457],[120.9551221,14.4139742],[120.955035,14.414056],[120.9550054,14.4141483],[120.9550108,14.4142457],[120.9550765,14.4143406],[120.9551784,14.4144119],[120.9552696,14.4144782],[120.9553193,14.4145484],[120.9553487,14.4146151],[120.9553407,14.4146965],[120.9552947,14.4147827],[120.9551805,14.4148634],[120.9551004,14.4149125],[120.9550644,14.4149387],[120.955041,14.4149868],[120.9550329,14.4150309],[120.955041,14.4150764],[120.9550899,14.4151374],[120.9551513,14.415172],[120.9552703,14.4151835],[120.9553595,14.4151971],[120.9554239,14.4152147],[120.9555077,14.4152789],[120.9555781,14.4153712],[120.9556197,14.415442],[120.9556411,14.4155096],[120.9556391,14.4155674],[120.9556036,14.4156192],[120.9555439,14.415694],[120.9554747,14.4157623],[120.9554051,14.4158148],[120.9553232,14.4158841],[120.9552884,14.4159252],[120.9552596,14.4159784],[120.95524,14.4160429],[120.9552056,14.4160966],[120.9551582,14.4161307],[120.9549597,14.4162705],[120.9548566,14.4163247],[120.9547612,14.4163553],[120.9546909,14.4163776],[120.9546065,14.4164045],[120.9545447,14.4164321],[120.9544885,14.416444],[120.9544073,14.4164493],[120.9543081,14.4164422],[120.9542423,14.4164266],[120.9541847,14.416422],[120.9541297,14.4164409],[120.9540841,14.4164779],[120.9540419,14.416522],[120.9540103,14.4165805],[120.9539761,14.4166357],[120.9539191,14.4166909],[120.9538534,14.4167117],[120.9537984,14.4167117],[120.9537521,14.4166999],[120.9536187,14.4166954],[120.9533769,14.416713],[120.9531467,14.4167305],[120.9530823,14.4167376],[120.9530294,14.4167288],[120.9529609,14.4167039],[120.9529019,14.4166624],[120.9528523,14.4166039],[120.9528335,14.4165467],[120.9528291,14.4164841],[120.9528369,14.4164201],[120.952826,14.4163675],[120.9527725,14.4163382],[120.9526974,14.4163441],[120.9526389,14.4163644],[120.9525007,14.4164295],[120.95235,14.416511],[120.9521884,14.4165816],[120.9521415,14.4166402],[120.9521207,14.4167071],[120.9521355,14.4168032],[120.952142,14.4168813],[120.9521335,14.4169559],[120.9521022,14.4170171],[120.9520309,14.4170721],[120.9519504,14.4171026],[120.9518697,14.4171212],[120.9517256,14.4171543],[120.9516463,14.4171939],[120.9515689,14.4172619],[120.9514964,14.4172903],[120.951422,14.4172923],[120.9513543,14.4173046],[120.9513127,14.4173286],[120.9512797,14.4173635],[120.9512396,14.4174319],[120.9512108,14.4174871],[120.9511986,14.4175473],[120.9511846,14.4176267],[120.9511637,14.4176967],[120.9511129,14.4177709],[120.9510518,14.4178409],[120.9509848,14.4179125],[120.9509573,14.417956],[120.9509446,14.4180008],[120.9509457,14.4180505],[120.9509459,14.4181359],[120.9509537,14.4182521],[120.9509593,14.4183379],[120.9509793,14.4184211],[120.9509875,14.4184729],[120.9509828,14.4185126],[120.9509613,14.4185626],[120.9509166,14.418592],[120.9508641,14.4185996],[120.9507997,14.4185762],[120.9507307,14.4185301],[120.9506636,14.4184989],[120.950606,14.4184976],[120.9505684,14.4185301],[120.9505441,14.4185715],[120.9505335,14.41861],[120.9504953,14.4187145],[120.9504651,14.4187947],[120.9504363,14.4188775],[120.9504073,14.4189603],[120.9503464,14.4190301],[120.9502807,14.4190568],[120.950204,14.4190685],[120.9501312,14.419099],[120.9500863,14.4191308],[120.9500387,14.4191891],[120.9499817,14.4193334],[120.9499106,14.4195023],[120.9498428,14.4196522],[120.9497947,14.4197277],[120.9497362,14.4197822],[120.9496625,14.4198296],[120.9496041,14.4198708],[120.9495513,14.4199152],[120.9495243,14.4199712],[120.9495069,14.4200315],[120.9495093,14.4200948],[120.949523,14.42014],[120.9495726,14.4201777],[120.9496893,14.4202108],[120.9497912,14.4202348],[120.9498583,14.420266],[120.949907,14.4203116],[120.9498935,14.4203863],[120.9498405,14.4204767],[120.9497597,14.4205537],[120.9496658,14.4205725],[120.9495431,14.4205725],[120.9494654,14.4205823],[120.9493802,14.4206057],[120.9493321,14.420653],[120.949298,14.4207206],[120.9492501,14.420833],[120.9492179,14.4209674],[120.9491971,14.4210745],[120.9491656,14.4211564],[120.9491194,14.4212268],[120.9490724,14.4212653],[120.9489691,14.4213298],[120.9488892,14.4213635],[120.9488226,14.4213709],[120.9487787,14.4213689],[120.9486971,14.4213631],[120.9486228,14.4213675],[120.9485505,14.4213842],[120.948467,14.4214196],[120.9483936,14.4214618],[120.948326,14.4215352],[120.9482795,14.4215983],[120.9482541,14.4216566],[120.9482692,14.4217032],[120.9483037,14.4217482],[120.9483079,14.4217992],[120.9482585,14.4218395],[120.9481903,14.4218405],[120.9481198,14.4218175],[120.9480686,14.4217675],[120.9480362,14.4217064],[120.9480102,14.4216402],[120.9479934,14.4215522],[120.9479798,14.4214637],[120.9479378,14.4214498],[120.9478829,14.4214613],[120.9477983,14.4214875],[120.9476618,14.4215528],[120.9475627,14.4216061],[120.9474974,14.4216671],[120.9474508,14.4217512],[120.9474062,14.4218631],[120.9473601,14.4219894],[120.9473418,14.4220662],[120.9473486,14.422145],[120.9473743,14.4222099],[120.9474036,14.4222839],[120.9474351,14.422341],[120.9474726,14.4223763],[120.9475425,14.4224262],[120.9475777,14.4224629],[120.9476069,14.4225258],[120.9476109,14.4226113],[120.947602,14.4227184],[120.9475978,14.4227992],[120.9475754,14.4228716],[120.9475252,14.4229174],[120.9474548,14.4229399],[120.9473708,14.4229648],[120.9472798,14.4230009],[120.9471871,14.4230514],[120.9470916,14.4231106],[120.9470371,14.4231649],[120.9469832,14.4232241],[120.9469718,14.4232718],[120.9469928,14.4233215],[120.9470399,14.4233995],[120.9470687,14.4234652],[120.9470981,14.4235416],[120.9471322,14.4236506],[120.9471525,14.4237455],[120.9471789,14.4238284],[120.9472147,14.4239106],[120.9472493,14.4239641],[120.9472703,14.424027],[120.9472768,14.4240802],[120.9472829,14.4241257],[120.9472627,14.4241684],[120.9472528,14.4242011],[120.9471966,14.42425],[120.9471459,14.4242814],[120.9470935,14.4243037],[120.9470213,14.4243563],[120.9469857,14.4243997],[120.9469278,14.4244838],[120.9468662,14.4245666],[120.9468347,14.4246177],[120.9468227,14.4246704],[120.9468223,14.4247239],[120.9468357,14.4248115],[120.9468548,14.4249002],[120.9469048,14.4250281],[120.9469444,14.4251052],[120.9469997,14.4252066],[120.9470407,14.4252757],[120.9470728,14.4253185],[120.9471111,14.4253523],[120.9471619,14.4253783],[120.9472331,14.4253913],[120.9472994,14.4254036],[120.9473417,14.4254405],[120.9473706,14.4254906],[120.9473739,14.4255535],[120.947347,14.4256322],[120.9472834,14.4256976],[120.9472126,14.425763],[120.9471955,14.4258308],[120.9471828,14.4259315],[120.9471774,14.4260457],[120.9471855,14.4261263],[120.947219,14.4262497],[120.9472553,14.4263743],[120.947278,14.4264367],[120.9473021,14.426518],[120.9473437,14.4265997],[120.9473665,14.4266608],[120.947377,14.4267085],[120.9473789,14.4267466],[120.9473682,14.4267804],[120.9473333,14.4268114],[120.947282,14.4268426],[120.9472593,14.4268592],[120.9472465,14.4268911],[120.9472458,14.4269052],[120.9472585,14.4269378],[120.9472789,14.4269557],[120.9473058,14.4269663],[120.947336,14.4269716],[120.9473655,14.4269709],[120.9474181,14.4269608],[120.9475006,14.4269479],[120.9476193,14.4269368],[120.9477179,14.4269256],[120.9477558,14.4269287],[120.94779,14.4269433],[120.9478074,14.4269642],[120.9478195,14.4269994],[120.9478252,14.4270498],[120.9478352,14.4271024],[120.9478453,14.4271531],[120.94786,14.4272374],[120.9478909,14.4273401],[120.9479136,14.427422],[120.9479244,14.4275006],[120.9479218,14.4275693],[120.9479063,14.4276168],[120.9478725,14.4276741],[120.9478265,14.4277213],[120.9477702,14.4277713],[120.9477172,14.427814],[120.9476676,14.4278479],[120.9476112,14.4278842],[120.9475871,14.4279191],[120.9475785,14.4279784],[120.9475823,14.4280572],[120.9476011,14.4281415],[120.9476173,14.4281941],[120.9476676,14.4282402],[120.947739,14.4282797],[120.9477849,14.4283139],[120.9478204,14.4283544],[120.947889,14.4284371],[120.9479456,14.4285221],[120.9479847,14.4285972],[120.9480001,14.428659],[120.9480008,14.4287227],[120.9479893,14.4287767],[120.9479593,14.4288396],[120.9479138,14.4288982],[120.9478341,14.4289982],[120.9477675,14.4290688],[120.9477105,14.4291206],[120.9476671,14.4291713],[120.9476406,14.4292254],[120.9476349,14.4292838],[120.9476425,14.4293283],[120.9476603,14.429378],[120.9476926,14.4293989],[120.9477461,14.4294098],[120.9478203,14.4294196],[120.9478869,14.429426],[120.9479516,14.429436],[120.9479999,14.429446],[120.9480312,14.4294631],[120.9480491,14.4294861],[120.9480532,14.4295188],[120.9480521,14.4295497],[120.9480438,14.4295824],[120.9480196,14.4296479],[120.9479748,14.4297519],[120.9479162,14.429903],[120.947909,14.429939],[120.9479124,14.4299859],[120.9479418,14.4300286],[120.9479935,14.4300627],[120.9480592,14.4300818],[120.948131,14.4301013],[120.9481671,14.4301098],[120.9482141,14.4301079],[120.948259,14.4300942],[120.9482933,14.4300637],[120.9483509,14.4300058],[120.9484026,14.4299471],[120.9484287,14.4299186],[120.9484542,14.4299094],[120.9484793,14.4299124],[120.9485232,14.429931],[120.9485467,14.4299604],[120.9485602,14.4300187],[120.9485621,14.4301039],[120.9485657,14.4301959],[120.9485648,14.4302643],[120.9485581,14.4303019],[120.9485326,14.4303553],[120.9484562,14.4304332],[120.9484152,14.4304741],[120.9483878,14.4305202],[120.9483758,14.4305846],[120.9483757,14.4306364],[120.9483904,14.4306845],[120.9484233,14.4307267],[120.9484689,14.4307547],[120.9485145,14.4307839],[120.9485487,14.4308274],[120.9485721,14.4308787],[120.9485983,14.4309332],[120.94866,14.431074],[120.9487284,14.4312352],[120.9487505,14.4312878],[120.9487633,14.4313488],[120.9487606,14.4313961],[120.9487183,14.4315164],[120.9486733,14.4315862],[120.9486479,14.4316632],[120.9486318,14.431743],[120.9486117,14.4318261],[120.9486064,14.4318839],[120.9486023,14.4319423],[120.9486103,14.4320586],[120.9486074,14.4321613],[120.9486006,14.4324317],[120.9486117,14.4325353],[120.9486328,14.4326205],[120.9486181,14.432656],[120.9485582,14.4328007],[120.948498,14.4329478],[120.9484058,14.4331676],[120.9482389,14.4333072],[120.9481934,14.4333006],[120.9481784,14.4332984],[120.9479778,14.433269],[120.9478949,14.4332568],[120.9478699,14.4332532],[120.9477877,14.4332412],[120.9477783,14.4332397],[120.9477204,14.4332314],[120.9476207,14.4332167],[120.9475342,14.433204],[120.9472905,14.4331683],[120.9471792,14.4331595],[120.9470206,14.433147],[120.9447245,14.4327832],[120.9445237,14.432752],[120.9430822,14.4324915],[120.9429281,14.4324703],[120.9428056,14.4324535],[120.9425335,14.4324161],[120.9424879,14.4324093],[120.942444,14.4324002],[120.9423734,14.4323821],[120.9421188,14.4323167],[120.9415917,14.4321841],[120.9415488,14.4321729],[120.9413939,14.4321306],[120.9413221,14.4321103],[120.9412231,14.4320823],[120.9411821,14.4320701],[120.9409748,14.4320158],[120.9407778,14.4319574],[120.9405215,14.4318826],[120.9402943,14.4318141],[120.9402516,14.4318012],[120.9401132,14.431753],[120.9400126,14.431718],[120.9396117,14.4315761],[120.9395762,14.4317362],[120.9395371,14.4318535],[120.9394975,14.4319451],[120.9394547,14.4320216],[120.9393959,14.4320896],[120.9393011,14.4321561],[120.9391724,14.4322112],[120.9390141,14.4322684],[120.9388182,14.4323444],[120.9386969,14.4324022],[120.9385925,14.4324575],[120.9385031,14.4325054],[120.938418,14.4325647],[120.9382921,14.4326712],[120.9382289,14.4327376],[120.9381726,14.4328139],[120.9381213,14.4328902],[120.9380768,14.4329735],[120.937955,14.433299],[120.9379026,14.4335221],[120.9378701,14.4336269],[120.9378211,14.4337382],[120.9377515,14.4338484],[120.9376737,14.4339581],[120.9375697,14.4341055],[120.9374434,14.4342502],[120.9373672,14.434388],[120.9372928,14.4345192],[120.9371822,14.4347159],[120.9370434,14.4349562],[120.9369528,14.4351296],[120.9369173,14.4351913],[120.936886,14.4352349],[120.9368207,14.4353017],[120.936759,14.4353439],[120.9366873,14.435403],[120.9365994,14.4354718],[120.9365069,14.4355296],[120.9364311,14.4355894],[120.9363366,14.4356595],[120.936252,14.4357348],[120.9360382,14.4360192],[120.9359551,14.4364323],[120.9359765,14.4368141],[120.9360307,14.4370723],[120.9360808,14.4373318],[120.9361461,14.4376681],[120.9361696,14.4378271],[120.9361578,14.43799],[120.9361276,14.4381632],[120.9360691,14.43833],[120.9359471,14.4385542],[120.9357472,14.4388207],[120.9355568,14.4391368],[120.9353891,14.4394947],[120.9352805,14.439696],[120.9351987,14.4398324],[120.9351035,14.4399324],[120.9350136,14.4400189],[120.9348902,14.4401142],[120.9347676,14.4401823],[120.9345885,14.4402337],[120.9343995,14.4402908],[120.9342679,14.4403441],[120.9341651,14.4403991],[120.9340239,14.4404921],[120.9339568,14.4405766],[120.9338793,14.4407118],[120.9338093,14.4408714],[120.9337388,14.4410739],[120.933701,14.4412088],[120.9335815,14.4416264],[120.9335276,14.4419896],[120.9334582,14.4422789],[120.9334002,14.4424545],[120.9333506,14.442537],[120.9332917,14.4426079],[120.9332172,14.4426811],[120.9331286,14.4427356],[120.9330348,14.4427636],[120.932941,14.4427741],[120.9328397,14.4427746],[120.9327418,14.4427533],[120.9325954,14.4426895],[120.9324421,14.4425738],[120.9322647,14.4423813],[120.9321383,14.442224],[120.9320551,14.4421382],[120.9319727,14.442072],[120.9318746,14.4419959],[120.9318888,14.4419568],[120.9319016,14.4419058],[120.9319089,14.4418626],[120.9319069,14.4418087],[120.9318988,14.4417487],[120.9318835,14.4416983],[120.9318606,14.4416438],[120.9318298,14.4415902],[120.9317675,14.4415283],[120.9317131,14.441485],[120.9316588,14.4414532],[120.9315994,14.4414259],[120.9315361,14.4414116],[120.9314255,14.4414097],[120.9313195,14.4414182],[120.9311995,14.4414292],[120.9310866,14.4414381],[120.9309735,14.4414435],[120.9308635,14.4414454],[120.9307632,14.4414363],[120.9306669,14.4414112],[120.9305748,14.4413687],[120.9305263,14.4413279],[120.9304672,14.441267],[120.9304319,14.441198],[120.9303539,14.4412298],[120.9303167,14.4412503],[120.9302648,14.4412804],[120.9302315,14.4413016],[120.9301638,14.4413461],[120.9301041,14.441396],[120.930064,14.4414351],[120.9300103,14.4414837],[120.9299546,14.4415262],[120.9299177,14.4415616],[120.9298949,14.4415975],[120.9298785,14.4416457],[120.9298694,14.4416844],[120.9298586,14.4417551],[120.9298517,14.4418487],[120.929847,14.4419188],[120.929847,14.4420078],[120.9298564,14.4421272],[120.9298747,14.4422791],[120.9298835,14.4423733],[120.9298794,14.4424843],[120.9298731,14.4425685],[120.9298567,14.4426698],[120.929833,14.4427591],[120.92979,14.4428824],[120.9297371,14.4430232],[120.9296904,14.4431195],[120.9296463,14.4431816],[120.9295556,14.4432876],[120.9294872,14.4433649],[120.9294044,14.4434253],[120.929326,14.443476],[120.9292288,14.4435224],[120.9291164,14.4435682],[120.9290194,14.4436192],[120.9286513,14.4438413],[120.9284718,14.443881],[120.9282766,14.4438474],[120.9282021,14.4439279],[120.9281555,14.4439899],[120.9281344,14.4440194],[120.9281161,14.4440497],[120.9281069,14.4440854],[120.9281029,14.4441214],[120.9281054,14.444158],[120.9281081,14.4441856],[120.9281186,14.4442323],[120.9281284,14.4442555],[120.9281418,14.4443003],[120.9281525,14.4443497],[120.9281619,14.4443967],[120.9281759,14.4444658],[120.9281907,14.4445299],[120.9282085,14.4445789],[120.9282367,14.4446403],[120.9282769,14.4447029],[120.9283177,14.4447697],[120.9283614,14.4448511],[120.9283751,14.4448903],[120.9283832,14.4449383],[120.9283852,14.4450211],[120.9283785,14.4450763],[120.9283654,14.4451451],[120.928348,14.4452308],[120.9283232,14.4453386],[120.9283077,14.4454053],[120.928304,14.4454344],[120.928298,14.4455052],[120.9282893,14.4456032],[120.9282792,14.4457006],[120.9282678,14.4457701],[120.9282505,14.4458343],[120.9281136,14.4458136],[120.9279238,14.4457834],[120.9277522,14.4457721],[120.9274558,14.445763],[120.9270843,14.4457773],[120.9269046,14.4457753],[120.9267544,14.4457825],[120.9263521,14.4458786],[120.9261337,14.4459965],[120.9260061,14.4460654],[120.925992,14.4460731],[120.9259221,14.4460332],[120.9258574,14.4459134],[120.9257466,14.4457761],[120.9252918,14.4459568],[120.9251589,14.4460035],[120.925036,14.4460496],[120.9249579,14.446082],[120.9248923,14.4461091],[120.9247725,14.4461544],[120.9247399,14.4461656],[120.9247091,14.4461693],[120.9246669,14.4461578],[120.9246235,14.4461323],[120.9244699,14.4460491],[120.9244211,14.446023],[120.9243875,14.4460143],[120.9243472,14.4460113],[120.9243146,14.4460148],[120.9241919,14.4460399],[120.9241472,14.4460525],[120.9241046,14.4460685],[120.9240504,14.446108],[120.9240028,14.4461507],[120.9239551,14.4461986],[120.9238516,14.4462953],[120.9237783,14.446352],[120.923738,14.4463654],[120.9236984,14.4463625],[120.9236524,14.4463369],[120.9236238,14.4463044],[120.9236054,14.4462684],[120.9235606,14.4461141],[120.9235436,14.4460781],[120.9235087,14.4460486],[120.9234616,14.4460371],[120.9233832,14.4460271],[120.9233416,14.4460222],[120.9233037,14.4460178],[120.9232842,14.4460175],[120.923261,14.4460196],[120.9231339,14.446044],[120.9230682,14.4460622],[120.9229296,14.4461115],[120.9228609,14.4461388],[120.9227852,14.4461721],[120.9226997,14.4462164],[120.9224811,14.446315],[120.9224423,14.4463248],[120.9224002,14.4463161],[120.9223608,14.4462797],[120.9223411,14.4462294],[120.9223258,14.4461826],[120.9223044,14.4461196],[120.9222615,14.4460514],[120.922214,14.4460061],[120.9221396,14.4459634],[120.922044,14.4459362],[120.9219605,14.4459324],[120.9218459,14.4459744],[120.9217627,14.4459761],[120.9216881,14.445961],[120.9216691,14.4459503],[120.9216242,14.4459251],[120.9214669,14.4458442],[120.9213122,14.4457804],[120.9212419,14.4457546],[120.9211689,14.4457522],[120.9210641,14.4457659],[120.9209929,14.4457898],[120.9209136,14.4458102],[120.9207754,14.4458465],[120.9206966,14.4458661],[120.9206329,14.4458694],[120.9205831,14.4458584],[120.9205456,14.4458345],[120.9205158,14.445788],[120.920483,14.4457263],[120.9203948,14.4455843],[120.9203511,14.4454976],[120.9202999,14.4454206],[120.9202345,14.4453539],[120.9201362,14.4452445],[120.920037,14.4451262],[120.9199666,14.4450434],[120.9199246,14.4449823],[120.9198637,14.4449571],[120.9197966,14.4449535],[120.9196473,14.4449758],[120.9194962,14.4449826],[120.9193774,14.4449802],[120.9192433,14.4449268],[120.919129,14.4448528],[120.919004,14.4448287],[120.9189416,14.4448573],[120.9189095,14.4449021],[120.9188653,14.4450711],[120.9187945,14.4452292],[120.9187185,14.4453333],[120.9186465,14.445396],[120.91855,14.445417],[120.918461,14.4454067],[120.9183998,14.4453776],[120.9183571,14.4453281],[120.9183474,14.445255],[120.918361,14.4451083],[120.9183565,14.4450438],[120.9183338,14.4449753],[120.9182773,14.4449273],[120.9181961,14.4448912],[120.9181081,14.444876],[120.9179484,14.4448857],[120.9178369,14.4449185],[120.9177165,14.4449272],[120.9176146,14.4449195],[120.9175198,14.4449023],[120.9174153,14.4448723],[120.917397,14.4448628],[120.9172731,14.4447985],[120.917131,14.4447307],[120.9169681,14.4446627],[120.9167956,14.4445965],[120.916606,14.4445447],[120.9164086,14.4444938],[120.9162606,14.4444272],[120.916107,14.4443432],[120.9161252,14.4443068],[120.9161426,14.4442758],[120.9161577,14.4442487],[120.9161939,14.4440234],[120.9161342,14.4439422],[120.9160466,14.443896],[120.9159376,14.443859],[120.9158342,14.4437211],[120.9155798,14.4434862],[120.9147886,14.443759],[120.9147844,14.4437002],[120.9146543,14.4437292],[120.9145805,14.443755],[120.9146144,14.4434756],[120.9146374,14.4433588],[120.9145066,14.4433343],[120.9143543,14.4433064],[120.9142254,14.4432828],[120.9142435,14.44319],[120.9139338,14.4431124],[120.9138736,14.443217],[120.9137426,14.4434554],[120.9137267,14.4434843],[120.9137121,14.4435109],[120.9136955,14.4435412],[120.9136447,14.4436338],[120.913572,14.4435344],[120.9132007,14.4430421],[120.9124685,14.442951],[120.9116996,14.4428415],[120.9116019,14.4428298],[120.9114899,14.44281],[120.911407,14.4427843],[120.9113283,14.4427532],[120.9112164,14.4427021],[120.911262,14.4426214],[120.9113152,14.4425534],[120.9113765,14.4424813],[120.9114316,14.4424298],[120.9115007,14.4423779],[120.9115626,14.4423291],[120.911588,14.4422967],[120.9115932,14.4422688],[120.9115919,14.4422363],[120.9115751,14.4422114],[120.9115121,14.4421504],[120.9114469,14.4420886],[120.9113985,14.4420469],[120.9113322,14.4420079],[120.9112437,14.4419683],[120.9111551,14.4419378],[120.9109749,14.4418895],[120.9108537,14.4418373],[120.9107286,14.4417574],[120.9106506,14.4417076],[120.9105968,14.4416642],[120.9105523,14.4416061],[120.9105383,14.4415761],[120.9105365,14.4415442],[120.9105417,14.4415128],[120.9105607,14.4414898],[120.9106281,14.4414491],[120.9106905,14.4414268],[120.9107661,14.4414094],[120.9108508,14.4414113],[120.9109236,14.4413963],[120.9109474,14.4413517],[120.9109492,14.4413137],[120.9109252,14.4412783],[120.9108354,14.4411804],[120.9107597,14.4410644],[120.9107035,14.440902],[120.9106467,14.4407533],[120.9106,14.4406316],[120.9105635,14.4405614],[120.9105526,14.4405307],[120.910565,14.4405033],[120.9105862,14.4404824],[120.9106488,14.4404539],[120.9107094,14.4404276],[120.9107888,14.4404],[120.9108763,14.44038],[120.9109704,14.4403644],[120.9110356,14.4403579],[120.9111112,14.4403361],[120.911191,14.4403051],[120.9112769,14.4402618],[120.9113582,14.4402133],[120.9114294,14.4401567],[120.9114893,14.4401033],[120.9115266,14.4400583],[120.91153,14.4400339],[120.9115187,14.4400003],[120.9114871,14.4399658],[120.9112032,14.4397461],[120.9111016,14.4396445],[120.9110158,14.43947],[120.9109471,14.4392622],[120.9109141,14.439116],[120.9109201,14.439011],[120.9109366,14.4389616],[120.9109834,14.4389348],[120.9110347,14.4389396],[120.9110859,14.4389579],[120.9111818,14.4389954],[120.9114091,14.4390632],[120.9115137,14.4390685],[120.9115982,14.4390716],[120.9116423,14.4390627],[120.9116768,14.4390274],[120.9116942,14.4389885],[120.9116933,14.4389313],[120.9116856,14.4388761],[120.9116725,14.438831],[120.9116474,14.438757],[120.9115728,14.4386709],[120.9115314,14.4385979],[120.9114766,14.4385055],[120.9114482,14.4384103],[120.9114629,14.4383351],[120.9115082,14.4382712],[120.9115823,14.4382066],[120.9117797,14.4381048],[120.9120167,14.4380078],[120.9121324,14.4379461],[120.9121886,14.4379079],[120.9121978,14.437848],[120.9121729,14.4377428],[120.9121469,14.4376478],[120.912125,14.4375678],[120.9121088,14.4374751],[120.9121151,14.4373961],[120.9121592,14.437319],[120.9122536,14.4372415],[120.9123899,14.4371548],[120.9125331,14.4370558],[120.912616,14.4369634],[120.912634,14.4368733],[120.9126436,14.4367519],[120.9126703,14.4366567],[120.912713,14.4366145],[120.9127861,14.4365863],[120.9128833,14.4365644],[120.9129813,14.4365149],[120.9130233,14.4364508],[120.9130395,14.4363602],[120.9130761,14.4362779],[120.9131997,14.4361053],[120.9132802,14.4360541],[120.9133966,14.4359964],[120.913523,14.4359464],[120.9136219,14.4359154],[120.91368,14.4358972],[120.9138632,14.435847],[120.9140748,14.4357569],[120.9141741,14.435695],[120.9142372,14.4356063],[120.9142475,14.4355231],[120.9142436,14.4354654],[120.9142247,14.4353996],[120.9141486,14.4352347],[120.9140913,14.4350855],[120.9140609,14.4350179],[120.9140542,14.4349825],[120.9140731,14.4349431],[120.9141214,14.4349282],[120.9141935,14.434921],[120.9142957,14.4349181],[120.9144196,14.4349026],[120.9145366,14.4348757],[120.9146202,14.4348177],[120.9146656,14.4347486],[120.9146724,14.434649],[120.9146647,14.4345457],[120.9146474,14.4344627],[120.9146311,14.4343693],[120.9146265,14.4342706],[120.9146521,14.4341936],[120.9146882,14.4341175],[120.9147431,14.4340471],[120.914818,14.4339836],[120.9149047,14.4339314],[120.9149814,14.4338524],[120.9150271,14.4337641],[120.915083,14.4336386],[120.9151642,14.4335157],[120.9152663,14.4333329],[120.9153249,14.433242],[120.9153967,14.433163],[120.9155028,14.4330933],[120.9156211,14.433009],[120.9156867,14.4329449],[120.9157231,14.4328684],[120.9157413,14.4327147],[120.9157384,14.4325622],[120.9157363,14.4324916],[120.9157405,14.4324303],[120.9157629,14.432368],[120.9157973,14.4322808],[120.9158383,14.4321973],[120.915839,14.4321162],[120.9158387,14.4320337],[120.9158193,14.4318921],[120.915809,14.4317874],[120.9157977,14.4317261],[120.9157609,14.4316428],[120.9157133,14.4315407],[120.9156852,14.431467],[120.9156827,14.4313955],[120.9156976,14.4313122],[120.9157119,14.4311552],[120.9157181,14.4310749],[120.915722,14.431024],[120.9157431,14.4309367],[120.9157642,14.4308563],[120.9157607,14.4307994],[120.9157435,14.4307354],[120.9157171,14.4306811],[120.9156726,14.4306394],[120.9156299,14.4305859],[120.9156099,14.4305143],[120.9156015,14.4304642],[120.915603,14.4303586],[120.9156134,14.4302889],[120.9156327,14.4302187],[120.9156687,14.4301588],[120.9157004,14.430076],[120.9157268,14.430013],[120.9157355,14.4299444],[120.9157328,14.4298766],[120.915713,14.4298006],[120.9157184,14.4297552],[120.9157398,14.4297124],[120.9157419,14.4296526],[120.9157201,14.429541],[120.9157178,14.4294559],[120.9156966,14.4293496],[120.9156524,14.4292448],[120.9156065,14.4291497],[120.9155647,14.4290559],[120.9155241,14.4289749],[120.9154698,14.4288996],[120.9154079,14.4288299],[120.9153905,14.428764],[120.9153918,14.4286725],[120.9154167,14.4285727],[120.9154862,14.428439],[120.9155793,14.4283163],[120.9156239,14.4281874],[120.9156459,14.4280754],[120.9156919,14.4276737],[120.9158122,14.4273024],[120.915821,14.4272265],[120.915817,14.427163],[120.9158016,14.4270933],[120.9157602,14.4269976],[120.9157406,14.4269056],[120.9157285,14.4268589],[120.9157339,14.4268173],[120.9157386,14.4267732],[120.9157238,14.4267206],[120.9156889,14.4266634],[120.9156353,14.4265712],[120.9155874,14.4264892],[120.9155206,14.4264264],[120.9154553,14.426368],[120.9154087,14.4263264],[120.9153864,14.4262833],[120.9153892,14.4262394],[120.9154083,14.4262043],[120.9154623,14.426138],[120.9154981,14.426064],[120.9155072,14.4260328],[120.9155041,14.4260028],[120.9154858,14.4259666],[120.9154686,14.4259443],[120.915397,14.4258514],[120.9153622,14.4257661],[120.9153496,14.4256971],[120.9153573,14.4255958],[120.9153691,14.4254951],[120.9153852,14.425401],[120.915408,14.4253069],[120.915412,14.4252425],[120.9153944,14.4251806],[120.9153496,14.4251337],[120.9153034,14.4251029],[120.9152585,14.4250834],[120.9151766,14.4250607],[120.9151022,14.4250315],[120.9150579,14.4249942],[120.9150151,14.4249327],[120.9149979,14.424862],[120.9150063,14.4248035],[120.9150193,14.4247148],[120.915064,14.4246015],[120.9150948,14.4245126],[120.9151009,14.424447],[120.9150727,14.424397],[120.9150212,14.4243561],[120.9149601,14.4243411],[120.9149245,14.4243113],[120.9149185,14.4242658],[120.9149252,14.4242119],[120.9149429,14.4241574],[120.9149874,14.4241304],[120.915066,14.4241164],[120.915115,14.4240937],[120.915131,14.4240593],[120.9151339,14.4240076],[120.9151409,14.4239226],[120.9151431,14.4238235],[120.9151277,14.4237131],[120.9151036,14.4236216],[120.9151089,14.4235547],[120.9151223,14.4235002],[120.9151512,14.4234008],[120.915174,14.4233157],[120.9151974,14.4231982],[120.9152075,14.4231176],[120.9152095,14.4230371],[120.9151968,14.4229735],[120.9151601,14.4229205],[120.9151321,14.4228603],[120.9150878,14.422791],[120.9150597,14.4227464],[120.9150573,14.4227009],[120.9150603,14.4226599],[120.9150828,14.422613],[120.9151113,14.4225826],[120.9151388,14.4225414],[120.9151451,14.4224896],[120.9151471,14.4224455],[120.9151485,14.4223831],[120.9151466,14.4223419],[120.9151512,14.4222633],[120.9151671,14.4221874],[120.9151897,14.4220551],[120.9152122,14.421922],[120.9152664,14.421785],[120.9153273,14.421618],[120.9153865,14.4214943],[120.9154458,14.4213839],[120.9154921,14.4212935],[120.915517,14.4212182],[120.9155334,14.4211427],[120.9155405,14.4210488],[120.9155481,14.4208979],[120.9155602,14.4208217],[120.9155811,14.4207602],[120.9156085,14.4206954],[120.9156234,14.4206345],[120.9156293,14.4205511],[120.9156192,14.4204537],[120.9156138,14.4203621],[120.9156105,14.4202913],[120.9155964,14.4202103],[120.9155762,14.4201112],[120.9155464,14.4200193],[120.9155171,14.4199533],[120.915488,14.4198453],[120.9154831,14.4198004],[120.9154878,14.4197588],[120.9154958,14.4197133],[120.9154938,14.4196718],[120.9154757,14.4196159],[120.9154664,14.4195352],[120.9154516,14.4193659],[120.9154553,14.419294],[120.9154967,14.4190355],[120.9154985,14.4189626],[120.9154868,14.418899],[120.9154603,14.4188392],[120.9154328,14.4188035],[120.9153999,14.4187697],[120.9153793,14.4187161],[120.9153731,14.4186418],[120.915349,14.418582],[120.9153091,14.4185368],[120.915243,14.4184911],[120.9151867,14.4184474],[120.9151314,14.4183723],[120.9151108,14.4183053],[120.9151103,14.4182469],[120.9151339,14.4182075],[120.9151686,14.4181748],[120.9152135,14.4181515],[120.9152971,14.4181261],[120.9153691,14.4180878],[120.9154406,14.4180423],[120.91552,14.4179742],[120.9156037,14.4179312],[120.9156722,14.417906],[120.9157365,14.4179005],[120.9158237,14.417919],[120.9159049,14.4179359],[120.9159538,14.4179391],[120.9159859,14.4179255],[120.9160081,14.417904],[120.9160168,14.4178651],[120.9160008,14.4178242],[120.9159659,14.4177702],[120.9159176,14.4176832],[120.9158733,14.4176274],[120.9158465,14.4175956],[120.9158342,14.417547],[120.9158378,14.4174981],[120.9158626,14.417426],[120.9158955,14.4173708],[120.9159303,14.4173085],[120.9159758,14.4172538],[120.916051,14.4171754],[120.9161429,14.4171078],[120.9161765,14.4170579],[120.9161898,14.4170007],[120.9161751,14.416939],[120.9161776,14.4168772],[120.9161892,14.416811],[120.9162059,14.4167584],[120.9162344,14.4167188],[120.9162737,14.4166883],[120.9163662,14.4166617],[120.9164605,14.416646],[120.916568,14.4166435],[120.916613,14.4166214],[120.9166697,14.4165394],[120.9166956,14.416477],[120.9167158,14.4163945],[120.9167256,14.4163343],[120.9167209,14.4162707],[120.9167001,14.4162071],[120.9166881,14.4161207],[120.9166906,14.4160478],[120.9167169,14.4159752],[120.9167404,14.4159284],[120.9167704,14.4158792],[120.9168047,14.4158408],[120.916843,14.415807],[120.9168919,14.4157844],[120.9169375,14.4157791],[120.9169851,14.415781],[120.9170428,14.4157817],[120.917096,14.4157577],[120.9171293,14.4157174],[120.9171554,14.4156602],[120.9171943,14.4155765],[120.9172332,14.4155141],[120.9172916,14.4154609],[120.9173787,14.4154154],[120.9174351,14.415381],[120.9174858,14.4153333],[120.9175249,14.4152823],[120.917547,14.4152322],[120.9175584,14.4151699],[120.9175589,14.415096],[120.9175665,14.4150257],[120.9175933,14.4149406],[120.9176199,14.4148859],[120.9176614,14.4148466],[120.9177294,14.4147906],[120.9177938,14.4147247],[120.9178749,14.414662],[120.9179702,14.414599],[120.9180525,14.4145232],[120.9180922,14.414438],[120.9181182,14.4143343],[120.918121,14.4142925],[120.9181385,14.4142496],[120.9181927,14.4142048],[120.9182849,14.4141466],[120.9184215,14.4140958],[120.9184543,14.4140652],[120.9184757,14.4140111],[120.9184691,14.4139392],[120.9184701,14.4138707],[120.9184784,14.4138223],[120.9184965,14.4137859],[120.9185274,14.4137437],[120.918564,14.4137106],[120.9186581,14.4136524],[120.9186977,14.4136125],[120.9187286,14.4135573],[120.9187621,14.4134469],[120.9187688,14.4133729],[120.9187634,14.4132924],[120.9187834,14.4132347],[120.9188231,14.4132034],[120.9188761,14.4131917],[120.9189368,14.4131898],[120.9189941,14.4131703],[120.9190444,14.4131365],[120.919101,14.4130577],[120.9191383,14.4130248],[120.9191845,14.4130209],[120.919265,14.413056],[120.9193549,14.4131235],[120.9194407,14.4131521],[120.9195399,14.41313],[120.9196063,14.41308],[120.9196472,14.4130079],[120.9197183,14.4129585],[120.9198229,14.4129261],[120.9198663,14.4129156],[120.919957,14.4128936],[120.9201045,14.4128027],[120.9201151,14.4127894],[120.9201729,14.4127169],[120.9202266,14.4126117],[120.9202467,14.4125299],[120.920248,14.4124299],[120.9202172,14.412239],[120.9201716,14.4120675],[120.9201246,14.4119298],[120.9200482,14.4117934],[120.9199718,14.41167],[120.9199503,14.4115726],[120.9199463,14.411444],[120.9199704,14.4113401],[120.9199691,14.4112258],[120.9199396,14.4111401],[120.9198698,14.4110868],[120.9197934,14.4110557],[120.9197317,14.4110024],[120.9197223,14.4109375],[120.9197612,14.4108335],[120.9198081,14.410766],[120.9199101,14.4106673],[120.9199557,14.4105712],[120.9199731,14.4104971],[120.9199895,14.4104125],[120.9195726,14.4104034],[120.9175799,14.4103601],[120.917553,14.410364],[120.917372,14.4103581],[120.9172433,14.4103497],[120.9169322,14.4103354],[120.9157446,14.410288],[120.9149078,14.4102451],[120.913983,14.4101854],[120.9136552,14.4101737],[120.9133158,14.4101568],[120.9129243,14.4101529],[120.9125179,14.4101516],[120.9119626,14.4101666],[120.9114091,14.4101602],[120.9111632,14.4101434],[120.9110065,14.4101243],[120.9107906,14.4100932],[120.9100288,14.409997],[120.9092496,14.4099256],[120.9085241,14.4097178],[120.9081117,14.4097509],[120.9072255,14.4095597],[120.907221,14.4095785],[120.9060676,14.4093166],[120.9059941,14.4092973],[120.9039832,14.4088102],[120.9039798,14.4088358],[120.9034757,14.4087162],[120.9029558,14.4086033],[120.9025629,14.4085241],[120.9016871,14.4083357],[120.9010403,14.4081652],[120.9007284,14.4087142],[120.9005499,14.4089839],[120.9003521,14.4093365],[120.8998458,14.410162],[120.8997176,14.4103753],[120.8995918,14.4106184],[120.8990143,14.4115142],[120.8985241,14.4124715],[120.8982861,14.4128981],[120.8980216,14.4133476],[120.8976129,14.4140042],[120.8971647,14.4147241],[120.8952599,14.4128732],[120.8931048,14.4107803],[120.8930853,14.4107605],[120.893121,14.4107251],[120.8929123,14.4105101],[120.8925341,14.4101328],[120.8922609,14.4098542],[120.892088,14.4096874],[120.8924391,14.4094248],[120.8925959,14.4092708],[120.8926665,14.4091517],[120.8927248,14.4090208],[120.8928374,14.4088396],[120.8929341,14.4087557],[120.8930592,14.4086757],[120.8931701,14.4086415],[120.8932892,14.4086309],[120.8936051,14.4086936],[120.8939352,14.4087286],[120.8940669,14.4087023],[120.894284,14.4085742],[120.8945206,14.4082294],[120.894743,14.4079584],[120.8949427,14.4077719],[120.8954233,14.4073849],[120.8957156,14.407125],[120.8961011,14.4069524],[120.8963687,14.406327],[120.8963981,14.4062771],[120.8964393,14.4058302],[120.8966804,14.4053951],[120.8969626,14.4050188],[120.8972096,14.4048601],[120.8975094,14.4046425],[120.8976623,14.404225],[120.8977075,14.4038262],[120.8976976,14.40349],[120.8976858,14.4031137],[120.8977505,14.4029432],[120.8979434,14.4028158],[120.8980621,14.4027374],[120.8984267,14.4024022],[120.8986866,14.4022032],[120.8990016,14.4020954],[120.8990814,14.4020346],[120.8991423,14.4019478],[120.8992597,14.4018787],[120.8993882,14.4018732],[120.8995883,14.4019164],[120.8997925,14.4019131],[120.899886,14.4019073],[120.9000202,14.4019125],[120.9001673,14.4018773],[120.9003998,14.4017508],[120.9005328,14.4016861],[120.9006719,14.4015475],[120.9008047,14.4013695],[120.9009236,14.4011905],[120.9012413,14.400819],[120.9013595,14.4005385],[120.9014202,14.4003653],[120.9014578,14.4002264],[120.9014866,14.400083],[120.9015074,14.3999017],[120.9015274,14.3997398],[120.9015356,14.3995977],[120.9015718,14.3994769],[120.9015761,14.3993528],[120.901553,14.3991535],[120.9015349,14.3990048],[120.9015146,14.3988489],[120.9015329,14.3987196],[120.9015416,14.39861],[120.901546,14.3984832],[120.9015584,14.3984091],[120.9016066,14.3983159],[120.9016994,14.3982387],[120.9018467,14.398161],[120.9020174,14.3980812],[120.9021203,14.3980597],[120.9022771,14.3980622],[120.9024061,14.3980864],[120.9025057,14.3981111],[120.9026258,14.3980885],[120.9027511,14.3980362],[120.9028137,14.3979532],[120.9028276,14.3978637],[120.902807,14.3977635],[120.9027617,14.3976899],[120.902672,14.3975925],[120.9025442,14.3974893],[120.902395,14.397417],[120.9023165,14.3973621],[120.9022786,14.3972881],[120.9022316,14.3972089],[120.9022088,14.3971569],[120.9022077,14.3970908],[120.9022464,14.3970296],[120.9023111,14.3969851],[120.9023711,14.3969582],[120.9024623,14.3969503],[120.9025508,14.396927],[120.9026274,14.3968439],[120.9026728,14.3967163],[120.9027031,14.3965706],[120.9027048,14.3964081],[120.9026782,14.3963022],[120.9026353,14.3961931],[120.9025884,14.3960982],[120.9025668,14.3960194],[120.9025655,14.3959263],[120.9025905,14.3957675],[120.9026223,14.3956536],[120.9026986,14.3955712],[120.9028445,14.3954643],[120.903008,14.395343],[120.9031242,14.3952745],[120.9032679,14.3951498],[120.9033348,14.3950955],[120.9034185,14.3950233],[120.9035446,14.3949454],[120.9036592,14.3948928],[120.9037652,14.3948661],[120.9039047,14.3948499],[120.9040777,14.3948148],[120.9042191,14.3947765],[120.9043626,14.394731],[120.9044498,14.3946882],[120.9045491,14.3946226],[120.9046195,14.3945739],[120.9047556,14.3944758],[120.9048206,14.3944258],[120.9048803,14.3943894],[120.9049729,14.3943063],[120.9051009,14.3941997],[120.9052411,14.394088],[120.9053403,14.3940049],[120.9054758,14.3938971],[120.9056233,14.393773],[120.9057185,14.3936639],[120.9057976,14.3935301],[120.9058419,14.3933911],[120.905858,14.3932872],[120.9058915,14.3931508],[120.9059555,14.392927],[120.9060444,14.3926611],[120.9061235,14.3924493],[120.9061731,14.3922973],[120.9061879,14.3921947],[120.9062,14.3920544],[120.9061865,14.3919102],[120.9061557,14.3917635],[120.9061282,14.3916115],[120.9060746,14.3912939],[120.9060451,14.3910951],[120.9060055,14.390797],[120.9059894,14.3905995],[120.9059787,14.3903358],[120.9059572,14.3901072],[120.9059344,14.3900124],[120.9058902,14.3899292],[120.9058271,14.389876],[120.9057239,14.3898344],[120.9056179,14.3898032],[120.9055227,14.3897552],[120.905457,14.3897019],[120.9054194,14.3896538],[120.905394,14.3895811],[120.905402,14.3895096],[120.9054302,14.3894447],[120.9055093,14.3893447],[120.905638,14.3891953],[120.9058137,14.3890186],[120.9059224,14.38889],[120.9060243,14.3887978],[120.9061235,14.3886796],[120.9061772,14.3885782],[120.906204,14.3884561],[120.9062093,14.3883301],[120.9062013,14.3882158],[120.9061798,14.3880976],[120.9061356,14.3879911],[120.9060739,14.3879222],[120.9060068,14.3878534],[120.9059049,14.3877871],[120.9058003,14.3877417],[120.9056863,14.3877131],[120.9055857,14.3876949],[120.9054664,14.3876533],[120.9053859,14.3876027],[120.905339,14.3875182],[120.9053309,14.3874377],[120.905337,14.3873623],[120.9053645,14.3872662],[120.9054141,14.3871597],[120.9055012,14.3869895],[120.9056085,14.3867453],[120.9056957,14.3865686],[120.9057748,14.3864465],[120.9058352,14.3863608],[120.9059545,14.3862477],[120.9060739,14.3861295],[120.9062,14.3860087],[120.9063609,14.3858684],[120.9066023,14.3856944],[120.906731,14.3855813],[120.9067954,14.3855008],[120.9069698,14.3853514],[120.9071468,14.3852449],[120.9073587,14.3851449],[120.9074498,14.3851118],[120.9075478,14.3850689],[120.9076376,14.3850188],[120.9077141,14.3849292],[120.9078093,14.3848565],[120.9080032,14.3847611],[120.9082049,14.3846538],[120.9083913,14.3845512],[120.9085225,14.3844992],[120.90863,14.3844719],[120.9087414,14.3844797],[120.9088379,14.3844875],[120.9089693,14.3844499],[120.9091002,14.3843854],[120.9092081,14.384307],[120.9092912,14.3842368],[120.9093475,14.3841529],[120.9093851,14.3840277],[120.9094427,14.3838263],[120.9094936,14.3835415],[120.9095179,14.383256],[120.909541,14.383078],[120.9095849,14.3828325],[120.9096104,14.3827338],[120.9096536,14.3826331],[120.9097579,14.3824194],[120.9098909,14.3822157],[120.9099349,14.3821492],[120.9099765,14.3820505],[120.9100623,14.3819465],[120.9102152,14.3818024],[120.9102622,14.3817251],[120.9103096,14.3816645],[120.9103866,14.3816232],[120.9105049,14.3815386],[120.9105989,14.381444],[120.9106833,14.3813594],[120.9107584,14.3812554],[120.9108375,14.3811463],[120.9110433,14.3809197],[120.911213,14.3807163],[120.9113954,14.3804838],[120.9114705,14.3803643],[120.9115561,14.3802142],[120.9116341,14.3800551],[120.9116998,14.3798667],[120.9118514,14.3794965],[120.9120926,14.3788365],[120.9122727,14.3784111],[120.9123613,14.3782288],[120.9124173,14.3781324],[120.9124794,14.3780363],[120.9125435,14.3779504],[120.9126507,14.3778401],[120.9127821,14.3777082],[120.9129151,14.3775714],[120.9130175,14.377477],[120.9130959,14.3774121],[120.9131562,14.3773368],[120.9132019,14.3772575],[120.9132434,14.3771964],[120.913289,14.3771549],[120.9133293,14.3771282],[120.913397,14.3771048],[120.9134694,14.3770659],[120.9135143,14.3770197],[120.9135438,14.3769612],[120.9135908,14.3768807],[120.913633,14.3768223],[120.9137115,14.3767079],[120.9137772,14.3765787],[120.9138034,14.3764874],[120.9138047,14.3764163],[120.9137906,14.3763267],[120.9137893,14.3762669],[120.9138148,14.3761532],[120.9138476,14.3760338],[120.9138711,14.3759058],[120.9138797,14.3757662],[120.9138865,14.3756511],[120.9138825,14.3755303],[120.9138624,14.3754264],[120.9138201,14.3753166],[120.9138025,14.3752343],[120.9138456,14.3750263],[120.913848,14.3748794],[120.9138738,14.3746482],[120.9138958,14.3744936],[120.9139122,14.3743784],[120.9139167,14.3740987],[120.9138882,14.3739024],[120.9138228,14.3736843],[120.9137665,14.3734426],[120.9137222,14.3731893],[120.9137169,14.3730841],[120.9137259,14.3729224],[120.9137155,14.3727502],[120.9136833,14.3725605],[120.913698,14.3723953],[120.9136833,14.3722461],[120.9136404,14.3721318],[120.9135492,14.3720344],[120.9134394,14.3719601],[120.9133696,14.3719245],[120.9131415,14.3718083],[120.9128588,14.3717405],[120.9127338,14.3716849],[120.9126326,14.3715965],[120.9125919,14.3714499],[120.9126017,14.371233],[120.912644,14.3710211],[120.9126922,14.3708976],[120.9127781,14.3707976],[120.9130832,14.3704401],[120.9132328,14.3702878],[120.9133654,14.3702143],[120.913509,14.3701714],[120.9136502,14.3701602],[120.9138335,14.3701649],[120.9139368,14.370161],[120.9140422,14.370165],[120.9141527,14.3701887],[120.914264,14.3702279],[120.9143894,14.3702403],[120.9145003,14.3702274],[120.9146127,14.3701701],[120.914669,14.3700935],[120.9147194,14.3699869],[120.9147535,14.3697999],[120.9147713,14.3696238],[120.9147558,14.3694538],[120.9146784,14.3691542],[120.9146007,14.3688346],[120.9145457,14.3686267],[120.9144749,14.3684098],[120.9144236,14.3681915],[120.9143968,14.3680149],[120.914386,14.3677629],[120.9143888,14.3676027],[120.9143901,14.3675276],[120.9143954,14.3672693],[120.9144115,14.3670794],[120.9144424,14.3668949],[120.9145041,14.3665976],[120.914598,14.3662156],[120.9146864,14.3659246],[120.9147883,14.3655951],[120.9148622,14.3653009],[120.914896,14.3650156],[120.9149145,14.3648617],[120.9149525,14.3647075],[120.9149976,14.3645603],[120.9150338,14.3644148],[120.915071,14.3642867],[120.9150995,14.3641602],[120.9151409,14.3640482],[120.9151625,14.3639497],[120.9151821,14.3638016],[120.9151908,14.3636678],[120.9151934,14.3635522],[120.9151931,14.3635441],[120.9151909,14.3634861],[120.9151884,14.3634209],[120.9152041,14.3632832],[120.9152564,14.3631299],[120.9152953,14.3629571],[120.9153498,14.3628076],[120.9153771,14.3626375],[120.9154201,14.3624894],[120.9154836,14.3622948],[120.9155253,14.362174],[120.915583,14.362069],[120.9156454,14.3619464],[120.9157097,14.361823],[120.915786,14.3615579],[120.915813,14.361402],[120.9158157,14.3612461],[120.9158103,14.3610499],[120.9157929,14.3609187],[120.9157696,14.3607816],[120.9157674,14.3606197],[120.9157768,14.3605341],[120.9157835,14.3604445],[120.9157714,14.3603055],[120.9157753,14.3601882],[120.9158076,14.3600898],[120.9158626,14.3599911],[120.9159404,14.3598807],[120.916037,14.3598001],[120.9162033,14.3597209],[120.9164017,14.3596468],[120.9165828,14.3595844],[120.9166954,14.359526],[120.9168363,14.359478],[120.9170093,14.3594519],[120.9171997,14.3594312],[120.9173942,14.3594558],[120.9175631,14.3595208],[120.9176946,14.3596195],[120.917826,14.3596962],[120.9180164,14.3598067],[120.9181626,14.3598586],[120.9183538,14.3598993],[120.9185596,14.3598923],[120.9187905,14.3598676],[120.9188928,14.3598456],[120.9189769,14.3598092],[120.9190272,14.3597755],[120.9191007,14.3597215],[120.9191671,14.3596546],[120.9192332,14.359572],[120.9192938,14.3594591],[120.9193341,14.3593675],[120.9193743,14.35927],[120.9194221,14.3591601],[120.9194943,14.3589686],[120.9195507,14.358814],[120.9196146,14.3586525],[120.9196681,14.3585177],[120.9197042,14.3583665],[120.9197256,14.3582284],[120.9197257,14.3581248],[120.9197086,14.3580255],[120.9197082,14.3579604],[120.9197108,14.3578475],[120.9197132,14.3578053],[120.9196808,14.3577344],[120.9196164,14.3576772],[120.9195802,14.3575875],[120.9195748,14.3574862],[120.9195677,14.3574223],[120.9195574,14.3573537],[120.9195292,14.357255],[120.9194796,14.3571536],[120.9194371,14.3570704],[120.9194085,14.3570042],[120.9194138,14.3569288],[120.9194313,14.3568678],[120.9194668,14.3568196],[120.9195279,14.3567703],[120.919607,14.3567222],[120.9197424,14.3566586],[120.9198395,14.3566048],[120.919922,14.3565445],[120.9199999,14.3564143],[120.9200522,14.3562966],[120.9201676,14.3558921],[120.9201957,14.3556998],[120.9202011,14.3555582],[120.9201902,14.3554318],[120.9201421,14.3552866],[120.9201018,14.3550761],[120.9200954,14.3548558],[120.9201032,14.354702],[120.9201429,14.3545643],[120.9201944,14.3544434],[120.9202557,14.3543231],[120.9203486,14.3542251],[120.9204892,14.3541065],[120.9206598,14.3541491],[120.9208317,14.3541909],[120.9216069,14.3543937],[120.9218802,14.3544181],[120.9225239,14.3545629],[120.9229186,14.3546161],[120.9231488,14.3546228],[120.9232894,14.3546004],[120.9234499,14.3546172],[120.9234727,14.3546199],[120.9235445,14.3546286],[120.9236192,14.3545872],[120.9238842,14.354918],[120.9241111,14.3547658],[120.9243203,14.3546297],[120.9243746,14.3547247],[120.9245436,14.3549475],[120.925945,14.3550852],[120.9261425,14.3550786],[120.9285406,14.3549296],[120.928764,14.3549157],[120.9293816,14.3551248],[120.9298733,14.3545791],[120.9303146,14.3546632],[120.9303036,14.3547825],[120.930317,14.3549033],[120.9303707,14.3550943],[120.9303948,14.3551944],[120.9303948,14.3553256],[120.930364,14.3554854],[120.9302403,14.355724],[120.9301538,14.3558724],[120.9301022,14.3559784],[120.9300776,14.3560884],[120.9300808,14.3561917],[120.9300432,14.356342],[120.9299679,14.3564579],[120.9299159,14.3565533],[120.9298928,14.3566892],[120.929927,14.356819],[120.9300096,14.356939],[120.9300756,14.3571178],[120.9300975,14.3573535],[120.9300538,14.3575785],[120.9300166,14.3577221],[120.9300118,14.3577877],[120.9300227,14.357864],[120.930022,14.3579052],[120.9299965,14.3579416],[120.9299583,14.3579559],[120.9299184,14.3579588],[120.9298681,14.3579598],[120.9298312,14.357978],[120.9298296,14.3580195],[120.9298503,14.3580611],[120.9298759,14.358099],[120.9299277,14.3581609],[120.9299844,14.3582099],[120.9300237,14.3582684],[120.9300304,14.3583073],[120.930167,14.3583785],[120.9338468,14.3605463],[120.9349034,14.3607068],[120.9351906,14.3607459],[120.9353537,14.36076],[120.9355597,14.3608167],[120.9359199,14.3609328],[120.9381398,14.3616469],[120.9382101,14.3616712],[120.9382563,14.3616861],[120.940487,14.3618603],[120.9418295,14.3614033],[120.9420479,14.3613177],[120.9421045,14.3613399],[120.9421347,14.3613518],[120.9425094,14.3614987],[120.9426179,14.3615412],[120.9428807,14.3615568],[120.9435486,14.3618104],[120.9447448,14.3620609],[120.9448318,14.3615358],[120.9447849,14.361463],[120.9448479,14.3611915],[120.9451892,14.3612823],[120.945286,14.361308],[120.9464331,14.3616132],[120.9491132,14.3611757],[120.9490136,14.3612865],[120.9488984,14.3614663],[120.9488663,14.3615388],[120.9488162,14.3616709],[120.9487921,14.3617541],[120.9487908,14.3618262],[120.9488104,14.3618829],[120.9488545,14.3619607],[120.9488956,14.3620487],[120.9489255,14.3621198],[120.9489369,14.3621952],[120.9489222,14.3622712],[120.948891,14.3623496],[120.9488592,14.3624427],[120.9488122,14.3625206],[120.9487623,14.362602],[120.9487191,14.3626996],[120.964418,14.3626861],[120.9669855,14.3626839],[120.9683315,14.3626827],[120.9696378,14.3626816],[120.9715085,14.36268],[120.972061,14.3626795],[120.9727354,14.3626789],[120.9734114,14.3626784],[120.9816594,14.3626159],[120.9816526,14.3628473],[120.9816538,14.3631819],[120.9816541,14.363246],[120.981655,14.3634859],[120.9816542,14.3636035],[120.9816522,14.3639045],[120.981669,14.3650434],[120.9816649,14.3665626],[120.9731395,14.3695565],[120.9728781,14.3710252],[120.9733824,14.3714448],[120.975613,14.3714881],[120.9756323,14.3715172],[120.9755659,14.3717162],[120.9754794,14.371893],[120.975475,14.3721035],[120.9752918,14.3721255],[120.9751052,14.3722728],[120.974964,14.3723742],[120.9745549,14.3726196],[120.9743926,14.3728275],[120.9743073,14.3728809],[120.9739135,14.3729389],[120.9738123,14.3730383],[120.9736593,14.3731616],[120.9735905,14.3733322],[120.973599,14.3733861],[120.9738629,14.3735472],[120.9740229,14.3737108],[120.9740501,14.3737678],[120.9741118,14.3738967],[120.9741491,14.3740947],[120.9741331,14.3743341],[120.9741082,14.3745338],[120.9740798,14.3746784],[120.974054,14.3749464],[120.9740648,14.3753003],[120.9740898,14.3756397],[120.9740919,14.3760256],[120.9740314,14.3761529],[120.9738812,14.3763065],[120.9737748,14.3765267],[120.9738207,14.3767267],[120.9739438,14.3768681],[120.9740877,14.3770197],[120.9741148,14.3771914],[120.974119,14.3773167],[120.9740564,14.3774925],[120.9739289,14.377587],[120.9738791,14.3776238],[120.9737289,14.3778056],[120.9735986,14.3778989],[120.9735617,14.3780179],[120.9735568,14.3780371],[120.9735395,14.3781558],[120.9735401,14.3781965],[120.97354,14.3782623],[120.9734695,14.378664],[120.9732212,14.3792398],[120.9732212,14.379851]]]}}]}