{"type":"FeatureCollection","features":[{"type":"Feature","properties":{"name":"Kawit"},"geometry":{"type":"MultiPolygon","coordinates":[[[[120.8845559,14.4517205],[120.8845263,14.4515844],[120.8845073,14.4514532],[120.8844955,14.4513207],[120.8844928,14.4511883],[120.8844835,14.4506779],[120.8845063,14.4501065],[120.8845397,14.4496398],[120.8846604,14.4477089],[120.8854754,14.4443793],[120.8854786,14.4443537],[120.8854899,14.4442645],[120.8857249,14.4424016],[120.885867,14.4409394],[120.8859624,14.4399343],[120.8859694,14.4398778],[120.8859912,14.4391375],[120.8857725,14.4387677],[120.8855936,14.4384],[120.8855404,14.4381874],[120.8855241,14.4379628],[120.8855159,14.437842],[120.8854843,14.4373765],[120.8854184,14.4367006],[120.8854486,14.4362646],[120.8855539,14.4358859],[120.885852,14.4350462],[120.8859646,14.4346864],[120.8860923,14.4342626],[120.8870398,14.4345158],[120.8872002,14.4340051],[120.8873352,14.4338712],[120.8872517,14.4337734],[120.8873463,14.4336753],[120.8873703,14.4334052],[120.8873625,14.4332382],[120.8873712,14.4330968],[120.8873717,14.4329745],[120.8873919,14.4328779],[120.887507,14.4327466],[120.8875707,14.432638],[120.8878074,14.4319034],[120.8878182,14.4318301],[120.887764,14.4317884],[120.8876987,14.4317357],[120.8870019,14.4312356],[120.8868836,14.4309411],[120.886892,14.4304698],[120.8869039,14.4301294],[120.8869959,14.4297782],[120.8871979,14.429524],[120.8874446,14.4290723],[120.8875831,14.4286469],[120.8876223,14.4285736],[120.8876495,14.4284983],[120.8877588,14.4281952],[120.8878485,14.4279464],[120.8878788,14.4277022],[120.8879279,14.4274263],[120.8879769,14.427259],[120.8880726,14.4270667],[120.8883038,14.4268926],[120.8884789,14.4267208],[120.8885761,14.4265347],[120.888584,14.4265195],[120.8887848,14.4262549],[120.8889086,14.4260559],[120.8888549,14.4258931],[120.8887661,14.4257122],[120.8886797,14.4253775],[120.8886704,14.4252622],[120.8888035,14.4251808],[120.8888806,14.4251174],[120.8889483,14.4249365],[120.889044,14.4247941],[120.8892207,14.4246154],[120.8893292,14.4244977],[120.8895113,14.4243039],[120.8895277,14.4242862],[120.8895022,14.4241975],[120.889635,14.4236357],[120.8894821,14.4235682],[120.889525,14.4234617],[120.888552,14.4230308],[120.8887609,14.4223732],[120.8870941,14.421696],[120.8872005,14.4214854],[120.8872622,14.421288],[120.8874231,14.4208958],[120.8874867,14.420678],[120.8873972,14.4206111],[120.8872651,14.420552],[120.8871171,14.4203869],[120.886984,14.4203259],[120.8870774,14.4200839],[120.8862613,14.4198633],[120.8863137,14.4196946],[120.8863464,14.4193825],[120.886344,14.4190953],[120.8863073,14.4188522],[120.8876943,14.4185523],[120.8875922,14.4180428],[120.8875826,14.4176601],[120.8877243,14.4176482],[120.8877235,14.4175684],[120.8880871,14.416882],[120.8882596,14.4167179],[120.8884784,14.4165389],[120.8883305,14.4164011],[120.8885605,14.4161338],[120.888826,14.4157226],[120.888882,14.4156163],[120.888861,14.4155507],[120.8888237,14.4155236],[120.8879257,14.4151298],[120.8876653,14.4149683],[120.8874632,14.4149138],[120.8875432,14.4146053],[120.8876196,14.4143597],[120.8876923,14.4142079],[120.8878259,14.4140171],[120.8881057,14.4133652],[120.8882403,14.4130353],[120.8883445,14.4128367],[120.8885317,14.4126918],[120.8887532,14.4124671],[120.8890609,14.4122261],[120.88931,14.4119998],[120.8894419,14.4117898],[120.8895323,14.4115979],[120.8896144,14.4114381],[120.8896993,14.4112668],[120.8897568,14.4112313],[120.8898437,14.4112217],[120.8900288,14.4112311],[120.8901951,14.4112119],[120.8904108,14.4111471],[120.8907181,14.4110296],[120.8908906,14.4109237],[120.8910583,14.4107662],[120.8912516,14.4105806],[120.8915373,14.4102345],[120.892088,14.4096874],[120.8922609,14.4098542],[120.8925341,14.4101328],[120.8929123,14.4105101],[120.893121,14.4107251],[120.8930853,14.4107605],[120.8931048,14.4107803],[120.8952599,14.4128732],[120.8971647,14.4147241],[120.8976129,14.4140042],[120.8980216,14.4133476],[120.8982861,14.4128981],[120.8985241,14.4124715],[120.8990143,14.4115142],[120.8995918,14.4106184],[120.8997176,14.4103753],[120.8998458,14.410162],[120.9003521,14.4093365],[120.9005499,14.4089839],[120.9007284,14.4087142],[120.9010403,14.4081652],[120.9016871,14.4083357],[120.9025629,14.4085241],[120.9029558,14.4086033],[120.9034757,14.4087162],[120.9039798,14.4088358],[120.9039832,14.4088102],[120.9059941,14.4092973],[120.9060676,14.4093166],[120.907221,14.4095785],[120.9072255,14.4095597],[120.9081117,14.4097509],[120.9085241,14.4097178],[120.9092496,14.4099256],[120.9100288,14.409997],[120.9107906,14.4100932],[120.9110065,14.4101243],[120.9111632,14.4101434],[120.9114091,14.4101602],[120.9119626,14.4101666],[120.9125179,14.4101516],[120.9129243,14.4101529],[120.9133158,14.4101568],[120.9136552,14.4101737],[120.913983,14.4101854],[120.9149078,14.4102451],[120.9157446,14.410288],[120.9169322,14.4103354],[120.9172433,14.4103497],[120.917372,14.4103581],[120.917553,14.410364],[120.9175799,14.4103601],[120.9195726,14.4104034],[120.9199895,14.4104125],[120.9199731,14.4104971],[120.9199557,14.4105712],[120.9199101,14.4106673],[120.9198081,14.410766],[120.9197612,14.4108335],[120.9197223,14.4109375],[120.9197317,14.4110024],[120.9197934,14.4110557],[120.9198698,14.4110868],[120.9199396,14.4111401],[120.9199691,14.4112258],[120.9199704,14.4113401],[120.9199463,14.411444],[120.9199503,14.4115726],[120.9199718,14.41167],[120.9200482,14.4117934],[120.9201246,14.4119298],[120.9201716,14.4120675],[120.9202172,14.412239],[120.920248,14.4124299],[120.9202467,14.4125299],[120.9202266,14.4126117],[120.9201729,14.4127169],[120.9201151,14.4127894],[120.9201045,14.4128027],[120.919957,14.4128936],[120.9198663,14.4129156],[120.9198229,14.4129261],[120.9197183,14.4129585],[120.9196472,14.4130079],[120.9196063,14.41308],[120.9195399,14.41313],[120.9194407,14.4131521],[120.9193549,14.4131235],[120.919265,14.413056],[120.9191845,14.4130209],[120.9191383,14.4130248],[120.919101,14.4130577],[120.9190444,14.4131365],[120.9189941,14.4131703],[120.9189368,14.4131898],[120.9188761,14.4131917],[120.9188231,14.4132034],[120.9187834,14.4132347],[120.9187634,14.4132924],[120.9187688,14.4133729],[120.9187621,14.4134469],[120.9187286,14.4135573],[120.9186977,14.4136125],[120.9186581,14.4136524],[120.918564,14.4137106],[120.9185274,14.4137437],[120.9184965,14.4137859],[120.9184784,14.4138223],[120.9184701,14.4138707],[120.9184691,14.4139392],[120.9184757,14.4140111],[120.9184543,14.4140652],[120.9184215,14.4140958],[120.9182849,14.4141466],[120.9181927,14.4142048],[120.9181385,14.4142496],[120.918121,14.4142925],[120.9181182,14.4143343],[120.9180922,14.414438],[120.9180525,14.4145232],[120.9179702,14.414599],[120.9178749,14.414662],[120.9177938,14.4147247],[120.9177294,14.4147906],[120.9176614,14.4148466],[120.9176199,14.4148859],[120.9175933,14.4149406],[120.9175665,14.4150257],[120.9175589,14.415096],[120.9175584,14.4151699],[120.917547,14.4152322],[120.9175249,14.4152823],[120.9174858,14.4153333],[120.9174351,14.415381],[120.9173787,14.4154154],[120.9172916,14.4154609],[120.9172332,14.4155141],[120.9171943,14.4155765],[120.9171554,14.4156602],[120.9171293,14.4157174],[120.917096,14.4157577],[120.9170428,14.4157817],[120.9169851,14.415781],[120.9169375,14.4157791],[120.9168919,14.4157844],[120.916843,14.415807],[120.9168047,14.4158408],[120.9167704,14.4158792],[120.9167404,14.4159284],[120.9167169,14.4159752],[120.9166906,14.4160478],[120.9166881,14.4161207],[120.9167001,14.4162071],[120.9167209,14.4162707],[120.9167256,14.4163343],[120.9167158,14.4163945],[120.9166956,14.416477],[120.9166697,14.4165394],[120.916613,14.4166214],[120.916568,14.4166435],[120.9164605,14.416646],[120.9163662,14.4166617],[120.9162737,14.4166883],[120.9162344,14.4167188],[120.9162059,14.4167584],[120.9161892,14.416811],[120.9161776,14.4168772],[120.9161751,14.416939],[120.9161898,14.4170007],[120.9161765,14.4170579],[120.9161429,14.4171078],[120.916051,14.4171754],[120.9159758,14.4172538],[120.9159303,14.4173085],[120.9158955,14.4173708],[120.9158626,14.417426],[120.9158378,14.4174981],[120.9158342,14.417547],[120.9158465,14.4175956],[120.9158733,14.4176274],[120.9159176,14.4176832],[120.9159659,14.4177702],[120.9160008,14.4178242],[120.9160168,14.4178651],[120.9160081,14.417904],[120.9159859,14.4179255],[120.9159538,14.4179391],[120.9159049,14.4179359],[120.9158237,14.417919],[120.9157365,14.4179005],[120.9156722,14.417906],[120.9156037,14.4179312],[120.91552,14.4179742],[120.9154406,14.4180423],[120.9153691,14.4180878],[120.9152971,14.4181261],[120.9152135,14.4181515],[120.9151686,14.4181748],[120.9151339,14.4182075],[120.9151103,14.4182469],[120.9151108,14.4183053],[120.9151314,14.4183723],[120.9151867,14.4184474],[120.915243,14.4184911],[120.9153091,14.4185368],[120.915349,14.418582],[120.9153731,14.4186418],[120.9153793,14.4187161],[120.9153999,14.4187697],[120.9154328,14.4188035],[120.9154603,14.4188392],[120.9154868,14.418899],[120.9154985,14.4189626],[120.9154967,14.4190355],[120.9154553,14.419294],[120.9154516,14.4193659],[120.9154664,14.4195352],[120.9154757,14.4196159],[120.9154938,14.4196718],[120.9154958,14.4197133],[120.9154878,14.4197588],[120.9154831,14.4198004],[120.915488,14.4198453],[120.9155171,14.4199533],[120.9155464,14.4200193],[120.9155762,14.4201112],[120.9155964,14.4202103],[120.9156105,14.4202913],[120.9156138,14.4203621],[120.9156192,14.4204537],[120.9156293,14.4205511],[120.9156234,14.4206345],[120.9156085,14.4206954],[120.9155811,14.4207602],[120.9155602,14.4208217],[120.9155481,14.4208979],[120.9155405,14.4210488],[120.9155334,14.4211427],[120.915517,14.4212182],[120.9154921,14.4212935],[120.9154458,14.4213839],[120.9153865,14.4214943],[120.9153273,14.421618],[120.9152664,14.421785],[120.9152122,14.421922],[120.9151897,14.4220551],[120.9151671,14.4221874],[120.9151512,14.4222633],[120.9151466,14.4223419],[120.9151485,14.4223831],[120.9151471,14.4224455],[120.9151451,14.4224896],[120.9151388,14.4225414],[120.9151113,14.4225826],[120.9150828,14.422613],[120.9150603,14.4226599],[120.9150573,14.4227009],[120.9150597,14.4227464],[120.9150878,14.422791],[120.9151321,14.4228603],[120.9151601,14.4229205],[120.9151968,14.4229735],[120.9152095,14.4230371],[120.9152075,14.4231176],[120.9151974,14.4231982],[120.915174,14.4233157],[120.9151512,14.4234008],[120.9151223,14.4235002],[120.9151089,14.4235547],[120.9151036,14.4236216],[120.9151277,14.4237131],[120.9151431,14.4238235],[120.9151409,14.4239226],[120.9151339,14.4240076],[120.915131,14.4240593],[120.915115,14.4240937],[120.915066,14.4241164],[120.9149874,14.4241304],[120.9149429,14.4241574],[120.9149252,14.4242119],[120.9149185,14.4242658],[120.9149245,14.4243113],[120.9149601,14.4243411],[120.9150212,14.4243561],[120.9150727,14.424397],[120.9151009,14.424447],[120.9150948,14.4245126],[120.915064,14.4246015],[120.9150193,14.4247148],[120.9150063,14.4248035],[120.9149979,14.424862],[120.9150151,14.4249327],[120.9150579,14.4249942],[120.9151022,14.4250315],[120.9151766,14.4250607],[120.9152585,14.4250834],[120.9153034,14.4251029],[120.9153496,14.4251337],[120.9153944,14.4251806],[120.915412,14.4252425],[120.915408,14.4253069],[120.9153852,14.425401],[120.9153691,14.4254951],[120.9153573,14.4255958],[120.9153496,14.4256971],[120.9153622,14.4257661],[120.915397,14.4258514],[120.9154686,14.4259443],[120.9154858,14.4259666],[120.9155041,14.4260028],[120.9155072,14.4260328],[120.9154981,14.426064],[120.9154623,14.426138],[120.9154083,14.4262043],[120.9153892,14.4262394],[120.9153864,14.4262833],[120.9154087,14.4263264],[120.9154553,14.426368],[120.9155206,14.4264264],[120.9155874,14.4264892],[120.9156353,14.4265712],[120.9156889,14.4266634],[120.9157238,14.4267206],[120.9157386,14.4267732],[120.9157339,14.4268173],[120.9157285,14.4268589],[120.9157406,14.4269056],[120.9157602,14.4269976],[120.9158016,14.4270933],[120.915817,14.427163],[120.915821,14.4272265],[120.9158122,14.4273024],[120.9156919,14.4276737],[120.9156459,14.4280754],[120.9156239,14.4281874],[120.9155793,14.4283163],[120.9154862,14.428439],[120.9154167,14.4285727],[120.9153918,14.4286725],[120.9153905,14.428764],[120.9154079,14.4288299],[120.9154698,14.4288996],[120.9155241,14.4289749],[120.9155647,14.4290559],[120.9156065,14.4291497],[120.9156524,14.4292448],[120.9156966,14.4293496],[120.9157178,14.4294559],[120.9157201,14.429541],[120.9157419,14.4296526],[120.9157398,14.4297124],[120.9157184,14.4297552],[120.915713,14.4298006],[120.9157328,14.4298766],[120.9157355,14.4299444],[120.9157268,14.430013],[120.9157004,14.430076],[120.9156687,14.4301588],[120.9156327,14.4302187],[120.9156134,14.4302889],[120.915603,14.4303586],[120.9156015,14.4304642],[120.9156099,14.4305143],[120.9156299,14.4305859],[120.9156726,14.4306394],[120.9157171,14.4306811],[120.9157435,14.4307354],[120.9157607,14.4307994],[120.9157642,14.4308563],[120.9157431,14.4309367],[120.915722,14.431024],[120.9157181,14.4310749],[120.9157119,14.4311552],[120.9156976,14.4313122],[120.9156827,14.4313955],[120.9156852,14.431467],[120.9157133,14.4315407],[120.9157609,14.4316428],[120.9157977,14.4317261],[120.915809,14.4317874],[120.9158193,14.4318921],[120.9158387,14.4320337],[120.915839,14.4321162],[120.9158383,14.4321973],[120.9157973,14.4322808],[120.9157629,14.432368],[120.9157405,14.4324303],[120.9157363,14.4324916],[120.9157384,14.4325622],[120.9157413,14.4327147],[120.9157231,14.4328684],[120.9156867,14.4329449],[120.9156211,14.433009],[120.9155028,14.4330933],[120.9153967,14.433163],[120.9153249,14.433242],[120.9152663,14.4333329],[120.9151642,14.4335157],[120.915083,14.4336386],[120.9150271,14.4337641],[120.9149814,14.4338524],[120.9149047,14.4339314],[120.914818,14.4339836],[120.9147431,14.4340471],[120.9146882,14.4341175],[120.9146521,14.4341936],[120.9146265,14.4342706],[120.9146311,14.4343693],[120.9146474,14.4344627],[120.9146647,14.4345457],[120.9146724,14.434649],[120.9146656,14.4347486],[120.9146202,14.4348177],[120.9145366,14.4348757],[120.9144196,14.4349026],[120.9142957,14.4349181],[120.9141935,14.434921],[120.9141214,14.4349282],[120.9140731,14.4349431],[120.9140542,14.4349825],[120.9140609,14.4350179],[120.9140913,14.4350855],[120.9141486,14.4352347],[120.9142247,14.4353996],[120.9142436,14.4354654],[120.9142475,14.4355231],[120.9142372,14.4356063],[120.9141741,14.435695],[120.9140748,14.4357569],[120.9138632,14.435847],[120.91368,14.4358972],[120.9136219,14.4359154],[120.913523,14.4359464],[120.9133966,14.4359964],[120.9132802,14.4360541],[120.9131997,14.4361053],[120.9130761,14.4362779],[120.9130395,14.4363602],[120.9130233,14.4364508],[120.9129813,14.4365149],[120.9128833,14.4365644],[120.9127861,14.4365863],[120.912713,14.4366145],[120.9126703,14.4366567],[120.9126436,14.4367519],[120.912634,14.4368733],[120.912616,14.4369634],[120.9125331,14.4370558],[120.9123899,14.4371548],[120.9122536,14.4372415],[120.9121592,14.437319],[120.9121151,14.4373961],[120.9121088,14.4374751],[120.912125,14.4375678],[120.9121469,14.4376478],[120.9121729,14.4377428],[120.9121978,14.437848],[120.9121886,14.4379079],[120.9121324,14.4379461],[120.9120167,14.4380078],[120.9117797,14.4381048],[120.9115823,14.4382066],[120.9115082,14.4382712],[120.9114629,14.4383351],[120.9114482,14.4384103],[120.9114766,14.4385055],[120.9115314,14.4385979],[120.9115728,14.4386709],[120.9116474,14.438757],[120.9116725,14.438831],[120.9116856,14.4388761],[120.9116933,14.4389313],[120.9116942,14.4389885],[120.9116768,14.4390274],[120.9116423,14.4390627],[120.9115982,14.4390716],[120.9115137,14.4390685],[120.9114091,14.4390632],[120.9111818,14.4389954],[120.9110859,14.4389579],[120.9110347,14.4389396],[120.9109834,14.4389348],[120.9109366,14.4389616],[120.9109201,14.439011],[120.9109141,14.439116],[120.9109471,14.4392622],[120.9110158,14.43947],[120.9111016,14.4396445],[120.9112032,14.4397461],[120.9114871,14.4399658],[120.9115187,14.4400003],[120.91153,14.4400339],[120.9115266,14.4400583],[120.9114893,14.4401033],[120.9114294,14.4401567],[120.9113582,14.4402133],[120.9112769,14.4402618],[120.911191,14.4403051],[120.9111112,14.4403361],[120.9110356,14.4403579],[120.9109704,14.4403644],[120.9108763,14.44038],[120.9107888,14.4404],[120.9107094,14.4404276],[120.9106488,14.4404539],[120.9105862,14.4404824],[120.910565,14.4405033],[120.9105526,14.4405307],[120.9105635,14.4405614],[120.9106,14.4406316],[120.9106467,14.4407533],[120.9107035,14.440902],[120.9107597,14.4410644],[120.9108354,14.4411804],[120.9109252,14.4412783],[120.9109492,14.4413137],[120.9109474,14.4413517],[120.9109236,14.4413963],[120.9108508,14.4414113],[120.9107661,14.4414094],[120.9106905,14.4414268],[120.9106281,14.4414491],[120.9105607,14.4414898],[120.9105417,14.4415128],[120.9105365,14.4415442],[120.9105383,14.4415761],[120.9105523,14.4416061],[120.9105968,14.4416642],[120.9106506,14.4417076],[120.9107286,14.4417574],[120.9108537,14.4418373],[120.9109749,14.4418895],[120.9111551,14.4419378],[120.9112437,14.4419683],[120.9113322,14.4420079],[120.9113985,14.4420469],[120.9114469,14.4420886],[120.9115121,14.4421504],[120.9115751,14.4422114],[120.9115919,14.4422363],[120.9115932,14.4422688],[120.911588,14.4422967],[120.9115626,14.4423291],[120.9115007,14.4423779],[120.9114316,14.4424298],[120.9113765,14.4424813],[120.9113152,14.4425534],[120.911262,14.4426214],[120.9112164,14.4427021],[120.9113283,14.4427532],[120.911407,14.4427843],[120.9114899,14.44281],[120.9116019,14.4428298],[120.9116996,14.4428415],[120.9124685,14.442951],[120.9132007,14.4430421],[120.913572,14.4435344],[120.9136447,14.4436338],[120.9136955,14.4435412],[120.9137121,14.4435109],[120.9137267,14.4434843],[120.9137426,14.4434554],[120.9138736,14.443217],[120.9139338,14.4431124],[120.9142435,14.44319],[120.9142254,14.4432828],[120.9143543,14.4433064],[120.9145066,14.4433343],[120.9146374,14.4433588],[120.9146144,14.4434756],[120.9145805,14.443755],[120.9146543,14.4437292],[120.9147844,14.4437002],[120.9147886,14.443759],[120.9155798,14.4434862],[120.9158342,14.4437211],[120.9159376,14.443859],[120.9160466,14.443896],[120.9161342,14.4439422],[120.9161939,14.4440234],[120.9161577,14.4442487],[120.9161426,14.4442758],[120.9161252,14.4443068],[120.916107,14.4443432],[120.9162606,14.4444272],[120.9164086,14.4444938],[120.916606,14.4445447],[120.9167956,14.4445965],[120.9169681,14.4446627],[120.917131,14.4447307],[120.9172731,14.4447985],[120.917397,14.4448628],[120.9174153,14.4448723],[120.9175198,14.4449023],[120.9176146,14.4449195],[120.9177165,14.4449272],[120.9178369,14.4449185],[120.9179484,14.4448857],[120.9181081,14.444876],[120.9181961,14.4448912],[120.9182773,14.4449273],[120.9183338,14.4449753],[120.9183565,14.4450438],[120.918361,14.4451083],[120.9183474,14.445255],[120.9183571,14.4453281],[120.9183998,14.4453776],[120.918461,14.4454067],[120.91855,14.445417],[120.9186465,14.445396],[120.9187185,14.4453333],[120.9187945,14.4452292],[120.9188653,14.4450711],[120.9189095,14.4449021],[120.9189416,14.4448573],[120.919004,14.4448287],[120.919129,14.4448528],[120.9192433,14.4449268],[120.9193774,14.4449802],[120.9194962,14.4449826],[120.9196473,14.4449758],[120.9197966,14.4449535],[120.9198637,14.4449571],[120.9199246,14.4449823],[120.9199666,14.4450434],[120.920037,14.4451262],[120.9201362,14.4452445],[120.9202345,14.4453539],[120.9202999,14.4454206],[120.9203511,14.4454976],[120.9203948,14.4455843],[120.920483,14.4457263],[120.9205158,14.445788],[120.9205456,14.4458345],[120.9205831,14.4458584],[120.9206329,14.4458694],[120.9206966,14.4458661],[120.9207754,14.4458465],[120.9209136,14.4458102],[120.9209929,14.4457898],[120.9210641,14.4457659],[120.9211689,14.4457522],[120.9212419,14.4457546],[120.9213122,14.4457804],[120.9214669,14.4458442],[120.9216242,14.4459251],[120.9216691,14.4459503],[120.9216881,14.445961],[120.9217627,14.4459761],[120.9218459,14.4459744],[120.9219605,14.4459324],[120.922044,14.4459362],[120.9221396,14.4459634],[120.922214,14.4460061],[120.9222615,14.4460514],[120.9223044,14.4461196],[120.9223258,14.4461826],[120.9223411,14.4462294],[120.9223608,14.4462797],[120.9224002,14.4463161],[120.9224423,14.4463248],[120.9224811,14.446315],[120.9226997,14.4462164],[120.9227852,14.4461721],[120.9228609,14.4461388],[120.9229296,14.4461115],[120.9230682,14.4460622],[120.9231339,14.446044],[120.923261,14.4460196],[120.9232842,14.4460175],[120.9233037,14.4460178],[120.9233416,14.4460222],[120.9233832,14.4460271],[120.9234616,14.4460371],[120.9235087,14.4460486],[120.9235436,14.4460781],[120.9235606,14.4461141],[120.9236054,14.4462684],[120.9236238,14.4463044],[120.9236524,14.4463369],[120.9236984,14.4463625],[120.923738,14.4463654],[120.9237783,14.446352],[120.9238516,14.4462953],[120.9239551,14.4461986],[120.9240028,14.4461507],[120.9240504,14.446108],[120.9241046,14.4460685],[120.9241472,14.4460525],[120.9241919,14.4460399],[120.9243146,14.4460148],[120.9243472,14.4460113],[120.9243875,14.4460143],[120.9244211,14.446023],[120.9244699,14.4460491],[120.9246235,14.4461323],[120.9246669,14.4461578],[120.9247091,14.4461693],[120.9247399,14.4461656],[120.9247725,14.4461544],[120.9248923,14.4461091],[120.9249579,14.446082],[120.925036,14.4460496],[120.9251589,14.4460035],[120.9252918,14.4459568],[120.9257466,14.4457761],[120.9258574,14.4459134],[120.9259221,14.4460332],[120.925992,14.4460731],[120.9260061,14.4460654],[120.9261337,14.4459965],[120.9263521,14.4458786],[120.9267544,14.4457825],[120.9269046,14.4457753],[120.9270843,14.4457773],[120.9274558,14.445763],[120.9277522,14.4457721],[120.9279238,14.4457834],[120.9281136,14.4458136],[120.9282505,14.4458343],[120.9282678,14.4457701],[120.9282792,14.4457006],[120.9282893,14.4456032],[120.928298,14.4455052],[120.928304,14.4454344],[120.9283077,14.4454053],[120.9283232,14.4453386],[120.928348,14.4452308],[120.9283654,14.4451451],[120.9283785,14.4450763],[120.9283852,14.4450211],[120.9283832,14.4449383],[120.9283751,14.4448903],[120.9283614,14.4448511],[120.9283177,14.4447697],[120.9282769,14.4447029],[120.9282367,14.4446403],[120.9282085,14.4445789],[120.9281907,14.4445299],[120.9281759,14.4444658],[120.9281619,14.4443967],[120.9281525,14.4443497],[120.9281418,14.4443003],[120.9281284,14.4442555],[120.9281186,14.4442323],[120.9281081,14.4441856],[120.9281054,14.444158],[120.9281029,14.4441214],[120.9281069,14.4440854],[120.9281161,14.4440497],[120.9281344,14.4440194],[120.9281555,14.4439899],[120.9282021,14.4439279],[120.9282766,14.4438474],[120.9284718,14.443881],[120.9286513,14.4438413],[120.9290194,14.4436192],[120.9291164,14.4435682],[120.9292288,14.4435224],[120.929326,14.443476],[120.9294044,14.4434253],[120.9294872,14.4433649],[120.9295556,14.4432876],[120.9296463,14.4431816],[120.9296904,14.4431195],[120.9297371,14.4430232],[120.92979,14.4428824],[120.929833,14.4427591],[120.9298567,14.4426698],[120.9298731,14.4425685],[120.9298794,14.4424843],[120.9298835,14.4423733],[120.9298747,14.4422791],[120.9298564,14.4421272],[120.929847,14.4420078],[120.929847,14.4419188],[120.9298517,14.4418487],[120.9298586,14.4417551],[120.9298694,14.4416844],[120.9298785,14.4416457],[120.9298949,14.4415975],[120.9299177,14.4415616],[120.9299546,14.4415262],[120.9300103,14.4414837],[120.930064,14.4414351],[120.9301041,14.441396],[120.9301638,14.4413461],[120.9302315,14.4413016],[120.9302648,14.4412804],[120.9303167,14.4412503],[120.9303539,14.4412298],[120.9304319,14.441198],[120.9304672,14.441267],[120.9305263,14.4413279],[120.9305748,14.4413687],[120.9306669,14.4414112],[120.9307632,14.4414363],[120.9308635,14.4414454],[120.9309735,14.4414435],[120.9310866,14.4414381],[120.9311995,14.4414292],[120.9313195,14.4414182],[120.9314255,14.4414097],[120.9315361,14.4414116],[120.9315994,14.4414259],[120.9316588,14.4414532],[120.9317131,14.441485],[120.9317675,14.4415283],[120.9318298,14.4415902],[120.9318606,14.4416438],[120.9318835,14.4416983],[120.9318988,14.4417487],[120.9319069,14.4418087],[120.9319089,14.4418626],[120.9319016,14.4419058],[120.9318888,14.4419568],[120.9318746,14.4419959],[120.9317477,14.4419543],[120.9316134,14.4419494],[120.9315254,14.441959],[120.9314487,14.441978],[120.9313752,14.4420142],[120.9313051,14.4420655],[120.9311981,14.4421441],[120.9311085,14.442226],[120.9309957,14.4423584],[120.9309192,14.442498],[120.9308613,14.4426209],[120.9308342,14.4427541],[120.9308267,14.4429182],[120.9308361,14.4430471],[120.9308582,14.4431701],[120.9308912,14.4432855],[120.9309666,14.4435414],[120.931181,14.4439989],[120.9313259,14.4444857],[120.9313856,14.4447863],[120.9313911,14.4450868],[120.9313543,14.44537],[120.9312768,14.4456531],[120.9310671,14.4460211],[120.9308606,14.4462697],[120.93073,14.446358],[120.9306575,14.4464069],[120.9302306,14.4466084],[120.9297023,14.4468033],[120.9286929,14.4471538],[120.9282248,14.4473503],[120.9278514,14.4475403],[120.9276177,14.4477114],[120.9274886,14.4478254],[120.9273727,14.4479616],[120.9272835,14.4481134],[120.9272179,14.4482578],[120.9271726,14.4484547],[120.927162,14.4485586],[120.927155,14.4486267],[120.9271516,14.4488537],[120.9271602,14.4490344],[120.9271972,14.4492425],[120.9273684,14.4497776],[120.9276072,14.4503717],[120.9277726,14.450883],[120.9278436,14.4511578],[120.9278834,14.4515611],[120.9279,14.4518505],[120.9278898,14.4521072],[120.9278537,14.4523906],[120.9277871,14.4526648],[120.9276125,14.4531304],[120.9274979,14.453571],[120.9274704,14.4537838],[120.927455,14.4541086],[120.9274771,14.454391],[120.9275637,14.4547023],[120.9276276,14.454852],[120.9277647,14.4550843],[120.9280275,14.4554967],[120.9280953,14.4556439],[120.9281646,14.4559927],[120.9282109,14.4562598],[120.9282243,14.4565483],[120.9281767,14.4567934],[120.9280671,14.4570718],[120.9278762,14.4573502],[120.9276507,14.4576055],[120.9273683,14.4578253],[120.9269555,14.4580636],[120.9265589,14.458227],[120.9244991,14.4591452],[120.9243099,14.4592404],[120.9245536,14.4600261],[120.9245872,14.4602268],[120.9246041,14.4604258],[120.924608,14.4606336],[120.9246453,14.4608959],[120.9247366,14.4612637],[120.9247997,14.4615112],[120.9248375,14.4617313],[120.9248663,14.4619503],[120.9248681,14.4622349],[120.9248525,14.462561],[120.924671,14.4637292],[120.9244324,14.464927],[120.924384,14.4651198],[120.9242648,14.4653125],[120.9240476,14.4654993],[120.923373,14.4659261],[120.9231729,14.4660723],[120.9221836,14.4665712],[120.9219469,14.4667235],[120.9213477,14.4672198],[120.9210558,14.4679037],[120.9209742,14.4685676],[120.9210643,14.4692732],[120.9223619,14.4744616],[120.9228413,14.4763782],[120.9178628,14.475746],[120.9137821,14.4749822],[120.9100551,14.4739548],[120.9009416,14.4678699],[120.897949,14.4667636],[120.8892164,14.4600199],[120.8889117,14.4594675],[120.888719,14.458906],[120.8886395,14.4585871],[120.8886439,14.4582321],[120.8886435,14.4577209],[120.8885961,14.4574673],[120.8883859,14.4570358],[120.8879842,14.4566878],[120.8876945,14.456385],[120.8866591,14.4558933],[120.8864789,14.4557552],[120.8862371,14.4556529],[120.8858952,14.4554124],[120.8857581,14.4552651],[120.8857073,14.45507],[120.8857329,14.4547139],[120.8857118,14.4543396],[120.8856814,14.4540875],[120.8856441,14.4538633],[120.8855925,14.4536934],[120.8855362,14.4535388],[120.8854397,14.4533264],[120.8850542,14.4526585],[120.8848516,14.4523382],[120.8847705,14.4522155],[120.8847067,14.4521012],[120.8846451,14.4519714],[120.8845954,14.4518467],[120.8845559,14.4517205]]]]}}]}