{"type":"FeatureCollection","features":[{"type":"Feature","properties":{"name":"Maragondon"},"geometry":{"type":"MultiPolygon","coordinates":[[[[120.4487978,14.2488877],[120.4734974,14.2405404],[120.5430376,14.2283233],[120.5665181,14.2222447],[120.5851681,14.2226568],[120.5882027,14.2227239],[120.6124627,14.2117271],[120.6247004,14.2149751],[120.6525452,14.2180235],[120.6555397,14.2165528],[120.692305,14.1984946],[120.6776888,14.171712],[120.6975558,14.1706211],[120.7007616,14.1657537],[120.7145256,14.1710633],[120.7147238,14.1713116],[120.7151042,14.1717776],[120.7151479,14.1718248],[120.7155114,14.1722176],[120.7158518,14.172703],[120.7159919,14.1731107],[120.7159319,14.1734666],[120.7159252,14.1738613],[120.7159185,14.1743014],[120.7157583,14.1746573],[120.7157583,14.1750326],[120.7158267,14.1754059],[120.715951,14.1757382],[120.7161129,14.1758368],[120.7161431,14.1760998],[120.7161318,14.1763882],[120.7162015,14.176599],[120.7162184,14.1767925],[120.7161167,14.1769605],[120.7160489,14.1771303],[120.7160376,14.1774261],[120.716064,14.1776817],[120.7161374,14.1778807],[120.7161902,14.178087],[120.7162259,14.1782587],[120.716305,14.1783481],[120.7164858,14.1785398],[120.7166195,14.1786421],[120.7166666,14.1787644],[120.7167005,14.1789397],[120.7166271,14.1793596],[120.7167476,14.179513],[120.7169152,14.1795769],[120.7170753,14.1798015],[120.7171092,14.1799512],[120.7171694,14.1802744],[120.7173615,14.1806158],[120.7174126,14.1807826],[120.7175666,14.1810519],[120.7176475,14.1811824],[120.7177391,14.1813414],[120.7178231,14.1815472],[120.7179069,14.1819148],[120.7179947,14.1822508],[120.718104,14.182594],[120.7182991,14.1829516],[120.7186335,14.1833271],[120.7190201,14.1836293],[120.7192275,14.1838693],[120.7192942,14.1840022],[120.7192957,14.1841781],[120.719253,14.1843102],[120.719191,14.1844053],[120.7190635,14.1844832],[120.7188679,14.1845359],[120.718722,14.1845876],[120.7186066,14.1846982],[120.7185909,14.1847246],[120.718503,14.1848473],[120.7184359,14.184889],[120.7183193,14.184954],[120.7182817,14.1849995],[120.7182348,14.185058],[120.7181959,14.1851477],[120.7181744,14.1852647],[120.7181717,14.1853557],[120.7181825,14.185461],[120.7182053,14.1855885],[120.7182656,14.1856912],[120.7183461,14.1857419],[120.7184949,14.1858251],[120.7187095,14.1859239],[120.7190046,14.1859915],[120.7193425,14.1860643],[120.7196376,14.1861606],[120.7198575,14.1862828],[120.7200453,14.1864362],[120.7201579,14.1865584],[120.7202169,14.1867197],[120.7202277,14.1868952],[120.720225,14.186994],[120.7202357,14.1871227],[120.7202665,14.1872267],[120.7203323,14.1873567],[120.7204664,14.1874946],[120.7206327,14.1876454],[120.7209237,14.1878703],[120.7212818,14.1880615],[120.7215902,14.1882201],[120.7218102,14.1884047],[120.721955,14.1885737],[120.7222219,14.1888572],[120.7223654,14.1889677],[120.7224753,14.1890028],[120.7226068,14.1890158],[120.7227758,14.1891094],[120.7228777,14.1892654],[120.7230158,14.1894748],[120.7231137,14.1896386],[120.7232351,14.1897966],[120.7233578,14.1898947],[120.7235241,14.1900091],[120.7236207,14.1900559],[120.7237628,14.1900403],[120.7239479,14.1900299],[120.7240766,14.1900559],[120.7241973,14.190134],[120.7242872,14.1902783],[120.724314,14.1903966],[120.7243381,14.1905578],[120.7244025,14.1907788],[120.7244562,14.1909128],[120.7245138,14.191022],[120.724597,14.1911078],[120.7246734,14.1911923],[120.7247365,14.1913288],[120.7247901,14.1914913],[120.7248531,14.191611],[120.7249068,14.1917332],[120.7249993,14.1918684],[120.7250865,14.1919451],[120.7252313,14.1920413],[120.7253627,14.1921011],[120.7254667,14.1921473],[120.7256136,14.1923117],[120.7257517,14.192437],[120.7258716,14.1925585],[120.7259501,14.1926623],[120.7261871,14.1930931],[120.7262673,14.1932375],[120.7264853,14.1935768],[120.726741,14.1939403],[120.7270167,14.1942683],[120.7272079,14.19445],[120.7273382,14.1945116],[120.7274858,14.1945487],[120.7276252,14.1945493],[120.7277826,14.1945262],[120.7279471,14.1944765],[120.7281376,14.1944108],[120.7283159,14.1943244],[120.7285319,14.1942869],[120.7287165,14.1942917],[120.7288652,14.1943168],[120.7290012,14.1943946],[120.7291299,14.1944947],[120.7293372,14.194664],[120.7295978,14.1949065],[120.7297931,14.1950845],[120.7299373,14.1952098],[120.7301535,14.1953349],[120.730463,14.1954777],[120.7307258,14.1955973],[120.7310404,14.19571],[120.7313454,14.1958049],[120.7314364,14.1958332],[120.7316834,14.1959093],[120.7319863,14.1960083],[120.7321165,14.1960796],[120.7322547,14.1961797],[120.7323926,14.1963489],[120.7325578,14.1965347],[120.7327532,14.1967305],[120.7329869,14.1969676],[120.7332616,14.1972008],[120.7334513,14.1973382],[120.7336521,14.1973954],[120.7337889,14.1973343],[120.7342877,14.1971836],[120.734758,14.1970721],[120.7352936,14.1970602],[120.7354673,14.1971676],[120.7354262,14.1973836],[120.7355177,14.1978573],[120.7355898,14.1982063],[120.7358955,14.1983108],[120.7364389,14.1983112],[120.7369323,14.198355],[120.737871,14.1980611],[120.7384502,14.197903],[120.7391356,14.1977379],[120.7395619,14.1972198],[120.7400773,14.1967448],[120.7402772,14.1965634],[120.7407199,14.1964506],[120.7409757,14.1964918],[120.7412727,14.1968237],[120.7417393,14.1973675],[120.7421035,14.1976326],[120.7424963,14.1977141],[120.7429315,14.1978642],[120.7434149,14.197929],[120.7434296,14.197931],[120.7439717,14.1980958],[120.7443371,14.1983404],[120.7447401,14.1987165],[120.7453276,14.1992934],[120.7453895,14.1994402],[120.7456253,14.1996631],[120.745693,14.1999946],[120.7457782,14.2003295],[120.7458507,14.2004581],[120.7460545,14.2005768],[120.7463103,14.2007376],[120.7464936,14.2008681],[120.7466849,14.2010536],[120.7469453,14.2014269],[120.747576,14.2019432],[120.7476899,14.2021445],[120.7478457,14.2024865],[120.7480021,14.2027693],[120.748237,14.2030666],[120.7486346,14.2032455],[120.7490296,14.2031788],[120.7493129,14.2029067],[120.7495062,14.2027194],[120.7497051,14.2024922],[120.7500673,14.2024326],[120.7505117,14.2025578],[120.7510656,14.202803],[120.7515728,14.2031342],[120.7517372,14.203353],[120.7519437,14.2036894],[120.7522571,14.2039256],[120.7524397,14.2042885],[120.75268,14.2043774],[120.7529168,14.2046301],[120.753135,14.2047742],[120.7532445,14.2051483],[120.7534661,14.20545],[120.7538104,14.2055978],[120.7539405,14.2057486],[120.7539683,14.2059735],[120.7541035,14.2060633],[120.7540894,14.2061983],[120.754139,14.206844],[120.754114,14.2073719],[120.754275,14.2076975],[120.7544194,14.2078246],[120.7546199,14.2078883],[120.7549302,14.2079679],[120.7552124,14.2079841],[120.7556368,14.2080075],[120.7558611,14.2079861],[120.7561133,14.208019],[120.7565805,14.2081391],[120.7568132,14.2081955],[120.7570459,14.2083333],[120.7573899,14.2083765],[120.7576405,14.208302],[120.7579624,14.2082136],[120.7583684,14.2081433],[120.7587749,14.2082519],[120.7591207,14.2085777],[120.7596583,14.2087695],[120.7600838,14.2089975],[120.7604,14.2092117],[120.7606203,14.2093609],[120.7609754,14.2097978],[120.7612278,14.2103071],[120.7616882,14.2106082],[120.7619255,14.2109284],[120.7621816,14.2110629],[120.7627403,14.2110966],[120.7628953,14.2111391],[120.7631282,14.2111405],[120.7635186,14.2111601],[120.763824,14.2110355],[120.7644631,14.2108482],[120.7645288,14.210838],[120.7651434,14.2107429],[120.7656149,14.210713],[120.7660385,14.2108578],[120.7663143,14.2110496],[120.7663714,14.2113251],[120.7662858,14.2115747],[120.7662164,14.2117572],[120.7663541,14.2119253],[120.7662798,14.2120801],[120.7663811,14.2122747],[120.7663116,14.2123826],[120.7664735,14.2125983],[120.7666347,14.2127894],[120.7667858,14.2129506],[120.7668472,14.2131711],[120.7670874,14.2132339],[120.7673646,14.2132808],[120.7676255,14.2131622],[120.7680837,14.2130738],[120.7685662,14.2131136],[120.7688888,14.2131986],[120.7692927,14.2132204],[120.7695829,14.2134341],[120.769809,14.2136069],[120.7699668,14.2137603],[120.7700945,14.2138567],[120.7702791,14.2138586],[120.7704005,14.2139031],[120.7705464,14.2140265],[120.770598,14.2141828],[120.7707064,14.2143075],[120.7708828,14.2143678],[120.7712791,14.214483],[120.7717219,14.2144383],[120.7721565,14.2142911],[120.7724263,14.2141744],[120.7727937,14.214176],[120.7730994,14.2141548],[120.7733836,14.2141648],[120.7734859,14.2142478],[120.7735748,14.214388],[120.7736733,14.2147507],[120.773832,14.2151282],[120.7739821,14.2153131],[120.7741215,14.2155681],[120.7742868,14.2157237],[120.7744629,14.2158766],[120.774622,14.2159069],[120.7748411,14.215888],[120.7750764,14.2158744],[120.7753236,14.2158345],[120.775603,14.2157583],[120.7758078,14.2156497],[120.7759697,14.2155359],[120.7764497,14.2153718],[120.7765992,14.2153438],[120.7767911,14.2153432],[120.7771431,14.2154313],[120.7774706,14.2156882],[120.7774713,14.2160105],[120.7774856,14.2161128],[120.7775092,14.2162823],[120.7776692,14.2164368],[120.7778872,14.2164797],[120.7780345,14.2165776],[120.7781736,14.2167079],[120.7783738,14.2168146],[120.778521,14.2167957],[120.7786255,14.2167492],[120.7788171,14.2166614],[120.7789781,14.2166786],[120.7791797,14.2167825],[120.7793736,14.2170637],[120.7796238,14.2173274],[120.7797577,14.2176329],[120.7798865,14.2185824],[120.7798744,14.2188988],[120.7798199,14.2192152],[120.7795698,14.2199964],[120.7794183,14.2206273],[120.7793416,14.2213124],[120.7793057,14.222132],[120.7794212,14.2228612],[120.7794405,14.2235541],[120.7794743,14.2244658],[120.7794686,14.2250582],[120.7795511,14.2255023],[120.77967,14.2257383],[120.7799189,14.2258954],[120.7805862,14.2261282],[120.7814306,14.2265297],[120.7817763,14.2272294],[120.7818472,14.2277585],[120.781754,14.2281606],[120.7814568,14.2287005],[120.7807596,14.229726],[120.780126,14.2308614],[120.7801434,14.2309498],[120.7804429,14.2313691],[120.7805413,14.2316249],[120.7807684,14.231735],[120.7809375,14.2319422],[120.7810381,14.2321862],[120.7811709,14.2323938],[120.7814767,14.232725],[120.7815025,14.2328698],[120.7814564,14.233236],[120.7814317,14.2335918],[120.7813944,14.2340525],[120.7814001,14.2344664],[120.7813745,14.2347257],[120.7813797,14.234985],[120.7816037,14.2354743],[120.7817711,14.2358204],[120.7818893,14.2361666],[120.7819744,14.236334],[120.7820828,14.2364878],[120.7823217,14.2366983],[120.7824368,14.2367519],[120.7825052,14.2368371],[120.7825404,14.2370565],[120.7825989,14.2373053],[120.7827212,14.2376499],[120.7827614,14.2378324],[120.7827735,14.2379922],[120.7828826,14.2379779],[120.7830341,14.2379622],[120.7831442,14.2379654],[120.7833392,14.2379105],[120.7834633,14.2377987],[120.7836078,14.237711],[120.78371,14.2375363],[120.7837045,14.2373905],[120.7836507,14.2372448],[120.7836932,14.2370308],[120.7836992,14.2368129],[120.7836504,14.2365848],[120.7835732,14.2363685],[120.7835415,14.236114],[120.7835992,14.2358556],[120.7837737,14.2356829],[120.7840376,14.2355142],[120.7843024,14.2354984],[120.7845324,14.2353841],[120.7847054,14.2352619],[120.7847602,14.2350556],[120.7847195,14.2348719],[120.7847122,14.234636],[120.7847636,14.2345309],[120.7849,14.2344395],[120.7851511,14.2344237],[120.7853371,14.2343685],[120.7855539,14.234319],[120.7857137,14.2342143],[120.7859095,14.233924],[120.7859519,14.2337063],[120.7859407,14.2334886],[120.7858845,14.2333254],[120.7857697,14.2330183],[120.7857301,14.2326904],[120.7858342,14.2321895],[120.7860927,14.2317584],[120.7863169,14.2314196],[120.7865713,14.2312029],[120.7867525,14.2309783],[120.7870283,14.2306911],[120.7873853,14.230467],[120.7878436,14.2302497],[120.7884766,14.2301507],[120.78901,14.230001],[120.7893409,14.2296972],[120.789623,14.2292595],[120.7897306,14.2289533],[120.7897325,14.2283637],[120.7896205,14.2279711],[120.7894927,14.2276701],[120.789426,14.2273691],[120.7895167,14.2271016],[120.7896766,14.2268735],[120.789962,14.2267284],[120.7901117,14.2265152],[120.790794,14.2249901],[120.7909708,14.2237085],[120.7910988,14.2232266],[120.7914018,14.2231361],[120.7917912,14.2231893],[120.7921155,14.2233372],[120.7926889,14.2234339],[120.7933159,14.2234163],[120.7937464,14.2233052],[120.7942406,14.2230728],[120.7950352,14.2225389],[120.7955031,14.2222668],[120.7959522,14.2219402],[120.7962797,14.2213869],[120.7965605,14.2210331],[120.7967889,14.2209144],[120.7971032,14.2208789],[120.7973185,14.2208608],[120.7979466,14.2204542],[120.798075,14.2201777],[120.7981712,14.2198283],[120.7982928,14.2188803],[120.7982171,14.2186784],[120.7980635,14.2185039],[120.7980013,14.2181754],[120.79813,14.2180756],[120.7983803,14.218121],[120.7985417,14.2181845],[120.798771,14.2182661],[120.7989135,14.2182337],[120.7990985,14.2180983],[120.7992716,14.2177627],[120.7995313,14.2176788],[120.7997816,14.2176583],[120.7999314,14.2175064],[120.8000111,14.2174157],[120.8005189,14.2171523],[120.8006837,14.2171479],[120.8008415,14.2170749],[120.8009847,14.2167917],[120.8011478,14.2165764],[120.8013652,14.2164513],[120.8015765,14.2164849],[120.8017879,14.2166007],[120.8019783,14.2166848],[120.8022041,14.2166591],[120.8023381,14.2165009],[120.8023731,14.2162879],[120.8024952,14.2158193],[120.802542,14.2153936],[120.8024212,14.2148919],[120.802497,14.214337],[120.8024917,14.2139823],[120.8025446,14.2137705],[120.8027011,14.2135879],[120.8029349,14.2132588],[120.8030661,14.213016],[120.8032097,14.2129539],[120.8034382,14.2129603],[120.8036238,14.2130692],[120.8039016,14.213063],[120.8042517,14.2130515],[120.8044391,14.212913],[120.8046337,14.2124968],[120.8048208,14.2122409],[120.8050858,14.2119513],[120.80527,14.21186],[120.8055233,14.2118383],[120.8057649,14.211848],[120.8059942,14.2118628],[120.8061642,14.2117683],[120.8062644,14.2115958],[120.8061427,14.2111578],[120.8060509,14.2109116],[120.8060794,14.2105506],[120.8061265,14.210477],[120.8063845,14.2102764],[120.8067053,14.2101383],[120.8069042,14.2100948],[120.8070209,14.2100517],[120.8070915,14.2100574],[120.8072797,14.2100665],[120.8074126,14.2099698],[120.8074632,14.209829],[120.8076966,14.209659],[120.8077409,14.2094714],[120.8077961,14.209342],[120.8077806,14.2091988],[120.8075003,14.2086775],[120.8075603,14.2085986],[120.8076832,14.2085035],[120.8078671,14.208448],[120.8082224,14.2085108],[120.8089139,14.2083537],[120.809103,14.2082776],[120.8092547,14.2081291],[120.8094135,14.2080073],[120.8094304,14.2077961],[120.8093897,14.2075392],[120.8094445,14.2072402],[120.8098726,14.206908],[120.8102382,14.2065734],[120.8104458,14.2065711],[120.8105847,14.2064357],[120.8107796,14.2060713],[120.811029,14.2055179],[120.8109916,14.2051143],[120.8109263,14.2049157],[120.8107336,14.2048064],[120.8105549,14.2046717],[120.810514,14.2044904],[120.8105722,14.2043229],[120.8106694,14.2041039],[120.810717,14.2038506],[120.8107083,14.2037261],[120.8107492,14.2036085],[120.8108365,14.2035389],[120.8109662,14.2035037],[120.8110658,14.2033952],[120.8111018,14.2032729],[120.8110627,14.2029769],[120.8109435,14.2027526],[120.8109595,14.2025951],[120.8110494,14.2024435],[120.8113007,14.2023066],[120.8115822,14.2021176],[120.8117651,14.2018091],[120.811872,14.2015913],[120.8118801,14.2013419],[120.8119941,14.201227],[120.8123117,14.2010859],[120.812605,14.2008575],[120.8128552,14.2005813],[120.8129674,14.2005625],[120.8129285,14.200397],[120.8129509,14.2002321],[120.8129573,14.2000526],[120.8128589,14.1998731],[120.8127087,14.1994597],[120.8127238,14.1991394],[120.8129052,14.1988729],[120.8129442,14.1986071],[120.8130263,14.1983532],[120.8131884,14.1980869],[120.8133737,14.1977534],[120.8135292,14.1975064],[120.813744,14.1972837],[120.8140327,14.1970609],[120.8143464,14.1966693],[120.8145141,14.1964428],[120.8146546,14.1958829],[120.8147258,14.1956071],[120.814723,14.1953313],[120.8148494,14.1950943],[120.8150189,14.1948931],[120.8151603,14.1945556],[120.8153093,14.194314],[120.815478,14.194126],[120.8155063,14.193921],[120.8154237,14.1937279],[120.815468,14.1933656],[120.8155731,14.1931853],[120.8157459,14.1930288],[120.8159053,14.192937],[120.8160408,14.1926804],[120.8163286,14.1925401],[120.8164681,14.1924094],[120.8165584,14.1922549],[120.8168765,14.1920814],[120.817013,14.19178],[120.8172851,14.1916101],[120.8175518,14.1915522],[120.8177938,14.1913988],[120.8179548,14.1911958],[120.8180172,14.1909689],[120.8180174,14.190757],[120.8186626,14.191129],[120.8190864,14.1913422],[120.8194211,14.1914912],[120.8197376,14.1917357],[120.8199736,14.1919905],[120.8201989,14.1921361],[120.8205691,14.1923181],[120.8209598,14.1925559],[120.8213561,14.1927412],[120.8219239,14.1930521],[120.822338,14.1932815],[120.8226672,14.1934222],[120.8229397,14.1936555],[120.823375,14.1938751],[120.823825,14.1941174],[120.8243829,14.194315],[120.8252989,14.1947231],[120.8255638,14.1949083],[120.8260938,14.1950636],[120.8264798,14.1953565],[120.8268177,14.195633],[120.8270268,14.1957014],[120.8272522,14.1957254],[120.8277132,14.1962878],[120.8280032,14.1968299],[120.8279187,14.1972513],[120.8279807,14.197693],[120.8278825,14.1980639],[120.8277007,14.1983943],[120.8272688,14.1989834],[120.8267951,14.19939],[120.8267735,14.1994717],[120.8266041,14.2001133],[120.8259975,14.2013122],[120.8252272,14.2024247],[120.825104,14.2031622],[120.8253298,14.2035936],[120.8256573,14.2042096],[120.825627,14.2050338],[120.8256847,14.2056168],[120.8257103,14.2058535],[120.8260535,14.2065159],[120.8261656,14.2068341],[120.8261842,14.2071064],[120.8261375,14.2073063],[120.8261987,14.2076694],[120.8261868,14.2080561],[120.8260813,14.2085296],[120.8261141,14.2088217],[120.8262686,14.2089295],[120.8264874,14.20898],[120.8266284,14.2090302],[120.8268499,14.2090389],[120.8272124,14.2090978],[120.8273365,14.2093508],[120.827662,14.2096522],[120.8277148,14.2099515],[120.827612,14.2101572],[120.8273527,14.2103606],[120.8270142,14.2107153],[120.8266757,14.2109245],[120.826181,14.2111659],[120.8258973,14.2115043],[120.8257957,14.211839],[120.825594,14.2120923],[120.8253387,14.2122623],[120.824506,14.2128234],[120.8242115,14.2131286],[120.8240518,14.213274],[120.823978,14.2135026],[120.8240641,14.2139077],[120.8239786,14.2141255],[120.823786,14.2142493],[120.8235452,14.2142742],[120.8234438,14.2143199],[120.8234295,14.2146819],[120.823599,14.2150088],[120.8237954,14.2152525],[120.8240991,14.2156563],[120.8241739,14.2160463],[120.8239936,14.2163519],[120.8238275,14.2167674],[120.8238428,14.2170648],[120.8240704,14.2173622],[120.8242867,14.2177111],[120.8246164,14.2178919],[120.8247063,14.2180937],[120.8246378,14.2184808],[120.8240387,14.2188865],[120.8232945,14.2191877],[120.8228692,14.2197506],[120.822902,14.2201073],[120.822798,14.2204823],[120.822444,14.2207336],[120.8212091,14.2215422],[120.8206121,14.2218117],[120.8203014,14.222216],[120.8201624,14.2228422],[120.8203014,14.2233813],[120.8204486,14.2236746],[120.8204077,14.2239758],[120.8202441,14.2247447],[120.8204731,14.2252283],[120.82067,14.225572],[120.8209883,14.2258704],[120.821106,14.226096],[120.8211489,14.2263215],[120.8209828,14.2266234],[120.8209287,14.2269524],[120.8209181,14.2275909],[120.82081,14.227969],[120.8206459,14.2283472],[120.8205298,14.2287349],[120.8202922,14.2289778],[120.8200131,14.2290744],[120.8197132,14.2293195],[120.819488,14.2295465],[120.8191044,14.2300597],[120.8190581,14.2305113],[120.8191836,14.230737],[120.8191393,14.2309353],[120.8187919,14.2313923],[120.8184141,14.2317639],[120.8175959,14.2325902],[120.8172822,14.2329215],[120.8169037,14.2335612],[120.8167883,14.2337103],[120.8162532,14.2345679],[120.8157713,14.2352296],[120.8153296,14.236034],[120.8147139,14.2363194],[120.8141651,14.2367735],[120.8138974,14.2373184],[120.8135092,14.2381747],[120.8135494,14.2386677],[120.8136565,14.2394851],[120.8134155,14.2399392],[120.8130356,14.2401231],[120.81267,14.2400701],[120.8123386,14.239834],[120.812006,14.2397282],[120.8113676,14.2401078],[120.8106448,14.2408214],[120.8105243,14.2415479],[120.8100444,14.2429012],[120.8099354,14.2432086],[120.8092661,14.2441037],[120.808689,14.2447422],[120.8083292,14.2453492],[120.8083841,14.2458688],[120.808222,14.2462223],[120.808165,14.2466133],[120.8079009,14.2469709],[120.8071195,14.2473397],[120.8067096,14.2478661],[120.8066293,14.2482423],[120.8065404,14.2486852],[120.8065546,14.2491032],[120.8063872,14.2492794],[120.8062777,14.249256],[120.8060931,14.2491842],[120.8057453,14.2491571],[120.8053544,14.2493026],[120.8045673,14.2499095],[120.8041453,14.2503465],[120.804018,14.2505843],[120.8038853,14.250798],[120.8035822,14.2511498],[120.8033994,14.2514302],[120.8032053,14.2516673],[120.8027956,14.2518866],[120.8023951,14.2519071],[120.8022316,14.2518644],[120.8020032,14.2517537],[120.8013702,14.2510655],[120.8011377,14.2507232],[120.8008376,14.2505796],[120.8004751,14.2505606],[120.7999099,14.2507591],[120.7992808,14.2509926],[120.7990143,14.251254],[120.7988833,14.2515871],[120.7987593,14.2526752],[120.7986517,14.2528478],[120.7982009,14.2529688],[120.7978197,14.2531369],[120.79728,14.2532364],[120.7970042,14.2533442],[120.7967013,14.2536092],[120.796528,14.253962],[120.7964803,14.2543241],[120.7965461,14.2546391],[120.796572,14.2550752],[120.7965087,14.255548],[120.7962826,14.2565321],[120.7962278,14.2573034],[120.7963037,14.2580475],[120.7964083,14.2583284],[120.796653,14.2584916],[120.7971119,14.2586644],[120.7972877,14.2589513],[120.7973638,14.2591993],[120.7974156,14.2593503],[120.7972842,14.2595346],[120.7970188,14.2597105],[120.7963837,14.2599904],[120.7959179,14.2601028],[120.7956668,14.2602106],[120.7956016,14.2603811],[120.7956298,14.2609046],[120.7956047,14.2617292],[120.7953888,14.2622117],[120.7953214,14.2624172],[120.7952919,14.2628995],[120.7950776,14.2631677],[120.7948567,14.2633485],[120.7946702,14.2634587],[120.7936017,14.2638452],[120.7932899,14.264054],[120.7929974,14.2645665],[120.7928639,14.2647416],[120.7927994,14.2649942],[120.7928144,14.2652931],[120.7928122,14.2655317],[120.7926665,14.2657731],[120.7924435,14.2659396],[120.7920788,14.2662577],[120.7916475,14.2664802],[120.7908715,14.2668381],[120.7904245,14.2668465],[120.7899775,14.267013],[120.7898017,14.2673694],[120.7897923,14.2675735],[120.7899095,14.2677842],[120.78987,14.2683034],[120.7896771,14.2687175],[120.789364,14.2690837],[120.7891542,14.2693144],[120.7890601,14.2693903],[120.7889488,14.2694079],[120.7888721,14.2691884],[120.7887888,14.2690828],[120.7886453,14.269077],[120.7875918,14.2695569],[120.787135,14.2697551],[120.7869989,14.2699228],[120.7867141,14.2700421],[120.786468,14.2700843],[120.7860589,14.2700841],[120.785476,14.2702418],[120.7850717,14.2704689],[120.7847167,14.2706876],[120.7842217,14.2709174],[120.7839147,14.271217],[120.7835752,14.2714829],[120.7832724,14.2714892],[120.783064,14.271537],[120.7828553,14.2717086],[120.7825608,14.2718106],[120.7823512,14.2717675],[120.7820608,14.2716826],[120.7817127,14.2717502],[120.7812567,14.271953],[120.7808168,14.2722337],[120.7806076,14.272478],[120.7804821,14.2727734],[120.7803433,14.272998],[120.7802388,14.2730957],[120.7800341,14.2731061],[120.7796844,14.2731097],[120.7792616,14.2731604],[120.7789976,14.2730844],[120.7788322,14.2729484],[120.778773,14.2726801],[120.7786689,14.2725737],[120.7784699,14.2726171],[120.7782359,14.2728923],[120.7781932,14.2731362],[120.7780656,14.2734075],[120.7780656,14.2737523],[120.7779382,14.274059],[120.7777413,14.2742519],[120.7774628,14.2743017],[120.7765909,14.2740551],[120.7763528,14.2740459],[120.7760475,14.274071],[120.7759972,14.2741126],[120.7757411,14.2743243],[120.7753684,14.2744552],[120.7750273,14.2744941],[120.7746481,14.2744553],[120.7744104,14.2742861],[120.7743692,14.2741839],[120.7743462,14.274127],[120.7742681,14.2738005],[120.774282,14.2734397],[120.7743205,14.2728747],[120.7743217,14.2726489],[120.7743026,14.2725987],[120.7742477,14.2724542],[120.774246,14.2724008],[120.7739655,14.2721894],[120.7737873,14.2721232],[120.773707,14.2721096],[120.7736833,14.2721056],[120.7735685,14.2721556],[120.7734624,14.2722579],[120.7732678,14.2724457],[120.7728176,14.2727143],[120.7727099,14.2727785],[120.7723047,14.272899],[120.7720015,14.2730402],[120.7717465,14.2730715],[120.7715021,14.2730509],[120.7708579,14.2729108],[120.7704417,14.2729672],[120.7697227,14.273132],[120.7692877,14.2731928],[120.7693127,14.2734732],[120.7693984,14.2737946],[120.7694413,14.2740302],[120.7694342,14.2742111],[120.7693575,14.2743409],[120.769246,14.2744452],[120.7691264,14.274518],[120.7688514,14.274785],[120.7678186,14.2757329],[120.7664816,14.2769818],[120.7660809,14.2772665],[120.7654948,14.2778754],[120.7652413,14.2780726],[120.7650908,14.2782694],[120.7643785,14.2788549],[120.7642544,14.2791279],[120.7641826,14.2792837],[120.7640543,14.2794188],[120.7639108,14.2795039],[120.763776,14.2795951],[120.763675,14.2797214],[120.7635315,14.2798064],[120.7633924,14.2797839],[120.7632886,14.2799191],[120.7631636,14.2799994],[120.7622655,14.2808422],[120.7613387,14.2817137],[120.7609406,14.2820129],[120.75956,14.2832441],[120.7589546,14.2837332],[120.7566368,14.2863695],[120.7508336,14.2905201],[120.7502133,14.2910548],[120.7497167,14.2913899],[120.7495109,14.2914224],[120.749514,14.2915064],[120.7491484,14.2917327],[120.7486791,14.2921339],[120.7477652,14.2927281],[120.7471304,14.2932286],[120.7466457,14.2937396],[120.7461916,14.2941201],[120.7457752,14.2945435],[120.7452663,14.2949489],[120.7435529,14.2965416],[120.7408123,14.293115],[120.7352629,14.286043],[120.7346789,14.285377],[120.7298704,14.2798934],[120.7281368,14.2760875],[120.7276601,14.2766629],[120.7272464,14.2772158],[120.7269509,14.2775512],[120.7265738,14.2778846],[120.7262107,14.2782025],[120.725737,14.2785165],[120.725348,14.2787216],[120.7248936,14.2789231],[120.7240599,14.279187],[120.7234441,14.2794],[120.7230011,14.2795066],[120.7225263,14.2795949],[120.7220194,14.2796339],[120.7214486,14.2796848],[120.7208204,14.2797379],[120.720146,14.2797709],[120.7188333,14.279791],[120.7181723,14.2798016],[120.7178351,14.2795481],[120.7170573,14.2789633],[120.7130608,14.2764445],[120.7092061,14.2727964],[120.6981182,14.2625981],[120.6662165,14.2377981],[120.6640096,14.2350937],[120.6614879,14.2325332],[120.6493415,14.2274645],[120.645641,14.228667],[120.6455016,14.2291425],[120.6452972,14.2296162],[120.6449973,14.23009],[120.6439544,14.2314671],[120.6436993,14.2320085],[120.6434981,14.2326021],[120.6434139,14.233126],[120.6433477,14.2335802],[120.6433241,14.2341226],[120.6433779,14.234587],[120.6432908,14.2349755],[120.6431635,14.2353426],[120.6430791,14.2356876],[120.643026,14.2359643],[120.6429491,14.2362151],[120.642878,14.2364268],[120.6428306,14.2366385],[120.6427804,14.2368769],[120.6427063,14.2370577],[120.6425939,14.237339],[120.6420597,14.2383431],[120.6416645,14.2388636],[120.6413911,14.2392216],[120.6411266,14.2397268],[120.640903,14.2402716],[120.640749,14.2406408],[120.6405641,14.2409298],[120.6404628,14.2411272],[120.6402686,14.2413096],[120.640002,14.2414619],[120.6397282,14.2417007],[120.6395799,14.2419524],[120.6394672,14.2422961],[120.6393011,14.2425809],[120.639137,14.2428266],[120.6389313,14.2430665],[120.6387489,14.2434097],[120.6384121,14.2437644],[120.6378098,14.2442609],[120.6372959,14.2444661],[120.636839,14.245075],[120.6366206,14.2454376],[120.6364229,14.2458903],[120.6362492,14.2462168],[120.6359617,14.2465033],[120.6356382,14.2467197],[120.6354283,14.246926],[120.6350673,14.2473337],[120.6348407,14.2477213],[120.6345986,14.2479938],[120.6343306,14.2482913],[120.6340797,14.2486016],[120.633913,14.2487617],[120.6337772,14.2489819],[120.6336492,14.2491721],[120.6335728,14.2493723],[120.6335153,14.2495863],[120.6335094,14.2497903],[120.6333064,14.2502383],[120.6328537,14.2511192],[120.6327622,14.2517807],[120.63275,14.2521273],[120.6328209,14.2524855],[120.6328588,14.2529807],[120.6327662,14.2534529],[120.6326528,14.2538382],[120.6325393,14.2541774],[120.6324084,14.2544178],[120.6320795,14.2548184],[120.6316989,14.2551189],[120.6313895,14.2553906],[120.6310253,14.255594],[120.6305788,14.2557883],[120.6301988,14.2559446],[120.6299363,14.2560858],[120.6296293,14.2564122],[120.6294553,14.256769],[120.6289207,14.2577835],[120.6287619,14.2581734],[120.6286505,14.2585404],[120.6286014,14.258821],[120.6285109,14.2591017],[120.6283889,14.2594862],[120.6281843,14.2598908],[120.6279029,14.2603517],[120.627764,14.2607551],[120.6275402,14.2610401],[120.6272452,14.2613482],[120.6268452,14.2615733],[120.6263347,14.2616811],[120.625848,14.2616717],[120.6253435,14.2617371],[120.6249458,14.2618218],[120.6246134,14.2619354],[120.6243956,14.2621391],[120.6242686,14.2624162],[120.6242051,14.2626874],[120.6241778,14.2630738],[120.6242289,14.2634425],[120.6241767,14.2637911],[120.6240805,14.2642398],[120.6239686,14.2645324],[120.6238294,14.2647787],[120.6237687,14.2650513],[120.6237626,14.2652446],[120.6237061,14.2655103],[120.6236242,14.2657412],[120.6234869,14.265978],[120.623261,14.2662279],[120.6231297,14.2664635],[120.6229477,14.2667426],[120.6198001,14.2725668],[120.622248,14.2894341],[120.5982285,14.3023584],[120.5699921,14.3175317],[120.5560682,14.3106513],[120.5341481,14.2998815],[120.5231881,14.2947956],[120.4502098,14.2596201],[120.4498781,14.2577956],[120.4491086,14.2522004],[120.4487978,14.2488877]]]]}}]}