{"type":"FeatureCollection","features":[{"type":"Feature","properties":{"name":"Noveleta"},"geometry":{"type":"MultiPolygon","coordinates":[[[[120.8220402,14.4748807],[120.8544831,14.4438092],[120.8632227,14.436051],[120.870557,14.4308091],[120.8706244,14.4308105],[120.8707781,14.4309057],[120.8708468,14.4309897],[120.8709277,14.4310658],[120.8709848,14.4310895],[120.8710553,14.431095],[120.8712819,14.4310119],[120.8715229,14.4307386],[120.8716826,14.4303158],[120.8719004,14.4297975],[120.8720078,14.4296666],[120.8721584,14.4295834],[120.8724935,14.4294648],[120.8726207,14.4293789],[120.8732008,14.4295268],[120.8734966,14.4296609],[120.8736617,14.4297858],[120.8737811,14.4298115],[120.8738456,14.4298078],[120.8739063,14.4296976],[120.8739917,14.4295158],[120.8740068,14.4293836],[120.8739632,14.4292789],[120.873821,14.4291889],[120.8735934,14.4291135],[120.8734834,14.4290805],[120.8733961,14.4290088],[120.8733563,14.4289574],[120.8733616,14.4288833],[120.873123,14.4287297],[120.8730054,14.4284762],[120.8727551,14.4281456],[120.8726261,14.4277525],[120.8724326,14.427646],[120.8722471,14.4269569],[120.8720875,14.4264636],[120.8721687,14.4264367],[120.8722358,14.4263973],[120.8723049,14.4263441],[120.8722378,14.4262536],[120.8724309,14.4261394],[120.8726963,14.4259669],[120.872881,14.4256284],[120.8728563,14.425609],[120.8729765,14.4253718],[120.8729939,14.4253375],[120.8729057,14.4252799],[120.8729344,14.4252471],[120.8730647,14.4251138],[120.8732263,14.4249859],[120.8733338,14.4248911],[120.8734417,14.4247848],[120.8736966,14.4244832],[120.8737517,14.4244286],[120.8738207,14.4244474],[120.8738411,14.4242836],[120.8739457,14.4242964],[120.873977,14.4242014],[120.8741304,14.4238671],[120.8743419,14.4234665],[120.8745451,14.4230671],[120.8744881,14.4230448],[120.8747714,14.4225483],[120.8749672,14.422132],[120.8750635,14.4219061],[120.8751741,14.4216468],[120.8754225,14.4217796],[120.8765395,14.4222626],[120.8765635,14.4221063],[120.8766366,14.4218309],[120.8767641,14.4214107],[120.8768905,14.4210389],[120.8771275,14.4203416],[120.8772484,14.4198214],[120.8772392,14.4194769],[120.8772267,14.4192685],[120.8789002,14.4190833],[120.8787293,14.4183129],[120.8785887,14.4176125],[120.8785991,14.4175012],[120.879221,14.4175074],[120.8801867,14.417517],[120.8805736,14.4174445],[120.8808368,14.4175193],[120.8811119,14.4175504],[120.8815668,14.4175713],[120.882456,14.4175466],[120.8834661,14.4174342],[120.8837043,14.4174092],[120.883873,14.4173886],[120.8841665,14.4173626],[120.8842441,14.4173431],[120.8843177,14.4173202],[120.8843496,14.4173102],[120.884412,14.4172852],[120.8844561,14.4173584],[120.8846557,14.417561],[120.8847972,14.4177111],[120.8849386,14.4178563],[120.8850303,14.4177377],[120.8851248,14.4176621],[120.8853133,14.4175834],[120.8855272,14.4175011],[120.885761,14.417421],[120.8859573,14.4173488],[120.8860684,14.4172894],[120.8861518,14.4172319],[120.8862164,14.4171644],[120.8862564,14.4170682],[120.8862942,14.4169579],[120.8863293,14.4168119],[120.8863637,14.4165746],[120.8863953,14.4163412],[120.8864247,14.4161003],[120.8864616,14.4159408],[120.8864909,14.4158411],[120.886552,14.4157444],[120.8866282,14.415657],[120.8866976,14.4156148],[120.8867844,14.4155778],[120.8868693,14.4155563],[120.8869927,14.4155342],[120.8870892,14.4155031],[120.8871944,14.4154522],[120.8872802,14.4153893],[120.887339,14.4153091],[120.8873829,14.4151991],[120.8874178,14.4150978],[120.8874272,14.4150355],[120.8874632,14.4149138],[120.8876653,14.4149683],[120.8879257,14.4151298],[120.8888237,14.4155236],[120.888861,14.4155507],[120.888882,14.4156163],[120.888826,14.4157226],[120.8885605,14.4161338],[120.8883305,14.4164011],[120.8884784,14.4165389],[120.8882596,14.4167179],[120.8880871,14.416882],[120.8877235,14.4175684],[120.8877243,14.4176482],[120.8875826,14.4176601],[120.8875922,14.4180428],[120.8876943,14.4185523],[120.8863073,14.4188522],[120.886344,14.4190953],[120.8863464,14.4193825],[120.8863137,14.4196946],[120.8862613,14.4198633],[120.8870774,14.4200839],[120.886984,14.4203259],[120.8871171,14.4203869],[120.8872651,14.420552],[120.8873972,14.4206111],[120.8874867,14.420678],[120.8874231,14.4208958],[120.8872622,14.421288],[120.8872005,14.4214854],[120.8870941,14.421696],[120.8887609,14.4223732],[120.888552,14.4230308],[120.889525,14.4234617],[120.8894821,14.4235682],[120.889635,14.4236357],[120.8895022,14.4241975],[120.8895277,14.4242862],[120.8895113,14.4243039],[120.8893292,14.4244977],[120.8892207,14.4246154],[120.889044,14.4247941],[120.8889483,14.4249365],[120.8888806,14.4251174],[120.8888035,14.4251808],[120.8886704,14.4252622],[120.8886797,14.4253775],[120.8887661,14.4257122],[120.8888549,14.4258931],[120.8889086,14.4260559],[120.8887848,14.4262549],[120.888584,14.4265195],[120.8885761,14.4265347],[120.8884789,14.4267208],[120.8883038,14.4268926],[120.8880726,14.4270667],[120.8879769,14.427259],[120.8879279,14.4274263],[120.8878788,14.4277022],[120.8878485,14.4279464],[120.8877588,14.4281952],[120.8876495,14.4284983],[120.8876223,14.4285736],[120.8875831,14.4286469],[120.8874446,14.4290723],[120.8871979,14.429524],[120.8869959,14.4297782],[120.8869039,14.4301294],[120.886892,14.4304698],[120.8868836,14.4309411],[120.8870019,14.4312356],[120.8876987,14.4317357],[120.887764,14.4317884],[120.8878182,14.4318301],[120.8878074,14.4319034],[120.8875707,14.432638],[120.887507,14.4327466],[120.8873919,14.4328779],[120.8873717,14.4329745],[120.8873712,14.4330968],[120.8873625,14.4332382],[120.8873703,14.4334052],[120.8873463,14.4336753],[120.8872517,14.4337734],[120.8873352,14.4338712],[120.8872002,14.4340051],[120.8870398,14.4345158],[120.8860923,14.4342626],[120.8859646,14.4346864],[120.885852,14.4350462],[120.8855539,14.4358859],[120.8854486,14.4362646],[120.8854184,14.4367006],[120.8854843,14.4373765],[120.8855159,14.437842],[120.8855241,14.4379628],[120.8855404,14.4381874],[120.8855936,14.4384],[120.8857725,14.4387677],[120.8859912,14.4391375],[120.8859694,14.4398778],[120.8859624,14.4399343],[120.885867,14.4409394],[120.8857249,14.4424016],[120.8854899,14.4442645],[120.8854786,14.4443537],[120.8854754,14.4443793],[120.8846604,14.4477089],[120.8845397,14.4496398],[120.8845063,14.4501065],[120.8844835,14.4506779],[120.8844928,14.4511883],[120.8844955,14.4513207],[120.8845073,14.4514532],[120.8845263,14.4515844],[120.8845559,14.4517205],[120.8845954,14.4518467],[120.8846451,14.4519714],[120.8847067,14.4521012],[120.8847705,14.4522155],[120.8848516,14.4523382],[120.8850542,14.4526585],[120.8854397,14.4533264],[120.8855362,14.4535388],[120.8855925,14.4536934],[120.8856441,14.4538633],[120.8849971,14.4541139],[120.884805,14.4541975],[120.8845136,14.4543363],[120.8815401,14.4560281],[120.880181,14.456591],[120.8793986,14.4568891],[120.8787809,14.4570635],[120.8786038,14.4571007],[120.8633262,14.4619593],[120.8220402,14.4748807]]]]}}]}