{"type":"FeatureCollection","features":[{"type":"Feature","properties":{"name":"Rosario"},"geometry":{"type":"MultiPolygon","coordinates":[[[[120.7331116,14.4694375],[120.8448729,14.4110284],[120.8451607,14.4104742],[120.8454486,14.4099851],[120.8458053,14.4094318],[120.8460494,14.4089563],[120.8461513,14.4086965],[120.8463927,14.4083172],[120.8464376,14.4082708],[120.8467146,14.4079847],[120.8469393,14.4077428],[120.8472207,14.4074018],[120.8474101,14.4071572],[120.8476587,14.4068832],[120.8478695,14.406685],[120.8481649,14.4065005],[120.8485813,14.4062694],[120.849109,14.4060725],[120.8495682,14.405913],[120.8501849,14.4057857],[120.8506866,14.4056775],[120.8513018,14.405524],[120.8518527,14.4053928],[120.8523569,14.4052553],[120.8530152,14.4050353],[120.8533352,14.404883],[120.8537222,14.4046337],[120.8540129,14.4043475],[120.8542033,14.404036],[120.854332,14.4036826],[120.8545252,14.4030384],[120.8547612,14.4025603],[120.8549382,14.4022018],[120.8551166,14.4020252],[120.8553727,14.4019135],[120.8557067,14.4018706],[120.8558898,14.4018715],[120.8560728,14.4019447],[120.8564483,14.4022226],[120.856907,14.402498],[120.8571227,14.4025568],[120.8574038,14.4025522],[120.8576128,14.4025125],[120.8579152,14.4024094],[120.8581773,14.4022724],[120.8584607,14.4020685],[120.8586321,14.4019414],[120.8587911,14.4017803],[120.8589665,14.4016315],[120.8591061,14.4015001],[120.8593502,14.4012461],[120.8595463,14.4010224],[120.8597256,14.4007788],[120.8598417,14.4005449],[120.8603888,14.4007069],[120.8612762,14.4010378],[120.8613412,14.4010613],[120.8615626,14.4011293],[120.8615407,14.4012126],[120.862064,14.401377],[120.8625334,14.4014887],[120.8632714,14.4016778],[120.8641894,14.4019295],[120.8646789,14.4020378],[120.8651179,14.4004784],[120.8659415,14.4007273],[120.8667622,14.4008771],[120.866798,14.400882],[120.8668159,14.4008847],[120.8671655,14.4009318],[120.8675832,14.4010061],[120.8672993,14.4019191],[120.8672923,14.4020562],[120.8671807,14.4025121],[120.8671228,14.4027735],[120.8669441,14.4035022],[120.8668263,14.4041117],[120.8671268,14.4042629],[120.8673763,14.4038729],[120.8683106,14.4044653],[120.8682496,14.4045508],[120.8690978,14.4050996],[120.8700839,14.4036753],[120.8705547,14.404009],[120.8701169,14.4046389],[120.8709381,14.4047252],[120.8708161,14.4057468],[120.8708879,14.4057527],[120.8711816,14.4057798],[120.8721024,14.4058691],[120.8720058,14.4068329],[120.8720756,14.4068394],[120.8719607,14.407848],[120.8719822,14.40785],[120.873034,14.4079574],[120.872964,14.408616],[120.8739765,14.4087188],[120.8741889,14.4068966],[120.875707,14.4070544],[120.8754152,14.4076082],[120.8754633,14.4080536],[120.8756417,14.4094499],[120.8753686,14.4102986],[120.8754255,14.4104749],[120.8754615,14.4107578],[120.8752889,14.4118379],[120.8747958,14.4124],[120.8745083,14.4147107],[120.8745085,14.4147826],[120.8757611,14.4148685],[120.8759218,14.4136186],[120.876851,14.4135779],[120.876873,14.4138499],[120.8778487,14.4138049],[120.8776917,14.415156],[120.8776677,14.4153625],[120.8793229,14.4154057],[120.879221,14.4175074],[120.8785991,14.4175012],[120.8785887,14.4176125],[120.8787293,14.4183129],[120.8789002,14.4190833],[120.8772267,14.4192685],[120.8772392,14.4194769],[120.8772484,14.4198214],[120.8771275,14.4203416],[120.8768905,14.4210389],[120.8767641,14.4214107],[120.8766366,14.4218309],[120.8765635,14.4221063],[120.8765395,14.4222626],[120.8754225,14.4217796],[120.8751741,14.4216468],[120.8750635,14.4219061],[120.8749672,14.422132],[120.8747714,14.4225483],[120.8744881,14.4230448],[120.8745451,14.4230671],[120.8743419,14.4234665],[120.8741304,14.4238671],[120.873977,14.4242014],[120.8739457,14.4242964],[120.8738411,14.4242836],[120.8738207,14.4244474],[120.8737517,14.4244286],[120.8736966,14.4244832],[120.8734417,14.4247848],[120.8733338,14.4248911],[120.8732263,14.4249859],[120.8730647,14.4251138],[120.8729344,14.4252471],[120.8729057,14.4252799],[120.8729939,14.4253375],[120.8729765,14.4253718],[120.8728563,14.425609],[120.872881,14.4256284],[120.8726963,14.4259669],[120.8724309,14.4261394],[120.8722378,14.4262536],[120.8723049,14.4263441],[120.8722358,14.4263973],[120.8721687,14.4264367],[120.8720875,14.4264636],[120.8722471,14.4269569],[120.8724326,14.427646],[120.8726261,14.4277525],[120.8727551,14.4281456],[120.8730054,14.4284762],[120.873123,14.4287297],[120.8733616,14.4288833],[120.8733563,14.4289574],[120.8733961,14.4290088],[120.8734834,14.4290805],[120.8735934,14.4291135],[120.873821,14.4291889],[120.8739632,14.4292789],[120.8740068,14.4293836],[120.8739917,14.4295158],[120.8739063,14.4296976],[120.8738456,14.4298078],[120.8737811,14.4298115],[120.8736617,14.4297858],[120.8734966,14.4296609],[120.8732008,14.4295268],[120.8726207,14.4293789],[120.8724935,14.4294648],[120.8721584,14.4295834],[120.8720078,14.4296666],[120.8719004,14.4297975],[120.8716826,14.4303158],[120.8715229,14.4307386],[120.8712819,14.4310119],[120.8710553,14.431095],[120.8709848,14.4310895],[120.8709277,14.4310658],[120.8708468,14.4309897],[120.8707781,14.4309057],[120.8706244,14.4308105],[120.870557,14.4308091],[120.8632227,14.436051],[120.8544831,14.4438092],[120.8220402,14.4748807],[120.7538245,14.5187443],[120.7535634,14.5184933],[120.7533701,14.5183329],[120.7508757,14.5160941],[120.7505791,14.5153585],[120.7504448,14.5150003],[120.7448959,14.5015828],[120.7392922,14.4873219],[120.7363049,14.4786023],[120.7331116,14.4694375]]]]}}]}