{"type": "FeatureCollection", "features": [{"type": "Feature", "properties": {"name": "Tagaytay"}, "geometry": {"type": "Polygon", "coordinates": [[[120.8853104, 14.1090583], [120.886234, 14.1070497], [120.8869708, 14.1055411], [120.8882768, 14.1029965], [120.8888577, 14.1018244], [120.890613, 14.098219], [120.8901585, 14.0980216], [120.8903742, 14.097911], [120.8905841, 14.0977661], [120.8907672, 14.0976309], [120.8909364, 14.0974848], [120.8922885, 14.0945388], [120.8920164, 14.0943721], [120.8922793, 14.0938544], [120.8924885, 14.0935774], [120.8925877, 14.0934226], [120.8928224, 14.0931364], [120.8930826, 14.0927852], [120.8932771, 14.0925589], [120.8931615, 14.0924817], [120.8930078, 14.0923792], [120.8927581, 14.0923469], [120.8928157, 14.0920399], [120.8926757, 14.0920113], [120.8928153, 14.0916444], [120.8929086, 14.0913712], [120.8929861, 14.0910955], [120.8931309, 14.0905375], [120.8933513, 14.0897141], [120.8934443, 14.0893637], [120.8936794, 14.0880296], [120.893692, 14.087958], [120.8937206, 14.0878767], [120.8937523, 14.0878233], [120.8938093, 14.0877609], [120.8938003, 14.0877228], [120.8937084, 14.0873288], [120.893829, 14.0870648], [120.8943588, 14.0871259], [120.8948946, 14.0873242], [120.8957853, 14.0867414], [120.8959292, 14.0863762], [120.9009918, 14.0764655], [120.912011, 14.0782258], [120.9169465, 14.0791938], [120.9218743, 14.0802224], [120.9245057, 14.0808463], [120.926032, 14.0812887], [120.9299611, 14.082115], [120.9339866, 14.0829185], [120.9429258, 14.0844657], [120.9456213, 14.0850336], [120.9516203, 14.0884649], [120.9573651, 14.0915913], [120.960117, 14.0930018], [120.966674, 14.0963626], [120.9704047, 14.098327], [120.972816, 14.0998725], [120.9795128, 14.1041647], [120.9942903, 14.1136357], [121.0032179, 14.118648], [121.0076668, 14.1210364], [121.0103054, 14.122725], [121.014849, 14.1256551], [121.0157697, 14.1268548], [121.0273213, 14.1333768], [121.0346767, 14.1360505], [121.0363751, 14.1391423], [121.0400585, 14.1422706], [121.0417949, 14.1420674], [121.0480774, 14.1444752], [121.0467211, 14.1500003], [121.0446373, 14.1544415], [121.0427285, 14.1549482], [121.0426158, 14.1547959], [121.0423002, 14.1543697], [121.0421277, 14.1541368], [121.041971, 14.1538944], [121.0417253, 14.1533995], [121.0416204, 14.1530468], [121.0364062, 14.1526931], [121.035226, 14.1527763], [121.0337669, 14.1528387], [121.0325223, 14.1530676], [121.0312956, 14.1537413], [121.030207, 14.1547062], [121.0292852, 14.157653], [121.0262378, 14.1570904], [121.0227582, 14.1561258], [121.0222517, 14.1559903], [121.0151983, 14.1556988], [121.0136667, 14.1553234], [121.0135264, 14.1552704], [121.0103622, 14.154075], [121.0050032, 14.1526147], [121.0016343, 14.1504092], [121.0010275, 14.1469113], [120.9981415, 14.1465784], [120.9968754, 14.1462038], [120.9895584, 14.1442271], [120.9825203, 14.1424169], [120.9694634, 14.1374919], [120.9644508, 14.1358864], [120.9630835, 14.13541], [120.9600209, 14.134417], [120.9594693, 14.1341575], [120.9579336, 14.1336671], [120.9565827, 14.1332438], [120.9551416, 14.1327652], [120.9512168, 14.1313775], [120.9471262, 14.1299826], [120.9446756, 14.1291482], [120.9407146, 14.1278245], [120.9407629, 14.1275813], [120.9397531, 14.1272496], [120.9397086, 14.127308], [120.9396619, 14.1273693], [120.9395827, 14.1274239], [120.9394406, 14.1274694], [120.9393747, 14.127494], [120.9381652, 14.1270207], [120.9342961, 14.1256643], [120.9342742, 14.1257335], [120.9333614, 14.1253755], [120.9307355, 14.1244522], [120.9289863, 14.1239571], [120.9286631, 14.1238656], [120.9264453, 14.1231243], [120.9239631, 14.1222179], [120.9228659, 14.1218172], [120.920822, 14.1211123], [120.9206477, 14.1210082], [120.9182914, 14.1202775], [120.9181881, 14.1202084], [120.9180665, 14.1201446], [120.9179462, 14.1200482], [120.9114672, 14.1180148], [120.9103596, 14.1176421], [120.909983, 14.117511], [120.9098674, 14.1174705], [120.909841, 14.1174612], [120.9067623, 14.1163829], [120.9066756, 14.1163525], [120.9066486, 14.1163431], [120.9038066, 14.1154046], [120.9034513, 14.1152967], [120.9020361, 14.1148401], [120.8963964, 14.1129179], [120.8927862, 14.1117312], [120.888181, 14.1100911], [120.8853104, 14.1090583]]]}}]}