{"type":"FeatureCollection","features":[{"type":"Feature","properties":{"name":"Tanza"},"geometry":{"type":"Polygon","coordinates":[[[120.7087679,14.4060311],[120.7807088,14.3482434],[120.7809672,14.3480805],[120.7810393,14.3479588],[120.781086,14.3476923],[120.7811646,14.3473091],[120.7813166,14.3468585],[120.7813945,14.3467008],[120.7815261,14.3465534],[120.7816984,14.3463937],[120.7819243,14.3462548],[120.7821368,14.346147],[120.782403,14.3460601],[120.7831285,14.3459316],[120.7839184,14.3458342],[120.7846087,14.3457313],[120.7857458,14.3457039],[120.7870879,14.3450597],[120.7878283,14.3446216],[120.7880925,14.3446122],[120.7881843,14.3447785],[120.788094,14.3451283],[120.7878551,14.3458253],[120.7878283,14.3461972],[120.7879516,14.3464027],[120.7883078,14.3465123],[120.7887325,14.3464164],[120.7900341,14.3458546],[120.791363,14.345471],[120.7926523,14.3451516],[120.7933769,14.345197],[120.7943771,14.3455121],[120.7955938,14.3461895],[120.7961412,14.3464123],[120.7963949,14.3463513],[120.7965673,14.3461904],[120.7967267,14.3460226],[120.797458,14.3452122],[120.7981403,14.3445312],[120.7987518,14.3439085],[120.7992913,14.3436167],[120.8003367,14.343433],[120.8007714,14.3433353],[120.8010322,14.3432766],[120.8017289,14.3429359],[120.8025286,14.3423517],[120.8027983,14.34214],[120.8028518,14.3420111],[120.8027051,14.3417937],[120.8026954,14.341446],[120.8026996,14.3414373],[120.8028409,14.3411433],[120.8031196,14.3408551],[120.8038423,14.3402943],[120.8039182,14.3402354],[120.8044833,14.3397724],[120.8044872,14.3397698],[120.8048719,14.3395199],[120.8051102,14.3393541],[120.8053693,14.3391739],[120.8054956,14.3388912],[120.8056328,14.3385115],[120.8056675,14.338463],[120.8060777,14.3378901],[120.8061413,14.3378013],[120.8063104,14.337438],[120.8065007,14.337244],[120.8065163,14.3372401],[120.8066587,14.3372045],[120.8068311,14.3372225],[120.8070377,14.3372424],[120.8070538,14.337244],[120.8071759,14.3371758],[120.8073555,14.3370573],[120.8073706,14.3370387],[120.8074956,14.3368849],[120.8076213,14.3366155],[120.8077721,14.3364575],[120.8078438,14.3363929],[120.8078798,14.3363605],[120.80816,14.3362743],[120.8081683,14.3362739],[120.8084006,14.3362635],[120.8086556,14.336242],[120.8090399,14.3361271],[120.8094601,14.336005],[120.8097366,14.3359367],[120.8098444,14.3358218],[120.8098839,14.3357212],[120.8099018,14.3355776],[120.8100275,14.33538],[120.8103615,14.3350784],[120.8106237,14.3348772],[120.8110116,14.3346797],[120.8112127,14.3345612],[120.8114893,14.3343852],[120.8117012,14.3344139],[120.8119741,14.3342344],[120.812204,14.3338106],[120.8124554,14.3335412],[120.8125739,14.3331677],[120.812714,14.3328624],[120.812969,14.3324027],[120.8129977,14.3319215],[120.8129833,14.331451],[120.8128935,14.3311888],[120.8127571,14.3309482],[120.8126924,14.3306896],[120.812775,14.3303017],[120.8128971,14.3298456],[120.8129582,14.3296229],[120.813109,14.3295511],[120.8134035,14.3295511],[120.8136154,14.3296014],[120.8138417,14.3295762],[120.8140679,14.3294972],[120.8142008,14.3293464],[120.8144271,14.3291955],[120.814621,14.3290447],[120.8149766,14.3288974],[120.8152029,14.3287717],[120.8155764,14.3286999],[120.8158421,14.3286173],[120.8161223,14.3285742],[120.816337,14.3282625],[120.8165435,14.3281772],[120.8167366,14.3281413],[120.8170733,14.328038],[120.8175536,14.3277687],[120.8178634,14.3273646],[120.8178454,14.3271536],[120.817814,14.326579],[120.8177332,14.3263456],[120.8177197,14.3261884],[120.8178499,14.3259685],[120.8179083,14.3257485],[120.8181911,14.3254432],[120.8184335,14.3253983],[120.8187388,14.3252187],[120.8187613,14.3250033],[120.8187298,14.3247743],[120.8185907,14.3245992],[120.8185547,14.3244107],[120.8185547,14.324276],[120.8186445,14.3241323],[120.8188645,14.3240695],[120.8191078,14.3240185],[120.8193327,14.3238241],[120.8195625,14.3235323],[120.8197832,14.3233618],[120.820001,14.3231927],[120.8203778,14.3229443],[120.8205871,14.3226928],[120.8206699,14.3222722],[120.8206513,14.3219146],[120.8204852,14.3216183],[120.8203595,14.321331],[120.8202577,14.3212259],[120.8202168,14.3209615],[120.8204173,14.3205843],[120.8206312,14.3205547],[120.8208944,14.3203773],[120.821296,14.3199755],[120.8212843,14.3196699],[120.8213561,14.3194679],[120.8214414,14.3193377],[120.8216126,14.3192414],[120.8218538,14.3192699],[120.8219958,14.3192173],[120.8221407,14.3190955],[120.8221552,14.3188035],[120.8221791,14.3184836],[120.8221051,14.3182853],[120.8221265,14.3180693],[120.822265,14.3179038],[120.82245,14.3177902],[120.8226944,14.3177726],[120.8230619,14.3176015],[120.8229623,14.3172993],[120.8227323,14.3166017],[120.8225792,14.3161253],[120.821972,14.3141816],[120.8218824,14.3139179],[120.8216217,14.313243],[120.8215155,14.3129779],[120.8212446,14.312301],[120.8211534,14.3120733],[120.8208775,14.3113839],[120.8207765,14.3111317],[120.8204904,14.3104231],[120.8203992,14.3101901],[120.8201404,14.309502],[120.8200439,14.3092496],[120.819783,14.3085823],[120.8197138,14.3084053],[120.8196246,14.3081773],[120.8193814,14.30768],[120.8192685,14.3074448],[120.8180903,14.3048769],[120.8179826,14.3046455],[120.8176594,14.3039508],[120.8175779,14.3037755],[120.8170618,14.3026662],[120.8169632,14.3024542],[120.8166156,14.3017072],[120.8163527,14.301748],[120.8149914,14.3019611],[120.8148735,14.3019821],[120.8147898,14.3018345],[120.8143855,14.3011211],[120.8141953,14.3007855],[120.8141084,14.3008255],[120.8139274,14.300767],[120.8137551,14.300642],[120.8136487,14.300495],[120.8135921,14.3003489],[120.8136084,14.3000625],[120.8134947,14.299839],[120.8132721,14.2997097],[120.8131347,14.2997004],[120.8128574,14.2997069],[120.8126793,14.2996663],[120.8125372,14.2994394],[120.8124684,14.2991713],[120.8124749,14.2989508],[120.8124513,14.2987221],[120.8123006,14.2985019],[120.8126343,14.2982251],[120.8127879,14.2980301],[120.81285,14.2975747],[120.8126538,14.2970498],[120.8125778,14.2966925],[120.8126252,14.2965076],[120.812924,14.2962131],[120.8134584,14.2958244],[120.8137215,14.2956626],[120.8140912,14.2955301],[120.8144786,14.2952997],[120.8148187,14.2949402],[120.8149062,14.2946292],[120.8149159,14.2938907],[120.8147507,14.293094],[120.8146438,14.2925692],[120.8145272,14.2922486],[120.8144981,14.2918502],[120.814571,14.2909698],[120.8147799,14.2903247],[120.8149256,14.2900137],[120.8152882,14.2897341],[120.8155281,14.2898291],[120.815774,14.2901976],[120.8159634,14.2903089],[120.8161416,14.2904356],[120.8162684,14.2904242],[120.8163151,14.2902372],[120.8163443,14.2897319],[120.8163267,14.2894848],[120.8163719,14.2893728],[120.8165267,14.289296],[120.8168551,14.2891878],[120.8171022,14.2890323],[120.8172774,14.2888574],[120.8173063,14.2886825],[120.8169467,14.2880995],[120.8168406,14.2879467],[120.8167038,14.2877497],[120.8165483,14.2874193],[120.8166455,14.2871667],[120.8169759,14.2869918],[120.8173937,14.2868946],[120.8180253,14.2865642],[120.818346,14.2860492],[120.8188998,14.2855051],[120.8191525,14.2852039],[120.8192593,14.2848638],[120.8193079,14.2846597],[120.8198035,14.2845237],[120.8206743,14.2839137],[120.8212877,14.2838028],[120.8217634,14.2833938],[120.8221544,14.282696],[120.8224327,14.2823056],[120.822933,14.2821102],[120.823577,14.2821723],[120.8239237,14.2819496],[120.8244006,14.2817584],[120.8248502,14.2816912],[120.8251901,14.2814034],[120.8255715,14.2812122],[120.8261317,14.2812417],[120.8268515,14.2814058],[120.8269142,14.2818617],[120.8272101,14.28199],[120.8273803,14.2820639],[120.8276584,14.2822125],[120.8284081,14.282613],[120.8285884,14.282676],[120.8288297,14.2826879],[120.8291497,14.2826721],[120.8294862,14.2826174],[120.8294888,14.282617],[120.8298011,14.2826408],[120.8300435,14.2826016],[120.8302438,14.2821371],[120.8312336,14.2825972],[120.8319712,14.2828311],[120.8326971,14.2830063],[120.8330603,14.2831042],[120.8332019,14.2827919],[120.834067,14.2830542],[120.8337999,14.2836359],[120.8342495,14.2837658],[120.8347822,14.2838987],[120.8348062,14.2841707],[120.8349053,14.2844426],[120.8351572,14.284451],[120.8353233,14.2846259],[120.8377674,14.286448],[120.8379252,14.2865764],[120.8379405,14.2867352],[120.8379328,14.2869162],[120.8378414,14.2871451],[120.8375451,14.2872978],[120.8373806,14.2874462],[120.8372484,14.2874487],[120.8371909,14.287426],[120.83715,14.2882004],[120.837054,14.2894046],[120.83707,14.2901168],[120.8370553,14.2904196],[120.8370405,14.2914086],[120.8371395,14.2929574],[120.8371425,14.2992542],[120.8372006,14.2995333],[120.8372515,14.2998022],[120.8373995,14.3001203],[120.8374367,14.3001877],[120.8373881,14.3002966],[120.8372403,14.3007459],[120.83713,14.3010394],[120.8372659,14.3011627],[120.8374302,14.3012586],[120.837249,14.301571],[120.8375353,14.301785],[120.8375167,14.3026224],[120.8374876,14.3032257],[120.8374164,14.3035743],[120.8372882,14.3039071],[120.8376927,14.3043699],[120.8381053,14.3048406],[120.8384773,14.305154],[120.839032,14.3053953],[120.8394342,14.3055604],[120.8395912,14.3056506],[120.8396766,14.3058163],[120.8397976,14.3060577],[120.8397762,14.3062164],[120.8398354,14.3063587],[120.8402726,14.3067808],[120.8405941,14.307105],[120.8405336,14.307343],[120.8405339,14.3074533],[120.8404664,14.3075337],[120.840485,14.3076321],[120.8404605,14.3077305],[120.8408689,14.3079976],[120.8410338,14.3080408],[120.8417609,14.3086988],[120.8420846,14.3086732],[120.8422319,14.3085781],[120.8424872,14.3083687],[120.8429192,14.3083021],[120.8430272,14.3081499],[120.8432433,14.3081118],[120.8433709,14.3082736],[120.8435575,14.3083878],[120.8437244,14.3083497],[120.8439797,14.308207],[120.8442743,14.308226],[120.8444412,14.3081975],[120.8445885,14.3080452],[120.8448045,14.3079025],[120.8448414,14.3078714],[120.8460602,14.3084286],[120.8464602,14.3077139],[120.847077,14.3080456],[120.8472266,14.3082642],[120.8473481,14.3085282],[120.8472968,14.3086382],[120.8473774,14.308892],[120.8475267,14.3091988],[120.8479217,14.3095214],[120.8481411,14.3096279],[120.848365,14.3096666],[120.848615,14.3097532],[120.8487953,14.309705],[120.8489865,14.3096587],[120.8494031,14.3100787],[120.8497981,14.3104911],[120.8506277,14.311309],[120.8519155,14.311964],[120.8522584,14.3120773],[120.8523882,14.3117826],[120.8526172,14.3114879],[120.8528556,14.3113032],[120.8536157,14.311654],[120.8535148,14.3118411],[120.8546917,14.3126081],[120.8550389,14.3126189],[120.8553562,14.3123226],[120.8559777,14.3119371],[120.8562503,14.3116658],[120.8563283,14.3114851],[120.8566566,14.3110955],[120.8568542,14.3106063],[120.8578271,14.3107416],[120.8583612,14.3108549],[120.8587464,14.3109844],[120.8592441,14.3111814],[120.8596633,14.3100363],[120.8606888,14.3103381],[120.8615749,14.3105951],[120.8616471,14.3104029],[120.862121,14.3104674],[120.8622973,14.3105319],[120.8624186,14.3105509],[120.8642673,14.3109337],[120.8642615,14.3110361],[120.8643312,14.3110897],[120.864448,14.3111721],[120.8644821,14.3112892],[120.864559,14.3115466],[120.8648473,14.3117569],[120.8651034,14.3119932],[120.8653627,14.3120965],[120.8657009,14.3121817],[120.8658398,14.3122805],[120.8658769,14.3124465],[120.8658352,14.312635],[120.8656638,14.312819],[120.8655341,14.3129447],[120.8654924,14.313012],[120.8656082,14.3132858],[120.8658815,14.313398],[120.8661968,14.3134968],[120.8662269,14.3135558],[120.8662257,14.3136229],[120.8661787,14.3137061],[120.8661224,14.3137983],[120.8660714,14.3138841],[120.8660366,14.3139582],[120.8660138,14.314079],[120.8659802,14.3142505],[120.86594,14.3144273],[120.8659185,14.3146027],[120.8659212,14.3147495],[120.8659628,14.3148821],[120.8660272,14.3150523],[120.8660995,14.3151972],[120.8661372,14.3152744],[120.8661854,14.3153791],[120.8662471,14.3155461],[120.8662887,14.3156916],[120.8663021,14.3158177],[120.8663128,14.315945],[120.8663155,14.3161673],[120.8662927,14.3162933],[120.8662632,14.3164076],[120.8662498,14.3165155],[120.8662578,14.3166273],[120.8662753,14.3167897],[120.8663021,14.3169027],[120.8663598,14.3170197],[120.8664778,14.3172107],[120.866573,14.3173225],[120.8667406,14.3175122],[120.8668895,14.3176811],[120.8669941,14.3178098],[120.8671001,14.3178838],[120.8671859,14.3179371],[120.86721,14.3179891],[120.8672194,14.3180826],[120.8672087,14.3182009],[120.867198,14.3183243],[120.8671698,14.3185076],[120.8671376,14.318644],[120.8670866,14.3188233],[120.8670545,14.3189468],[120.8669834,14.3190767],[120.8669351,14.3191157],[120.8668841,14.3191846],[120.8668426,14.3192703],[120.866801,14.3193821],[120.8667661,14.3194886],[120.8667313,14.3195497],[120.8666843,14.3195978],[120.8666468,14.3196706],[120.8666038,14.3197706],[120.8665542,14.3198941],[120.8665355,14.3200071],[120.8665314,14.3200994],[120.8665489,14.3202163],[120.8665743,14.3202969],[120.8665998,14.3203593],[120.8666642,14.3204509],[120.8667514,14.3205477],[120.8668982,14.3206646],[120.8669955,14.3207419],[120.8671517,14.3208355],[120.8672918,14.320931],[120.8674595,14.3210181],[120.8676405,14.3211545],[120.8678538,14.3213039],[120.8679637,14.3213975],[120.8680135,14.3214517],[120.8680983,14.3215237],[120.8681796,14.3216249],[120.8682226,14.3217289],[120.8682306,14.3218406],[120.8682092,14.3219602],[120.8681944,14.3220472],[120.8681938,14.3220689],[120.8681904,14.3221954],[120.8682013,14.3223185],[120.8682051,14.3223617],[120.868236,14.3225267],[120.8682869,14.3227255],[120.8683862,14.3228776],[120.8684787,14.3229906],[120.8686075,14.3231127],[120.868708,14.3232479],[120.868751,14.3233765],[120.8687416,14.323487],[120.8687335,14.3236754],[120.8687657,14.3238677],[120.8688341,14.324008],[120.8688891,14.3241575],[120.8688998,14.3242627],[120.8689065,14.3243758],[120.8689642,14.3244797],[120.8690648,14.3246318],[120.8691372,14.3247786],[120.8692311,14.3249748],[120.8693263,14.3251463],[120.8694202,14.3252555],[120.8695476,14.325375],[120.8696187,14.3254465],[120.8696602,14.3255426],[120.8696643,14.3256284],[120.8696535,14.3257272],[120.8696133,14.3258103],[120.8695462,14.3258974],[120.8694564,14.3260338],[120.8693773,14.3261923],[120.8693156,14.3263197],[120.8692753,14.3264379],[120.8692579,14.3265887],[120.8692592,14.3267277],[120.8692914,14.3268524],[120.8693035,14.3269694],[120.8692847,14.3270746],[120.8692431,14.3271643],[120.8692056,14.3272669],[120.8691922,14.3273605],[120.8692083,14.3274489],[120.8692619,14.3275541],[120.869325,14.3276386],[120.8694108,14.3276905],[120.8694939,14.3277243],[120.8695583,14.3277737],[120.8696991,14.3278816],[120.8698118,14.3279426],[120.8699352,14.3279751],[120.8700009,14.3280037],[120.8701403,14.3281012],[120.8702436,14.3281921],[120.870371,14.3283013],[120.8704461,14.3284104],[120.8705024,14.3285274],[120.8705842,14.3287067],[120.8706298,14.3287872],[120.870641,14.3288306],[120.8706526,14.3288756],[120.870658,14.3290198],[120.8706687,14.3291394],[120.8706889,14.3292602],[120.8707237,14.3293733],[120.8707693,14.3294408],[120.8708592,14.3295058],[120.8709638,14.3295876],[120.871059,14.3296877],[120.8711314,14.3297696],[120.8711784,14.3298488],[120.8712159,14.3299788],[120.87124,14.3300801],[120.8712736,14.3301841],[120.8712964,14.330366],[120.8713272,14.330453],[120.8713715,14.3305219],[120.8714238,14.330557],[120.871523,14.3305661],[120.8716156,14.3305908],[120.8717296,14.3306401],[120.8718167,14.3307038],[120.8718851,14.3307623],[120.8719589,14.3308922],[120.8719911,14.3310378],[120.8720246,14.3311872],[120.8720595,14.3314224],[120.872089,14.3315965],[120.8720903,14.3318031],[120.8720782,14.3319174],[120.8720501,14.3320954],[120.8720139,14.3322397],[120.871971,14.3323397],[120.87192,14.3324489],[120.8719026,14.3325151],[120.8719026,14.3325866],[120.8719428,14.3326802],[120.8720393,14.3328101],[120.8721279,14.3328997],[120.8721936,14.3329985],[120.8722338,14.3330726],[120.8722777,14.3331441],[120.8723411,14.333209],[120.8724296,14.3332766],[120.8725342,14.3333558],[120.8726791,14.3334403],[120.8727863,14.333491],[120.8728494,14.3335416],[120.8729339,14.3336092],[120.8730412,14.3337417],[120.8731163,14.3338678],[120.8731632,14.3339639],[120.8732276,14.3341211],[120.8732718,14.3341926],[120.8732906,14.3342485],[120.8732986,14.3343082],[120.8732906,14.3344018],[120.8732718,14.3345135],[120.8732852,14.3346318],[120.873308,14.334763],[120.8733791,14.3348995],[120.8734301,14.3350177],[120.8734864,14.3351801],[120.8734998,14.3352711],[120.8735079,14.3353763],[120.8735038,14.3354816],[120.8734877,14.3356154],[120.8734918,14.3357609],[120.8735226,14.3358922],[120.8735481,14.3360052],[120.8736031,14.3361858],[120.8736393,14.3363404],[120.8736862,14.336486],[120.8737211,14.3365743],[120.8737586,14.3366809],[120.8737922,14.3368043],[120.8738096,14.3369368],[120.8738083,14.3370512],[120.8737801,14.3371928],[120.8737251,14.3373084],[120.8736581,14.3373877],[120.873583,14.3374786],[120.8735548,14.337541],[120.873532,14.3376151],[120.8734824,14.337745],[120.8734676,14.3378204],[120.8734703,14.3379178],[120.8734944,14.3379984],[120.8735521,14.3381296],[120.8736151,14.3382349],[120.8736514,14.3383284],[120.8736782,14.3384531],[120.8736849,14.3385805],[120.8736876,14.3387182],[120.8736929,14.3388871],[120.8736795,14.3390119],[120.8736822,14.339173],[120.8736594,14.3392717],[120.8736232,14.339312],[120.8735414,14.3393237],[120.8734408,14.3393549],[120.8733684,14.3394302],[120.8732772,14.3395303],[120.873194,14.3396303],[120.8731122,14.3397174],[120.8730479,14.3398005],[120.8729942,14.3399162],[120.8729888,14.3399812],[120.8730036,14.3400448],[120.8730452,14.3401592],[120.8730787,14.3402592],[120.8731002,14.34038],[120.873127,14.3405022],[120.8731458,14.3406555],[120.8731659,14.3408101],[120.8731726,14.3409361],[120.8731994,14.341018],[120.8732155,14.3411284],[120.8732187,14.3411716],[120.8731981,14.3412311],[120.8731498,14.3413207],[120.8730961,14.3414065],[120.873009,14.3414624],[120.8729044,14.3414988],[120.8728118,14.3415572],[120.872734,14.3416443],[120.8726589,14.3417508],[120.8725664,14.3418704],[120.8725034,14.3419626],[120.8724739,14.3420445],[120.8724645,14.3421159],[120.8724645,14.3422523],[120.8724779,14.3423511],[120.8725128,14.3424226],[120.8725302,14.3425265],[120.8725302,14.3426149],[120.8724926,14.3427149],[120.8724403,14.3428072],[120.8723626,14.342915],[120.872321,14.3429878],[120.8722819,14.3430513],[120.8722392,14.3431065],[120.872204,14.3431492],[120.8721598,14.3432252],[120.8721127,14.3433016],[120.8720491,14.3433922],[120.8719957,14.343487],[120.8719384,14.3435906],[120.871878,14.3437206],[120.8718354,14.3438321],[120.8717921,14.3439517],[120.8717419,14.3440638],[120.8716846,14.3441815],[120.8716331,14.3442838],[120.8715835,14.3443886],[120.8715091,14.3445266],[120.87145,14.3446363],[120.8713908,14.3447564],[120.8713418,14.3448704],[120.8712941,14.3449949],[120.8712534,14.3450732],[120.8712006,14.3451422],[120.8711434,14.3452063],[120.871076,14.3452734],[120.870999,14.3453381],[120.8708489,14.3454386],[120.8707096,14.3455347],[120.8705678,14.3456321],[120.8704756,14.3457085],[120.8704056,14.3457504],[120.8703344,14.3457892],[120.8702485,14.3458175],[120.8701442,14.3458533],[120.8700507,14.3458884],[120.869982,14.3459272],[120.8699203,14.3459802],[120.8698344,14.3460609],[120.8697505,14.3461614],[120.8696703,14.3462624],[120.8695711,14.3463807],[120.8694592,14.3464966],[120.8693491,14.3466211],[120.8693046,14.3466956],[120.8692378,14.3468059],[120.8691723,14.3469359],[120.8691348,14.3470431],[120.8690992,14.3471497],[120.8690699,14.3472342],[120.8690496,14.3473217],[120.8690368,14.347403],[120.8690394,14.3475053],[120.8690623,14.3476002],[120.8690979,14.3476963],[120.8691399,14.3477961],[120.8692022,14.3478935],[120.86929,14.3480143],[120.8693701,14.3481313],[120.8694236,14.348225],[120.8694503,14.3483199],[120.8694439,14.3484049],[120.8694236,14.3485257],[120.8693841,14.3486465],[120.869332,14.3487488],[120.8692595,14.3488055],[120.8691628,14.3488523],[120.8690833,14.3488976],[120.8690576,14.3489172],[120.8690114,14.3489456],[120.8689249,14.3489928],[120.8688231,14.3490495],[120.8687621,14.3491136],[120.8687163,14.3491875],[120.8686692,14.3493021],[120.8686425,14.3493871],[120.8686323,14.3495067],[120.8686552,14.3495991],[120.8687315,14.3497002],[120.8688384,14.3497975],[120.8690101,14.3498986],[120.8691691,14.3499812],[120.8693472,14.3500489],[120.8694388,14.3500452],[120.8695431,14.3500292],[120.8696436,14.3500477],[120.8698395,14.3501155],[120.8700672,14.3501833],[120.8701588,14.3502289],[120.8702288,14.3502868],[120.8703267,14.3503472],[120.8704501,14.3503928],[120.8705989,14.350426],[120.8707567,14.3504322],[120.8709042,14.3504174],[120.8710035,14.3504273],[120.8711014,14.3504716],[120.8712006,14.3505456],[120.8712591,14.3505961],[120.8713105,14.3506592],[120.8716324,14.3509918],[120.8716673,14.3510379],[120.8717066,14.3510882],[120.8718034,14.3512002],[120.8718783,14.3513094],[120.8719652,14.3514715],[120.8719818,14.3515521],[120.8719735,14.3516326],[120.87193,14.3517096],[120.8718921,14.351801],[120.8718866,14.3518825],[120.8718857,14.3520087],[120.8718986,14.3521305],[120.8719328,14.3522442],[120.8719735,14.3523266],[120.8720031,14.3523911],[120.8720248,14.3524739],[120.8720359,14.3525509],[120.8720326,14.3526221],[120.8720058,14.352725],[120.8719393,14.3529032],[120.8719079,14.3530223],[120.8718764,14.3531575],[120.871869,14.3532542],[120.8718746,14.3533733],[120.8719088,14.353504],[120.8719716,14.3536187],[120.8720992,14.3537798],[120.8722766,14.3539795],[120.8724467,14.3541926],[120.8725382,14.354326],[120.8726035,14.3544504],[120.8726205,14.3544827],[120.8727351,14.3547182],[120.8728236,14.354982],[120.872868,14.3551619],[120.8729111,14.3554226],[120.8729366,14.3557341],[120.8729676,14.3559662],[120.8729797,14.3562099],[120.8729501,14.3565501],[120.8729528,14.3568591],[120.8729407,14.3571263],[120.8729461,14.3573114],[120.8729757,14.3574978],[120.8730201,14.3578184],[120.8730712,14.3581417],[120.8731169,14.358345],[120.873199,14.358667],[120.8732811,14.3589603],[120.8733363,14.3591975],[120.8734116,14.3594334],[120.8734977,14.3597684],[120.8735569,14.3600383],[120.8735865,14.3602103],[120.8735919,14.3603772],[120.8735515,14.3605218],[120.873456,14.360673],[120.8733403,14.3608216],[120.8732152,14.3609963],[120.8731116,14.3611553],[120.8729541,14.3613965],[120.8728438,14.361562],[120.8727577,14.3617328],[120.8726918,14.3618683],[120.872646,14.3620247],[120.8726299,14.3621707],[120.8726541,14.3623232],[120.872724,14.3624536],[120.8728774,14.3625592],[120.8729851,14.3625918],[120.8731089,14.3626009],[120.8732394,14.3625735],[120.8733982,14.362494],[120.87353,14.3624366],[120.8737265,14.3624197],[120.8739861,14.362464],[120.8741543,14.3625344],[120.8743171,14.3626843],[120.8744006,14.3627834],[120.8744799,14.3629137],[120.8745284,14.3630714],[120.8745553,14.36325],[120.874562,14.3633986],[120.8745435,14.3635188],[120.8745344,14.3635909],[120.8745287,14.363646],[120.8745344,14.3636949],[120.8745426,14.363762],[120.8745508,14.3639071],[120.8745677,14.3640976],[120.8745677,14.3642621],[120.8745836,14.3643718],[120.8745856,14.3645276],[120.8745767,14.3646363],[120.8745389,14.364769],[120.8744843,14.3648768],[120.8744545,14.3649605],[120.8744426,14.3650307],[120.8744416,14.3650788],[120.8744424,14.3651169],[120.8744456,14.3651519],[120.8744704,14.3652481],[120.874521,14.3653472],[120.8746084,14.3654587],[120.8746769,14.3655819],[120.8747405,14.3657387],[120.874805,14.3659589],[120.8748322,14.3660709],[120.874863,14.3661616],[120.8749013,14.3662726],[120.8749348,14.3663662],[120.8749556,14.3664487],[120.8749737,14.3665065],[120.8749918,14.3665624],[120.8750112,14.3666338],[120.8750347,14.3667196],[120.8750508,14.3668027],[120.8750609,14.366891],[120.8750595,14.3669885],[120.8750508,14.3670645],[120.8750428,14.3671515],[120.8750428,14.3672295],[120.8750515,14.367312],[120.8750542,14.3673828],[120.8750555,14.3674308],[120.8750669,14.3674822],[120.8750917,14.3675198],[120.8751339,14.3675569],[120.8751816,14.3676296],[120.8752278,14.367731],[120.8752795,14.3678238],[120.875313,14.3679161],[120.8753593,14.3680759],[120.8753794,14.3681681],[120.8754062,14.3682928],[120.8754243,14.3683792],[120.8754491,14.3684702],[120.8754746,14.3685293],[120.8755088,14.3686066],[120.875541,14.3686663],[120.8755919,14.3687475],[120.8756469,14.3688333],[120.8756898,14.3689125],[120.8757448,14.3690171],[120.8757864,14.3691016],[120.875826,14.3691737],[120.8758561,14.3692334],[120.8758843,14.3692828],[120.875899,14.3693302],[120.8758977,14.3693672],[120.875885,14.3694134],[120.8758427,14.3694621],[120.8757958,14.3695238],[120.8757569,14.3695628],[120.8757193,14.3695861],[120.8756597,14.3696186],[120.8755832,14.3696849],[120.8755269,14.369742],[120.8754665,14.3698271],[120.8754223,14.3698875],[120.8753613,14.3699525],[120.8752868,14.3700285],[120.8751936,14.3700961],[120.8751111,14.3701285],[120.8750374,14.370148],[120.8749381,14.3701643],[120.8748617,14.3701883],[120.8747832,14.3702169],[120.8747135,14.3702598],[120.8746518,14.3703124],[120.8746042,14.3703656],[120.8745646,14.3704111],[120.8745358,14.3704559],[120.8745177,14.3705137],[120.8745063,14.3705767],[120.8744956,14.3706657],[120.8744909,14.3707456],[120.8744788,14.3708086],[120.8744661,14.3708704],[120.8744413,14.3709392],[120.8744332,14.3709996],[120.8744325,14.3710828],[120.8744513,14.3712211],[120.8744627,14.3713491],[120.8744768,14.3714816],[120.8744862,14.3716174],[120.8744882,14.3717473],[120.8744849,14.3718551],[120.8744714,14.3719227],[120.8744292,14.3719746],[120.874336,14.3720545],[120.8742877,14.3721136],[120.8742455,14.3721877],[120.8742193,14.3722533],[120.8742039,14.3723338],[120.8742019,14.3724105],[120.8742146,14.372491],[120.8742213,14.3725462],[120.874222,14.3726287],[120.8742059,14.372706],[120.8741985,14.3727859],[120.8742005,14.3728756],[120.8742106,14.3729477],[120.8742307,14.3730087],[120.8742783,14.3730769],[120.8743186,14.3731101],[120.8743923,14.3731588],[120.8744366,14.3732133],[120.8744674,14.373277],[120.8744835,14.3733407],[120.8744889,14.3734037],[120.8744916,14.373453],[120.874511,14.3735225],[120.8745412,14.3735868],[120.8745693,14.3736349],[120.8746203,14.3737265],[120.8746726,14.3738187],[120.8747303,14.3739246],[120.8747792,14.3740104],[120.8748349,14.3740818],[120.8748879,14.3741734],[120.8749422,14.3742539],[120.8750159,14.3743299],[120.8751266,14.3744936],[120.8751903,14.374604],[120.8752895,14.3747034],[120.8753733,14.3747866],[120.8754625,14.3748853],[120.8755121,14.3749496],[120.8755584,14.3750061],[120.8756335,14.3750854],[120.875669,14.3751276],[120.8756986,14.3751945],[120.8757126,14.3752718],[120.8757106,14.3753582],[120.8757032,14.3754335],[120.8756898,14.3755069],[120.875667,14.3755862],[120.8756369,14.3756758],[120.8755785,14.3757862],[120.8755343,14.3758376],[120.8754726,14.3759136],[120.8753854,14.3760526],[120.8753485,14.3761273],[120.8752976,14.3762279],[120.8752667,14.3763176],[120.8752292,14.3764027],[120.8751856,14.3764832],[120.875136,14.3765923],[120.8751004,14.3766891],[120.8750749,14.3767632],[120.8750441,14.376821],[120.8749998,14.3768528],[120.8749492,14.3768626],[120.87491,14.3768593],[120.8748667,14.376847],[120.8748158,14.3768268],[120.8747631,14.3768148],[120.8747172,14.3768116],[120.8746676,14.37682],[120.8746119,14.3768369],[120.8745687,14.3768648],[120.8745405,14.3769022],[120.874505,14.3769649],[120.8744859,14.3770084],[120.8744651,14.3770691],[120.874454,14.377125],[120.8744406,14.3772094],[120.8744406,14.377275],[120.8744352,14.3773601],[120.8744185,14.3774712],[120.8743957,14.3775881],[120.8743829,14.3776823],[120.874391,14.3777778],[120.874401,14.3778694],[120.8744272,14.3779467],[120.8744674,14.3780291],[120.8745284,14.3780954],[120.8746076,14.3781461],[120.8746733,14.3781779],[120.8747571,14.3782149],[120.8748563,14.3782662],[120.8749234,14.3783286],[120.8750018,14.3784345],[120.8750682,14.3785384],[120.8751145,14.3786456],[120.875138,14.3787245],[120.8751513,14.3787802],[120.8751614,14.3788456],[120.8751702,14.3789093],[120.8751923,14.3789866],[120.8752191,14.3790411],[120.875262,14.3790964],[120.8753029,14.3791412],[120.8753492,14.3792074],[120.875372,14.3792522],[120.8753928,14.379336],[120.8754062,14.3794374],[120.8754109,14.3795309],[120.8754055,14.379589],[120.8753861,14.3796465],[120.8753438,14.3797323],[120.8752875,14.379792],[120.8751983,14.3798622],[120.8751239,14.3799479],[120.875032,14.380033],[120.8749415,14.3801519],[120.8748798,14.3802668],[120.8748148,14.3803773],[120.8747591,14.3804883],[120.8747108,14.3806293],[120.8746585,14.3808099],[120.8746317,14.3809644],[120.8746156,14.3810866],[120.8746041,14.3812255],[120.8745821,14.3813275],[120.8745418,14.381451],[120.874511,14.3815679],[120.8745016,14.3817166],[120.8745063,14.3818589],[120.8745325,14.3819784],[120.8745767,14.3821641],[120.8746149,14.3822739],[120.8746679,14.3824272],[120.8747048,14.3825824],[120.8747115,14.3826695],[120.8747169,14.3827559],[120.8747075,14.3829059],[120.8746941,14.3830209],[120.8746699,14.3831365],[120.8746129,14.3832969],[120.8745653,14.3833924],[120.874519,14.3834788],[120.874458,14.3835262],[120.8743742,14.3835645],[120.8742555,14.3836087],[120.8741355,14.3836464],[120.8740027,14.3836802],[120.8738807,14.3836977],[120.8737472,14.3837321],[120.8736158,14.3837737],[120.8734287,14.3838386],[120.8732611,14.3838978],[120.8731189,14.3839458],[120.8730177,14.3839965],[120.872895,14.3840614],[120.8728051,14.3841322],[120.8727273,14.3842186],[120.8726784,14.3842914],[120.8726033,14.3844382],[120.8725463,14.3845362],[120.8724846,14.3846246],[120.8723867,14.384746],[120.8723196,14.38485],[120.8722814,14.3849227],[120.8722385,14.3850182],[120.8721761,14.3851247],[120.8720923,14.3852176],[120.8720246,14.3852514],[120.8719365,14.3852899],[120.8715998,14.3855084],[120.8712234,14.3856636],[120.8706337,14.3861342],[120.8700432,14.3865157],[120.8694462,14.3868762],[120.8690252,14.3870549],[120.868649,14.3870778],[120.8683285,14.3870264],[120.8678779,14.3867686],[120.8673849,14.3865796],[120.8671191,14.3866007],[120.866819,14.3868123],[120.8663865,14.3871015],[120.8659662,14.3876381],[120.8655784,14.3879524],[120.8653882,14.3882372],[120.8651343,14.3890062],[120.864873,14.3897813],[120.8647241,14.3902723],[120.8644878,14.390686],[120.864193,14.3909825],[120.8639438,14.391301],[120.8630909,14.3919405],[120.8623347,14.3925382],[120.8619114,14.3928106],[120.8618034,14.3929174],[120.861672,14.3932781],[120.861647,14.3936387],[120.861503,14.3942268],[120.8614587,14.3946023],[120.8614497,14.3949395],[120.8614946,14.3954243],[120.861608,14.3962048],[120.8616653,14.3966587],[120.8616954,14.3970127],[120.8616915,14.3973629],[120.8615827,14.3975833],[120.8615039,14.3977455],[120.861306,14.3978765],[120.8606835,14.3980711],[120.8603187,14.3982166],[120.8600398,14.398466],[120.8599096,14.3987251],[120.8598896,14.3989648],[120.8598681,14.3994636],[120.8598681,14.3998585],[120.8598681,14.4003196],[120.8598696,14.4004045],[120.8598417,14.4005449],[120.8597256,14.4007788],[120.8595463,14.4010224],[120.8593502,14.4012461],[120.8591061,14.4015001],[120.8589665,14.4016315],[120.8587911,14.4017803],[120.8586321,14.4019414],[120.8584607,14.4020685],[120.8581773,14.4022724],[120.8579152,14.4024094],[120.8576128,14.4025125],[120.8574038,14.4025522],[120.8571227,14.4025568],[120.856907,14.402498],[120.8564483,14.4022226],[120.8560728,14.4019447],[120.8558898,14.4018715],[120.8557067,14.4018706],[120.8553727,14.4019135],[120.8551166,14.4020252],[120.8549382,14.4022018],[120.8547612,14.4025603],[120.8545252,14.4030384],[120.854332,14.4036826],[120.8542033,14.404036],[120.8540129,14.4043475],[120.8537222,14.4046337],[120.8533352,14.404883],[120.8530152,14.4050353],[120.8523569,14.4052553],[120.8518527,14.4053928],[120.8513018,14.405524],[120.8506866,14.4056775],[120.8501849,14.4057857],[120.8495682,14.405913],[120.849109,14.4060725],[120.8485813,14.4062694],[120.8481649,14.4065005],[120.8478695,14.406685],[120.8476587,14.4068832],[120.8474101,14.4071572],[120.8472207,14.4074018],[120.8469393,14.4077428],[120.8467146,14.4079847],[120.8464376,14.4082708],[120.8463927,14.4083172],[120.8461513,14.4086965],[120.8460494,14.4089563],[120.8458053,14.4094318],[120.8454486,14.4099851],[120.8451607,14.4104742],[120.8448729,14.4110284],[120.7331116,14.4694375],[120.7147502,14.4452661],[120.7122257,14.4232244],[120.7087679,14.4060311]]]}}]}