{"type":"FeatureCollection","features":[{"type":"Feature","id":"relation/1491333","properties":{"admin_level":"6","admin_subdivisions":"10 barangays","admin_type:PH":"municipality","boundary":"administrative","contact:website":"http://www.ternate.cavite.gov.ph/","name":"Ternate","name:etymology":"Ternate Island","name:etymology:wikidata":"Q14916492","name:etymology:wikipedia":"en:Ternate","official_name":"Municipality of Ternate","old_name":"Bahra","old_ref":"042121000","population":"24653","population:date":"2020-05-01","postal_code":"4111","ref":"0402121000","start_date":"1663","type":"boundary","wikidata":"Q63124","wikipedia":"en:Ternate, Cavite","id":"relation/1491333"},"geometry":{"type":"Polygon","coordinates":[[[120.5699921,14.3175317],[120.5982285,14.3023584],[120.622248,14.2894341],[120.6198001,14.2725668],[120.6229477,14.2667426],[120.6231297,14.2664635],[120.623261,14.2662279],[120.6234869,14.265978],[120.6236242,14.2657412],[120.6237061,14.2655103],[120.6237626,14.2652446],[120.6237687,14.2650513],[120.6238294,14.2647787],[120.6239686,14.2645324],[120.6240805,14.2642398],[120.6241767,14.2637911],[120.6242289,14.2634425],[120.6241778,14.2630738],[120.6242051,14.2626874],[120.6242686,14.2624162],[120.6243956,14.2621391],[120.6246134,14.2619354],[120.6249458,14.2618218],[120.6253435,14.2617371],[120.625848,14.2616717],[120.6263347,14.2616811],[120.6268452,14.2615733],[120.6272452,14.2613482],[120.6275402,14.2610401],[120.627764,14.2607551],[120.6279029,14.2603517],[120.6281843,14.2598908],[120.6283889,14.2594862],[120.6285109,14.2591017],[120.6286014,14.258821],[120.6286505,14.2585404],[120.6287619,14.2581734],[120.6289207,14.2577835],[120.6294553,14.256769],[120.6296293,14.2564122],[120.6299363,14.2560858],[120.6301988,14.2559446],[120.6305788,14.2557883],[120.6310253,14.255594],[120.6313895,14.2553906],[120.6316989,14.2551189],[120.6320795,14.2548184],[120.6324084,14.2544178],[120.6325393,14.2541774],[120.6326528,14.2538382],[120.6327662,14.2534529],[120.6328588,14.2529807],[120.6328209,14.2524855],[120.63275,14.2521273],[120.6327622,14.2517807],[120.6328537,14.2511192],[120.6333064,14.2502383],[120.6335094,14.2497903],[120.6335153,14.2495863],[120.6335728,14.2493723],[120.6336492,14.2491721],[120.6337772,14.2489819],[120.633913,14.2487617],[120.6340797,14.2486016],[120.6343306,14.2482913],[120.6345986,14.2479938],[120.6348407,14.2477213],[120.6350673,14.2473337],[120.6354283,14.246926],[120.6356382,14.2467197],[120.6359617,14.2465033],[120.6362492,14.2462168],[120.6364229,14.2458903],[120.6366206,14.2454376],[120.636839,14.245075],[120.6372959,14.2444661],[120.6378098,14.2442609],[120.6384121,14.2437644],[120.6387489,14.2434097],[120.6389313,14.2430665],[120.639137,14.2428266],[120.6393011,14.2425809],[120.6394672,14.2422961],[120.6395799,14.2419524],[120.6397282,14.2417007],[120.640002,14.2414619],[120.6402686,14.2413096],[120.6404628,14.2411272],[120.6405641,14.2409298],[120.640749,14.2406408],[120.640903,14.2402716],[120.6411266,14.2397268],[120.6413911,14.2392216],[120.6416645,14.2388636],[120.6420597,14.2383431],[120.6425939,14.237339],[120.6427063,14.2370577],[120.6427804,14.2368769],[120.6428306,14.2366385],[120.642878,14.2364268],[120.6429491,14.2362151],[120.643026,14.2359643],[120.6430791,14.2356876],[120.6431635,14.2353426],[120.6432908,14.2349755],[120.6433779,14.234587],[120.6433241,14.2341226],[120.6433477,14.2335802],[120.6434139,14.233126],[120.6434981,14.2326021],[120.6436993,14.2320085],[120.6439544,14.2314671],[120.6449973,14.23009],[120.6452972,14.2296162],[120.6455016,14.2291425],[120.645641,14.228667],[120.6493415,14.2274645],[120.6614879,14.2325332],[120.6640096,14.2350937],[120.6662165,14.2377981],[120.6981182,14.2625981],[120.7092061,14.2727964],[120.7130608,14.2764445],[120.7170573,14.2789633],[120.7178351,14.2795481],[120.7181723,14.2798016],[120.7188333,14.279791],[120.720146,14.2797709],[120.7208204,14.2797379],[120.7214486,14.2796848],[120.7220194,14.2796339],[120.7225263,14.2795949],[120.7230011,14.2795066],[120.7234441,14.2794],[120.7240599,14.279187],[120.7248936,14.2789231],[120.725348,14.2787216],[120.725737,14.2785165],[120.7262107,14.2782025],[120.7265738,14.2778846],[120.7269509,14.2775512],[120.7272464,14.2772158],[120.7276601,14.2766629],[120.7281368,14.2760875],[120.7298704,14.2798934],[120.7346789,14.285377],[120.7352629,14.286043],[120.7408123,14.293115],[120.7435529,14.2965416],[120.7388543,14.300942],[120.7374727,14.3023395],[120.7365317,14.3030147],[120.7337902,14.3063314],[120.7284056,14.309571],[120.7232351,14.3131515],[120.6834231,14.3357379],[120.6766904,14.3466665],[120.5880221,14.3280912],[120.5699921,14.3175317]]]}}]}